{"objects":{"water":{"type":"GeometryCollection","geometries":[{"type":"MultiPolygon","properties":{"source":"naturalearthdata.com","kind":"ocean","area":1576712559132672,"sort_rank":200,"min_zoom":0.0,"id":1},"arcs":[[[2]],[[3],[4],[5],[6],[7],[8]]]},{"type":"MultiLineString","properties":{"source":"naturalearthdata.com","kind":"ocean","sort_rank":205,"boundary":true,"min_zoom":0.0,"id":55},"arcs":[[9],[10]]},{"type":"LineString","properties":{"source":"naturalearthdata.com","kind":"ocean","sort_rank":205,"boundary":true,"min_zoom":0.0,"id":2769},"arcs":[11]},{"type":"LineString","properties":{"source":"naturalearthdata.com","kind":"ocean","sort_rank":205,"boundary":true,"min_zoom":0.0,"id":2771},"arcs":[12]},{"type":"LineString","properties":{"source":"naturalearthdata.com","kind":"ocean","sort_rank":205,"boundary":true,"min_zoom":0.0,"id":2774},"arcs":[13]},{"type":"LineString","properties":{"source":"naturalearthdata.com","kind":"ocean","sort_rank":205,"boundary":true,"min_zoom":0.0,"id":2787},"arcs":[14]},{"type":"LineString","properties":{"source":"naturalearthdata.com","kind":"ocean","sort_rank":205,"boundary":true,"min_zoom":0.0,"id":3286},"arcs":[15]},{"type":"LineString","properties":{"source":"naturalearthdata.com","kind":"ocean","sort_rank":205,"boundary":true,"min_zoom":0.0,"id":3598},"arcs":[16]}]},"buildings":{"type":"GeometryCollection","geometries":[]},"places":{"type":"GeometryCollection","geometries":[{"type":"Point","properties":{"name:ka":"\u10d0\u10e0\u10d0\u10d1\u10d4\u10d7\u10d8\u10e1 \u10d2\u10d0\u10d4\u10e0\u10d7\u10d8\u10d0\u10dc\u10d4\u10d1\u10e3\u10da\u10d8 \u10d4\u10db\u10d8\u10e0\u10d0\u10e2\u10d4\u10d1\u10d8","name:ko":"\uc544\ub78d\uc5d0\ubbf8\ub9ac\ud2b8 \uc5f0\ud569","name:kn":"\u0cb8\u0c82\u0caf\u0cc1\u0c95\u0ccd\u0ca4 \u0c85\u0cb0\u0cac\u0ccd \u0c8e\u0cae\u0cbf\u0cb0\u0cc7\u0c9f\u0cb8\u0ccd","name:km":"\u17a2\u17c1\u1798\u17b8\u179a\u17c9\u17c2\u1791\u17a2\u17b6\u179a\u17c9\u17b6\u1794\u17cb\u179a\u17bd\u1798","name:kl":"United Arab Emirates","name:cs":"Spojen\u00e9 arabsk\u00e9 emir\u00e1ty","name:ki":"Falme za Kiarabu","name:kw":"Pennternasedh Unys Arabek","name:kv":"\u04e6\u0442\u0443\u0432\u0442\u0447\u04e7\u043c \u0410\u0440\u0430\u0431 \u042d\u043c\u0438\u0440\u0430\u0442\u044a\u044f\u0441","name:ku":"M\u00eerni\u015f\u00een\u00ean Ereb\u00ee y\u00ean Yekb\u00fby\u00ee","name:ti":"\u12e8\u1270\u1263\u1260\u1229\u1275 \u12a0\u1228\u1265 \u12a4\u121d\u122c\u1275\u1235","name:ks":"\u0645\u064f\u062a\u062d\u062f\u06c1 \u0639\u0631\u064e\u0628 \u0627\u0645\u0627\u0631\u0627\u062a","name:to":"\u02bbAlepea Fakatahataha","name:tl":"United Arab Emirates","name:ce":"\u04c0\u0430\u0440\u0431\u0438\u0439\u043d \u0426\u0445\u044c\u0430\u044c\u043d\u0430\u043a\u0445\u0435\u0442\u0442\u0430 \u042d\u043c\u0438\u0440\u0430\u0442\u0430\u0448","name:ta":"\u0b90\u0b95\u0bcd\u0b95\u0bbf\u0baf \u0b85\u0bb0\u0baa\u0bc1 \u0b95\u0bc2\u0b9f\u0bcd\u0b9f\u0bbe\u0b9f\u0bcd\u0b9a\u0bbf","name:tg":"\u0410\u043c\u043e\u0440\u0430\u0442\u0438 \u041c\u0443\u0442\u0442\u0430\u04b3\u0438\u0434\u0430\u0438 \u0410\u0440\u0430\u0431","name:ca":"Emirats \u00c0rabs Units","name:te":"\u0c2f\u0c41\u0c28\u0c48\u0c1f\u0c46\u0c21\u0c4d \u0c06\u0c30\u0c2c\u0c4d \u0c0e\u0c2e\u0c3f\u0c30\u0c47\u0c1f\u0c4d\u0c38\u0c4d","name:cy":"Yr Emiradau Arabaidd Unedig","name:hr":"Ujedinjeni Arapski Emirati","name:da":"Forenede Arabiske Emirater","name:de":"Vereinigte Arabische Emirate","name:dz":"\u0f61\u0f74\u0f0b\u0f53\u0f71\u0f60\u0f72\u0f0b\u0f4a\u0f7a\u0f4c\u0f0b \u0f68\u0f0b\u0f62\u0f56\u0f0b \u0f68\u0f7a\u0f0b\u0f58\u0f7a\u0f0b\u0f62\u0f7a\u0f4a\u0f66","source":"openstreetmap.org","name:dv":"\u0787\u07ac\u0786\u07aa\u0788\u07ac\u0783\u07a8 \u07a2\u07a6\u0783\u07a6\u0784\u07a8 \u0787\u07a8\u0789\u07a7\u0783\u07a7\u078c\u07aa","name:lv":"Apvienotie Ar\u0101bu Emir\u0101ti","name:lt":"Jungtiniai Arab\u0173 Emyratai","name:uz":"Birlashgan Arab Amirliklari","name:kk":"\u0411\u0456\u0440\u0456\u043a\u043a\u0435\u043d \u0410\u0440\u0430\u0431 \u04d8\u043c\u0456\u0440\u043b\u0456\u043a\u0442\u0435\u0440\u0456","name:ur":"\u0645\u062a\u062d\u062f\u06c1 \u0639\u0631\u0628 \u0627\u0645\u0627\u0631\u0627\u062a","name:lb":"Vereenegt Arabesch Emirater","name:la":"Phylarchiarum Arabicarum Confoederatio","name:lg":"Emireeti","name:uk":"\u041e\u0431\u2019\u0454\u0434\u043d\u0430\u043d\u0456 \u0410\u0440\u0430\u0431\u0441\u044c\u043a\u0456 \u0415\u043c\u0456\u0440\u0430\u0442\u0438","name:ug":"\u0626\u06d5\u0631\u06d5\u0628 \u0628\u0649\u0631\u0644\u06d5\u0634\u0645\u06d5 \u062e\u06d5\u0644\u0649\u067e\u0649\u0644\u0649\u0643\u0649","name:li":"Vereinegde Arabische Emirate","name:ln":"L\u025bmila alabo","name:lo":"\u0eaa\u0eb0\u0eab\u0eb0\u0ea5\u0eb1\u0e94\u0ead\u0eb2\u0eab\u0ea5\u0eb1\u0e9a\u0ec0\u0ead\u0ea1\u0eb4\u0ec0\u0ea5\u0e94","name:el":"\u0397\u03bd\u03c9\u03bc\u03ad\u03bd\u03b1 \u0391\u03c1\u03b1\u03b2\u03b9\u03ba\u03ac \u0395\u03bc\u03b9\u03c1\u03ac\u03c4\u03b1","name:eo":"Unui\u011dintaj Arabaj Emirlandoj","name:en":"United Arab Emirates","name":"\u0627\u0644\u0625\u0645\u0627\u0631\u0627\u062a \u0627\u0644\u0639\u0631\u0628\u064a\u0629 \u0627\u0644\u0645\u062a\u062d\u062f\u0629","name:tk":"Birle\u015fen Arap Emirlikleri","name:ee":"United Arab Emirates nutome","name:th":"\u0e2a\u0e2b\u0e23\u0e31\u0e10\u0e2d\u0e32\u0e2b\u0e23\u0e31\u0e1a\u0e40\u0e2d\u0e21\u0e34\u0e40\u0e23\u0e15\u0e2a\u0e4c","name:eu":"Arabiar Emirrerri Batuak","name:et":"Araabia \u00dchendemiraadid","name:es":"Emiratos \u00c1rabes Unidos","name:ia":"Emiratos Arabe Unite","name:rm":"Emirats Arabs Unids","name:rn":"Leta Zunze Ubumwe z'Abarabu","name:az":"Birl\u0259\u015fmi\u015f \u018fr\u0259b Emiratlar\u0131","name:ie":"Unit Arabic Emiratus","name:id":"Uni Emirat Arab","name:pa":"\u0a38\u0a70\u0a2f\u0a41\u0a15\u0a24 \u0a05\u0a30\u0a2c \u0a07\u0a2e\u0a30\u0a3e\u0a24","name:io":"Unionita Araba Emirati","name:av":"\u0413I\u0430\u0440\u0430\u0431\u0430\u0437\u0443\u043b \u0426\u043e\u043b\u044a\u0430\u0440\u0430\u043b \u0418\u043c\u0430\u0440\u0430\u0442\u0430\u043b","name:ak":"United Arab Emirates","name:am":"\u12e8\u1270\u1263\u1260\u1229\u1275 \u12a0\u1228\u1265 \u12a4\u121d\u122c\u1275\u1235","name:it":"Emirati Arabi Uniti","name:an":"Emiratos Arabes Unitos","name:ru":"\u041e\u0431\u044a\u0435\u0434\u0438\u043d\u0451\u043d\u043d\u044b\u0435 \u0410\u0440\u0430\u0431\u0441\u043a\u0438\u0435 \u042d\u043c\u0438\u0440\u0430\u0442\u044b","name:rw":"Nyarabu Zunze Ubumwe","name:af":"Verenigde Arabiese Emirate","name:zu":"i-United Arab Emirates","name:ky":"\u0411\u0438\u0440\u0438\u043a\u043a\u0435\u043d \u0410\u0440\u0430\u0431 \u042d\u043c\u0438\u0440\u043b\u0438\u043a\u0442\u0435\u0440\u0438","name:zh-yue":"\u963f\u62c9\u4f2f\u806f\u5408\u914b\u9577\u570b","name:zh":"\u963f\u62c9\u4f2f\u8054\u5408\u914b\u957f\u56fd","name:so":"Imaaraadka Carabta ee Midoobay","name:sn":"United Arab Emirates","name:sl":"Zdru\u017eeni arabski emirati","name:sk":"Spojen\u00e9 arabsk\u00e9 emir\u00e1ty","name:ja":"\u30a2\u30e9\u30d6\u9996\u9577\u56fd\u9023\u90a6","name:si":"\u0d91\u0d9a\u0dca\u0dc3\u0dad\u0dca \u0d85\u0dbb\u0dcf\u0db6\u0dd2 \u0d91\u0db8\u0dd2\u0dbb\u0dca \u0dbb\u0dcf\u0da2\u0dca\u200d\u0dba\u0dba","name:sh":"Ujedinjeni Arapski Emirati","name:sg":"Ar\u00e2bo Emir\u00e2ti \u00d4ko","name:se":"Ovttastuvvan Ar\u00e1baemir\u00e1htat","name:sd":"\u06af\u068f\u064a\u0644 \u0639\u0631\u0628 \u0627\u0645\u0627\u0631\u0627\u062a","name:br":"Emirelezhio\u00f9 Arab Unanet","name:bs":"Ujedinjeni Arapski Emirati","name:bm":"Arabu mara kafoli","name:bn":"\u09b8\u0982\u09af\u09c1\u0995\u09cd\u09a4 \u0986\u09b0\u09ac \u0986\u09ae\u09bf\u09b0\u09be\u09a4","name:bo":"\u0f68\u0f0b\u0f62\u0f56\u0f0d \u0f68\u0f72\u0f0b\u0f58\u0f72\u0f0b\u0f62\u0f4a\u0f84\u0f0d \u0f46\u0f72\u0f42\u0f0b\u0f66\u0f92\u0fb2\u0f72\u0f63\u0f0b\u0f62\u0f92\u0fb1\u0f63\u0f0b\u0f41\u0f56\u0f0d","name:sw":"Falme za Kiarabu","name:be":"\u0410\u0431'\u044f\u0434\u043d\u0430\u043d\u044b\u044f \u0410\u0440\u0430\u0431\u0441\u043a\u0456\u044f \u042d\u043c\u0456\u0440\u0430\u0442\u044b","name:su":"Uni \u00c9mirat Arab","name:bg":"\u041e\u0431\u0435\u0434\u0438\u043d\u0435\u043d\u0438 \u0410\u0440\u0430\u0431\u0441\u043a\u0438 \u0415\u043c\u0438\u0440\u0441\u0442\u0432\u0430","name:ss":"Bunye bema-Arabhu","name:sr":"\u0423\u0458\u0435\u0434\u0438\u045a\u0435\u043d\u0438 \u0410\u0440\u0430\u043f\u0441\u043a\u0438 \u0415\u043c\u0438\u0440\u0430\u0442\u0438","name:sq":"Emiratet Arabe te Bashkuara","alt_name:sr":"\u0423.\u0410.\u0415; \u0423\u0410\u0415; \u0423. \u0410. \u0415.","name:jv":"Uni Emirat Arab","name:pt":"Emirados \u00c1rabes Unidos","name:ps":"\u0639\u0631\u0628\u064a \u0645\u062a\u062d\u062f\u0647 \u0627\u0645\u0627\u0631\u0627\u062a","name:oc":"Emirats Arabis Units","min_zoom":2.0,"name:ro":"Emiratele Arabe Unite","name:zh-min-nan":"A-la-pek Li\u00e2n-ha\u030dp Th\u00e2u-l\u00e2ng-kok","name:os":"\u0410\u0440\u0430\u0431\u0431\u044b \u0418\u0443\u0433\u043e\u043d\u0434 \u042d\u043c\u0438\u0440\u0430\u0442\u0442\u00e6","name:or":"\u0b38\u0b02\u0b2f\u0b41\u0b15\u0b4d\u0b24 \u0b06\u0b30\u0b2c \u0b0f\u0b2e\u0b3f\u0b30\u0b47\u0b1f\u0b38\u0b4d","name:pl":"Zjednoczone Emiraty Arabskie","name:tr":"Birle\u015fik Arap Emirlikleri","name:hi":"\u0938\u0902\u092f\u0941\u0915\u094d\u0924 \u0905\u0930\u092c \u0905\u092e\u0940\u0930\u093e\u0924","name:sv":"F\u00f6renade Arabemiraten","name:he":"\u05d0\u05d9\u05d7\u05d5\u05d3 \u05d4\u05d0\u05de\u05d9\u05e8\u05d5\u05d9\u05d5\u05ea \u05d4\u05e2\u05e8\u05d1\u05d9\u05d5\u05ea","name:ha":"Ha\u0257a\u0257\u0257iyar Daular Larabawa","name:hy":"\u0544\u056b\u0561\u0581\u0575\u0561\u056c \u0531\u0580\u0561\u0562\u0561\u056f\u0561\u0576 \u0537\u0574\u056b\u0580\u0561\u0569\u0576\u0565\u0580","name:ht":"Emira Arab Ini","name:hu":"Egyes\u00fclt Arab Em\u00edrs\u00e9gek","name:qu":"Hukllachasqa Arab Imiratukuna","population":4600000,"kind":"country","name:is":"Sameinu\u00f0u arab\u00edsku furstad\u00e6min","name:yi":"\u05e4\u05d0\u05e8\u05d0\u05d9\u05d9\u05e0\u05d9\u05d2\u05d8\u05e2 \u05d0\u05e8\u05d0\u05d1\u05d9\u05e9\u05e2 \u05e2\u05de\u05d9\u05e8\u05d0\u05d8\u05df","name:yo":"Or\u00edl\u1eb9\u0301\u00e8de \u1eb8mirate ti Aw\u1ecdn Arabu","name:mt":"Emirati G\u0127arab Maqg\u0127uda","name:ms":"Emiriah Arab Bersatu","name:mr":"\u0938\u0902\u092f\u0941\u0915\u094d\u0924 \u0905\u0930\u092c \u0905\u092e\u0940\u0930\u093e\u0924","name:my":"\u101a\u1030\u1021\u1031\u1021\u102e\u1038","int_name":"United Arab Emirates","name:mg":"Emir\u00e0 Arabo mitambatra","name:ml":"\u0d38\u0d02\u0d2f\u0d41\u0d15\u0d4d\u0d24 \u0d05\u0d31\u0d2c\u0d4d \u0d30\u0d3e\u0d37\u0d4d\u0d1f\u0d4d\u0d30\u0d02","name:vi":"C\u00e1c Ti\u1ec3u v\u01b0\u01a1ng qu\u1ed1c \u1ea2 R\u1eadp Th\u1ed1ng nh\u1ea5t","name:mn":"\u0410\u0440\u0430\u0431\u044b\u043d \u041d\u044d\u0433\u0434\u0441\u044d\u043d \u042d\u043c\u0438\u0440\u0442 \u0423\u043b\u0441","name:mi":"Te Kotahitanga o ng\u0101 Whenua \u0100rapi","id":424310703,"name:mk":"\u041e\u0431\u0435\u0434\u0438\u043d\u0435\u0442\u0438 \u0410\u0440\u0430\u043f\u0441\u043a\u0438 \u0415\u043c\u0438\u0440\u0430\u0442\u0438","name:vo":"Lemir\u00e4ns Larabik Pebal\u00f6l","name:fa":"\u0627\u0645\u0627\u0631\u0627\u062a \u0645\u062a\u062d\u062f\u0647 \u0639\u0631\u0628\u06cc","name:ff":"Emiraat Araab Denntu\u0257e","name:fi":"Yhdistyneet arabiemiirikunnat","name:fo":"Sameindu Emirr\u00edkini","name:fr":"\u00c9mirats arabes unis","name:fy":"de Feriene Arabyske Emiraten","name:nl":"Verenigde Arabische Emiraten","name:nn":"Dei sameinte arabiske emirata","name:no":"De forente arabiske emirater","name:na":"Emireitit Arabiya","name:ne":"\u0938\u0902\u092f\u0941\u0915\u094d\u0924 \u0905\u0930\u092c \u0907\u092e\u093f\u0930\u093e\u091f\u094d\u0938","name:wo":"Imaaraat yu Araab yu Bennoo yi","name:nv":"\u00c1s\u00e1\u00ed Bik\u00e9yah Y\u00e1zh\u00ed A\u0142hidadiidzoo\u00edg\u00ed\u00ed","name:ga":"Aontas na n\u00c9im\u00edr\u00edochta\u00ed Arabacha","name:gd":"Na h-Iomaratan Arabach Aonaichte","name:gn":"Aravia Emiryvy Joaju","name:gl":"Emiratos \u00c1rabes Unidos","name:gv":"Ny h-Emmiraidyn Arabagh Unnaneysit","name:gu":"\u0aaf\u0ac1\u0aa8\u0abe\u0a87\u0a9f\u0ac7\u0aa1 \u0a85\u0ab0\u0aac \u0a8f\u0aae\u0abf\u0ab0\u0ac7\u0a9f\u0acd\u0ab8","name:tt":"\u0411\u0435\u0440\u043b\u04d9\u0448\u043a\u04d9\u043d \u0413\u0430\u0440\u04d9\u043f \u04d8\u043c\u0438\u0440\u043b\u0435\u043a\u043b\u04d9\u0440\u0435"},"coordinates":[1637,2418]},{"type":"Point","properties":{"name:pt":"Abu Dhabi","name:ka":"\u10d0\u10d1\u10e3-\u10d6\u10d0\u10d1\u10d8","name:ko":"\uc544\ubd80\ub2e4\ube44","name:kn":"\u0c85\u0cac\u0cc1 \u0ca7\u0cbe\u0cac\u0cbf","name:cs":"Ab\u00fa Dhab\u00ed","name:tt":"\u04d8\u0431\u04af-\u0414\u04d9\u0431\u0438 \u0448\u04d9\u04bb\u04d9\u0440\u0435","min_zoom":8.0,"int_name":"Abu Dhabi","name:be":"\u0410\u0431\u0443-\u0414\u0430\u0431\u0456","name:os":"\u0410\u0431\u0443-\u0414\u0430\u0431\u0438","name:or":"\u0b06\u0b2c\u0b41\u0b27\u0b3e\u0b2c\u0b3f","name:pl":"Abu Zabi","name:ta":"\u0b85\u0baa\u0bc1\u0ba4\u0bbe\u0baa\u0bbf","name:tg":"\u0410\u0431\u0443 \u0414\u0430\u0431\u0438","source":"openstreetmap.org","name:de":"Abu Dhabi","name:tr":"Abu Dabi","admin_level":"2","name:lv":"Ab\u016b Dab\u012b","name:lt":"Abu Dabis","name:hi":"\u0905\u092c\u0942 \u0927\u093e\u092c\u0940","name:kk":"\u0410\u0431\u0443-\u0414\u0430\u0431\u0438","name:he":"\u05d0\u05d1\u05d5 \u05d3\u05d0\u05d1\u05d9","kind":"locality","name:ur":"\u0627\u0628\u0648\u0638\u06c1\u0628\u06cc","name:uk":"\u0410\u0431\u0443-\u0414\u0430\u0431\u0456","name:hy":"\u0531\u0562\u0578\u0582 \u0534\u0561\u0562\u056b","country_capital":true,"name:ht":"Abou Dabi","name:hu":"Abu-Dzabi","name:hr":"Abu Dhabi","population":921000,"name:el":"\u0391\u03bc\u03c0\u03bf\u03cd \u039d\u03c4\u03ac\u03bc\u03c0\u03b9","name:eo":"Abu-Dabio","name:en":"Abu Dhabi","name":"\u0623\u0628\u0648 \u0638\u0628\u064a","name:ku":"Ab\u00fb Zeb\u00ee","name:th":"\u0e2d\u0e32\u0e1a\u0e39\u0e14\u0e32\u0e1a\u0e35","name:es":"Abu Dabi","name:az":"\u018fbu-Dabi","name:mr":"\u0905\u092c\u0941 \u0927\u093e\u092c\u0940","name:my":"\u1021\u1018\u1030\u1012\u102b\u1018\u102e\u1019\u103c\u102d\u102f\u1037","name:is":"Ab\u00fa Dab\u00ed","name:am":"\u12a0\u1261 \u12f3\u1262","name:ml":"\u0d05\u0d2c\u0d41\u0d26\u0d3e\u0d2c\u0d3f","name:vi":"Abu Dhabi","name:mn":"\u0410\u0431\u0443 \u0414\u0430\u0431\u0438","id":261611194,"name:mk":"\u0410\u0431\u0443 \u0414\u0430\u0431\u0438","name:vo":"\u00c4bu Saby","name:fa":"\u0627\u0628\u0648\u0638\u0628\u06cc","kind_detail":"city","name:fr":"Abou Dabi","name:fy":"Ab\u00fb Daby","name:af":"Aboe Dhabi","name:zh":"\u963f\u5e03\u624e\u6bd4","name:sl":"Abu Dabi","name:sk":"Ab\u00fa Zab\u00ed","name:ja":"\u30a2\u30d6\u30c0\u30d3","name:si":"\u0d85\u0db6\u0dd4\u0da9\u0dcf\u0db6\u0dd2","name:sh":"Abu Dabi","name:bs":"Abu Dabi","name:bn":"\u0986\u09ac\u09c1\u09a7\u09be\u09ac\u09bf","name:bo":"\u0f68\u0f0b\u0f54\u0f7c\u0f60\u0f74\u0f0b\u0f51\u0fb7\u0f0b\u0f54\u0f7a\u0f0d","name:ru":"\u0410\u0431\u0443-\u0414\u0430\u0431\u0438","name:sv":"Abu Dhabi","name:bg":"\u0410\u0431\u0443 \u0414\u0430\u0431\u0438","name:sr":"\u0410\u0431\u0443 \u0414\u0430\u0431\u0438","name:sq":"Abu Dabi","name:ga":"Ab\u00fa Daib\u00ed"},"coordinates":[2718,3929]}]},"transit":{"type":"GeometryCollection","geometries":[]},"pois":{"type":"GeometryCollection","geometries":[{"type":"Point","properties":{"kind":"aerodrome","name":"Al Dhafra Air Base","area":44221900,"iata":"DHF","source":"openstreetmap.org","min_zoom":8.68,"tier":3,"ref":"DHF","id":218153981},"coordinates":[3247,3177]}]},"boundaries":{"type":"GeometryCollection","geometries":[{"type":"LineString","properties":{"name:ka":"\u10d0\u10e0\u10d0\u10d1\u10d7\u10d0 \u10d2\u10d0\u10d4\u10e0\u10d7\u10d8\u10d0\u10dc\u10d4\u10d1\u10e3\u10da\u10d8 \u10e1\u10d0\u10d0\u10db\u10d8\u10e0\u10dd\u10d4\u10d1\u10d8","name:ko":"\uc544\ub78d\uc5d0\ubbf8\ub9ac\ud2b8","name:kn":"\u0cb8\u0c82\u0caf\u0cc1\u0c95\u0ccd\u0ca4 \u0c85\u0cb0\u0cac \u0c85\u0cae\u0cc0\u0cb0\u0cbe\u0ca4","name:kl":"United Arab Emirates","name:cs":"Spojen\u00e9 arabsk\u00e9 emir\u00e1ty","name:ki":"United Arab Emirates","name:kw":"Pennternasedh Unys Arabek","name:kv":"\u04e6\u0442\u0443\u0432\u0442\u0447\u04e7\u043c \u0410\u0440\u0430\u0431 \u042d\u043c\u0438\u0440\u0430\u0442\u044a\u044f\u0441","name:ku":"M\u00eerni\u015f\u00een\u00ean Ereb\u00ee y\u00ean Yekb\u00fby\u00ee","name:tl":"United Arab Emirates","name:ce":"\u04c0\u0430\u0440\u0431\u0438\u0439\u043d \u0426\u0445\u044c\u0430\u044c\u043d\u0430\u043a\u0445\u0435\u0442\u0442\u0430 \u042d\u043c\u0438\u0440\u0430\u0442\u0430\u0448","name:ta":"\u0b90\u0b95\u0bcd\u0b95\u0bbf\u0baf \u0b85\u0bb0\u0baa\u0bc1 \u0b85\u0bae\u0bc0\u0bb0\u0b95\u0bae\u0bcd","name:tg":"\u0410\u043c\u043e\u0440\u0430\u0442\u0438 \u041c\u0443\u0442\u0442\u0430\u04b3\u0438\u0434\u0430\u0438 \u0410\u0440\u0430\u0431","name:ca":"Emirats \u00c0rabs Units","name:te":"\u0c2f\u0c41\u0c28\u0c48\u0c1f\u0c46\u0c21\u0c4d \u0c05\u0c30\u0c2c\u0c4d \u0c0e\u0c2e\u0c3f\u0c30\u0c47\u0c1f\u0c4d\u0c38\u0c4d","name:cy":"Yr Emiradau Arabaidd Unedig","name:qu":"Hukllachasqa Arab Imiratukuna","name:da":"Forenede Arabiske Emirater","name:de":"Vereinigte Arabische Emirate","name:dz":"\u0f61\u0f74\u0f0b\u0f53\u0f60\u0f72\u0f0b\u0f4a\u0f7a\u0f4a\u0f0b\u0f68\u0f0b\u0f62\u0f56\u0f0b\u0f68\u0f7a\u0f0b\u0f58\u0f72\u0f0b\u0f62\u0f7a\u0f4a\u0f66\u0f72\u0f0b","source":"openstreetmap.org","name:dv":"\u0787\u07ac\u0786\u07aa\u0788\u07ac\u0783\u07a8 \u07a2\u07a6\u0783\u07a6\u0784\u07a8 \u0787\u07a8\u0789\u07a7\u0783\u07a7\u078c\u07aa","name:lv":"Apvienotie Ar\u0101bu Emir\u0101ti","name:lt":"Jungtiniai Arab\u0173 Emyratai","name:uz":"Birlashgan Arab Amirliklari","name:kk":"\u0411\u0456\u0440\u0456\u043a\u043a\u0435\u043d \u0410\u0440\u0430\u0431 \u04d8\u043c\u0456\u0440\u043b\u0456\u043a\u0442\u0435\u0440\u0456","name:ur":"\u0645\u062a\u062d\u062f\u06c1 \u0639\u0631\u0628 \u0627\u0645\u0627\u0631\u0627\u062a","name:lb":"Vereenegt Arabesch Emiraten","name:la":"Phylarchiarum Arabicarum Confoederatio","name:tt":"\u0411\u0435\u0440\u043b\u04d9\u0448\u043a\u04d9\u043d \u0413\u0430\u0440\u04d9\u043f \u04d8\u043c\u0438\u0440\u043b\u0435\u043a\u043b\u04d9\u0440\u0435","name:uk":"\u041e\u0431'\u0454\u0434\u043d\u0430\u043d\u0456 \u0410\u0440\u0430\u0431\u0441\u044c\u043a\u0456 \u0415\u043c\u0456\u0440\u0430\u0442\u0438","name:ug":"\u0626\u06d5\u0631\u06d5\u0628 \u0628\u0649\u0631\u0644\u06d5\u0634\u0645\u06d5 \u062e\u06d5\u0644\u0649\u067e\u0649\u0644\u0649\u0643\u0649","name:li":"Vereinegde Arabische Emiraote","name:el":"\u0397\u03bd\u03c9\u03bc\u03ad\u03bd\u03b1 \u0391\u03c1\u03b1\u03b2\u03b9\u03ba\u03ac \u0395\u03bc\u03b9\u03c1\u03ac\u03c4\u03b1","name:eo":"Unui\u011dintaj Arabaj Emirlandoj","name:en":"United Arab Emirates","name":"\u0627\u0644\u0625\u0645\u0627\u0631\u0627\u062a \u0627\u0644\u0639\u0631\u0628\u064a\u0651\u0629 \u0627\u0644\u0645\u062a\u0651\u062d\u062f\u0629","name:tk":"Birle\u015fen Arap Emirlikleri","name:th":"\u0e2a\u0e2b\u0e23\u0e31\u0e10\u0e2d\u0e32\u0e2b\u0e23\u0e31\u0e1a\u0e40\u0e2d\u0e21\u0e34\u0e40\u0e23\u0e15\u0e2a\u0e4c","name:eu":"Arabiar Emirerri Batuak","name:et":"Araabia \u00dchendemiraadid","name:es":"Emiratos \u00c1rabes Unidos","name:ia":"Emiratos Arabe Unite","name:az":"Birl\u0259\u015fmi\u015f \u018fr\u0259b \u018fmirlikl\u0259ri","name:ie":"Unit Arabic Emiratus","name:id":"Uni Emirat Arab","name:ar":"\u0627\u0644\u0625\u0645\u0627\u0631\u0627\u062a \u0627\u0644\u0639\u0631\u0628\u064a\u0629 \u0627\u0644\u0645\u062a\u062d\u062f\u0629","name:io":"Unionita Araba Emirati","name:av":"\u0413I\u0430\u0440\u0430\u0431\u0430\u0437\u0443\u043b \u0426\u043e\u043b\u044a\u0430\u0440\u0430\u043b \u0418\u043c\u0430\u0440\u0430\u0442\u0430\u043b","name:is":"Sameinu\u00f0u arab\u00edsku furstad\u00e6min","name:am":"\u12e8\u1270\u1263\u1260\u1229\u1275 \u12e8\u12d3\u1228\u1265 \u130d\u12db\u1276\u127d","name:it":"Emirati Arabi Uniti","name:an":"Emiratos Arabes Unitos","name:ru":"\u041e\u0431\u044a\u0435\u0434\u0438\u043d\u0451\u043d\u043d\u044b\u0435 \u0410\u0440\u0430\u0431\u0441\u043a\u0438\u0435 \u042d\u043c\u0438\u0440\u0430\u0442\u044b","name:rw":"Nyarabu Zunze Ubumwe","name:af":"Verenigde Arabiese Emirate","kind_detail":"2","name:ky":"\u0411\u0438\u0440\u0438\u043a\u043a\u0435\u043d \u0410\u0440\u0430\u0431 \u042d\u043c\u0438\u0440\u043b\u0438\u043a\u0442\u0435\u0440\u0438","name:zh-yue":"\u963f\u62c9\u4f2f\u806f\u5408\u914b\u9577\u570b","name:zh":"\u963f\u62c9\u4f2f\u8054\u5408\u914b\u957f\u56fd","name:so":"Imaaraatka Carabta","name:sl":"Zdru\u017eeni arabski emirati","name:sk":"Spojen\u00e9 arabsk\u00e9 emir\u00e1ty","name:ja":"\u30a2\u30e9\u30d6\u9996\u9577\u56fd\u9023\u90a6","name:sh":"Ujedinjeni Arapski Emirati","name:se":"Ovttastuvvan ar\u00e1baemir\u00e1htat","name:sd":"\u06af\u068f\u064a\u0644 \u0639\u0631\u0628 \u0627\u0645\u0627\u0631\u0627\u062a","name:br":"Emirelezhio\u00f9 Arab Unanet","name:bs":"Ujedinjeni Arapski Emirati","name:bn":"\u09b8\u0982\u09af\u09c1\u0995\u09cd\u09a4 \u0986\u09b0\u09ac \u0986\u09ae\u09bf\u09b0\u09be\u09a4","name:bo":"\u0f61\u0f72\u0f0b\u0f53\u0f7a\u0f0b\u0f41\u0fb2\u0f7a\u0f0b\u0f40\u0fb2\u0f72\u0f0b\u0f68\u0f0b\u0f62\u0f56\u0f0b\u0f68\u0f7a\u0f0b\u0f58\u0f7a\u0f0b\u0f62\u0f7a\u0f0b\u0f41\u0fb2\u0f72\u0f0d","name:sw":"Falme za Kiarabu","name:be":"\u0410\u0431'\u044f\u0434\u043d\u0430\u043d\u044b\u044f \u0410\u0440\u0430\u0431\u0441\u043a\u0456\u044f \u042d\u043c\u0456\u0440\u0430\u0442\u044b","name:su":"Uni \u00c9mirat Arab","name:bg":"\u041e\u0431\u0435\u0434\u0438\u043d\u0435\u043d\u0438 \u0430\u0440\u0430\u0431\u0441\u043a\u0438 \u0435\u043c\u0438\u0440\u0441\u0442\u0432\u0430","name:ss":"Bunye bema-Arabhu","name:sr":"\u0423\u0458\u0435\u0434\u0438\u045a\u0435\u043d\u0438 \u0410\u0440\u0430\u043f\u0441\u043a\u0438 \u0415\u043c\u0438\u0440\u0430\u0442\u0438","name:sq":"Emiratet e Bashkuara Arabe","name:jv":"Uni Emirat Arab","name:pt":"Emirados \u00c1rabes Unidos","name:ps":"\u0639\u0631\u0628\u064a \u0645\u062a\u062d\u062f\u0647 \u0627\u0645\u0627\u0631\u0627\u062a","name:oc":"Emirats Arabis Units","min_zoom":8.0,"name:ro":"Emiratele Arabe Unite","name:zh-min-nan":"A-la-pek Li\u00e2n-ha\u030dp Th\u00e2u-l\u00e2ng-kok","name:os":"\u0410\u0440\u0430\u0431\u0431\u044b \u0418\u0443\u0433\u043e\u043d\u0434 \u042d\u043c\u0438\u0440\u0430\u0442\u0442\u00e6","name:or":"\u0b5f\u0b41\u0b28\u0b3e\u0b07\u0b1f\u0b47\u0b21\u0b3c \u0b06\u0b30\u0b2c \u0b0f\u0b2e\u0b3f\u0b30\u0b1f","name:pl":"Zjednoczone Emiraty Arabskie","sort_rank":262,"osm_relation":true,"name:pa":"\u0a38\u0a70\u0a2f\u0a41\u0a15\u0a24 \u0a05\u0a30\u0a2c \u0a07\u0a2e\u0a30\u0a3e\u0a24","name:tr":"Birle\u015fik Arap Emirlikleri","name:hi":"\u0938\u0902\u092f\u0941\u0915\u094d\u0924 \u0905\u0930\u092c \u0905\u092e\u0940\u0930\u093e\u0924","name:sv":"F\u00f6renade Arabemiraten","name:he":"\u05d0\u05d9\u05d7\u05d5\u05d3 \u05d4\u05d0\u05de\u05d9\u05e8\u05d5\u05d9\u05d5\u05ea \u05d4\u05e2\u05e8\u05d1\u05d9\u05d5\u05ea","name:hy":"\u0531\u0580\u0561\u0562\u0561\u056f\u0561\u0576 \u0544\u056b\u0561\u0581\u0575\u0561\u056c \u0537\u0574\u056b\u0580\u0578\u0582\u0569\u0575\u0578\u0582\u0576\u0576\u0565\u0580","name:ht":"Emira Arab Ini","name:hu":"Egyes\u00fclt Arab Em\u00edrs\u00e9gek","name:hr":"Ujedinjeni Arapski Emirati","kind":"country","name:yi":"\u05e4\u05d0\u05e8\u05d0\u05d9\u05d9\u05e0\u05d9\u05d2\u05d8\u05e2 \u05d0\u05e8\u05d0\u05d1\u05d9\u05e9\u05e2 \u05e2\u05de\u05d9\u05e8\u05d0\u05d8\u05df","name:yo":"\u00c0w\u1ecdn \u1eb8\u0301m\u00edr\u00e9t\u00ec \u00c1r\u00e1b\u00f9 A\u1e63\u1ecd\u0300kan","name:mt":"Emirati G\u0127arab Mag\u0127quda","name:ms":"Emiriah Arab Bersatu","name:mr":"\u0938\u0902\u092f\u0941\u0915\u094d\u0924 \u0905\u0930\u092c \u0905\u092e\u093f\u0930\u093e\u0924\u0940","name:my":"\u1021\u102c\u101b\u1015\u103a\u1005\u1031\u102c\u103a\u1018\u103d\u102c\u1038\u1019\u103b\u102c\u1038\u1015\u103c\u100a\u103a\u1011\u1031\u102c\u1004\u103a\u1005\u102f\u1014\u102d\u102f\u1004\u103a\u1004\u1036","name:vi":"C\u00e1c Ti\u1ec3u v\u01b0\u01a1ng qu\u1ed1c \u1ea2 R\u1eadp Th\u1ed1ng nh\u1ea5t","name:ml":"\u0d10\u0d15\u0d4d\u0d2f \u0d05\u0d31\u0d2c\u0d4d \u0d0e\u0d2e\u0d3f\u0d31\u0d47\u0d31\u0d4d\u0d31\u0d41\u0d15\u0d7e","name:mn":"\u0410\u0440\u0430\u0431\u044b\u043d \u041d\u044d\u0433\u0434\u0441\u044d\u043d \u042d\u043c\u0438\u0440\u0442 \u0423\u043b\u0441","id":-307763,"name:mk":"\u041e\u0431\u0435\u0434\u0438\u043d\u0435\u0442\u0438 \u0410\u0440\u0430\u043f\u0441\u043a\u0438 \u0415\u043c\u0438\u0440\u0430\u0442\u0438","name:vo":"Lemir\u00e4ns Larabik Pebal\u00f6l","name:fa":"\u0627\u0645\u0627\u0631\u0627\u062a \u0645\u062a\u062d\u062f\u0647 \u0639\u0631\u0628\u06cc","name:fi":"Yhdistyneet arabiemiirikunnat","old_name:vi":"C\u00e1c qu\u1ed1c gia ng\u1eebng b\u1eafn;Oman ng\u1eebng b\u1eafn","name:fo":"Sameindu Emirr\u00edkini","name:fr":"\u00c9mirats arabes unis","name:fy":"Feriene Arabyske Emiraten","name:nl":"Verenigde Arabische Emiraten","name:nn":"Dei sameinte arabiske emirata","name:no":"De forente arabiske emirater","name:na":"Emireitit Arabiya","name:ne":"\u0938\u0902\u092f\u0941\u0915\u094d\u0924 \u0905\u0930\u092c \u0907\u092e\u093f\u0930\u0947\u091f\u094d\u0938","name:wo":"Imaaraat yu Araab yu Bennoo yi","name:nv":"\u00c1s\u00e1\u00ed Bik\u00e9yah Y\u00e1zh\u00ed A\u0142hidadiidzoo\u00edg\u00ed\u00ed","name:ga":"Aontas na n\u00c9im\u00edr\u00edochta\u00ed Arabacha","name:gd":"Na h-Iomaratan Arabach Aonaichte","name:gn":"Aravia Emiryvy Joaju","name:gl":"Emiratos \u00c1rabes Unidos","maritime_boundary":true,"name:gv":"Ny h-Emmiraidyn Arabagh Unnaneysit"},"arcs":[0]},{"type":"LineString","properties":{"kind":"region","name:en":"Abu Dhabi","name":"\u0623\u0628\u0648 \u0638\u0628\u064a","sort_rank":256,"kind_detail":"4","min_zoom":8.0,"name:de":"Abu Dhabi","source":"openstreetmap.org","maritime_boundary":true,"name:ru":"\u0410\u0431\u0443-\u0414\u0430\u0431\u0438","id":-3766481,"osm_relation":true},"arcs":[1]}]},"roads":{"type":"GeometryCollection","geometries":[{"type":"LineString","properties":{"source":"openstreetmap.org","kind":"major_road","name:en":"Suwaihan Roundabout","sort_rank":381,"kind_detail":"trunk","min_zoom":8.0,"id":173549109},"arcs":[17]},{"type":"LineString","properties":{"source":"openstreetmap.org","kind":"highway","sort_rank":383,"kind_detail":"motorway","ref":"E33","min_zoom":8.0},"arcs":[18]},{"type":"MultiLineString","properties":{"kind":"major_road","name:en":"Sheikh Zayed Bin Sultan Street","sort_rank":381,"landuse_kind":"urban_area","source":"openstreetmap.org","min_zoom":8.0,"old_name":"Al Salam Street","kind_detail":"trunk","ref":"24"},"arcs":[[19],[20],[21],[22],[23],[24],[25]]},{"type":"MultiLineString","properties":{"kind":"major_road","name:en":"Sultan Bin Zayed The First Street","sort_rank":380,"kind_detail":"primary","source":"openstreetmap.org","min_zoom":8.0,"old_name":"4th Street","landuse_kind":"urban_area","ref":"20"},"arcs":[[26],[27]]},{"type":"MultiLineString","properties":{"kind":"major_road","name:en":"Sheikh Rashid Bin Saeed Street","sort_rank":381,"landuse_kind":"urban_area","source":"openstreetmap.org","min_zoom":8.0,"old_name":"2nd Street","kind_detail":"trunk","ref":"18"},"arcs":[[28],[29]]},{"type":"MultiLineString","properties":{"source":"openstreetmap.org","kind":"highway","name:en":"Abu Dhabi International Airport Road","sort_rank":383,"kind_detail":"motorway","ref":"E33","min_zoom":8.0},"arcs":[[30],[31],[32],[33]]},{"type":"MultiLineString","properties":{"source":"openstreetmap.org","kind":"highway","name:en":"Sheikh Khalifa Bridge","sort_rank":383,"kind_detail":"motorway","ref":"E12","min_zoom":8.0},"arcs":[[34],[35]]},{"type":"MultiLineString","properties":{"source":"openstreetmap.org","kind":"highway","sort_rank":383,"kind_detail":"motorway","ref":"E12","min_zoom":8.0},"arcs":[[36],[37]]},{"type":"LineString","properties":{"source":"openstreetmap.org","kind":"major_road","sort_rank":381,"kind_detail":"trunk","ref":"E75","min_zoom":8.0},"arcs":[38]},{"type":"MultiLineString","properties":{"source":"openstreetmap.org","kind":"highway","sort_rank":383,"kind_detail":"motorway","ref":"E11","min_zoom":8.0},"arcs":[[39],[40]]},{"type":"LineString","properties":{"kind":"major_road","name:en":"Seih Shuaib - Al Faya Truck Road","sort_rank":380,"kind_detail":"primary","source":"openstreetmap.org","min_zoom":8.0,"ref":"E75","id":107373094},"arcs":[41]},{"type":"MultiLineString","properties":{"source":"openstreetmap.org","kind":"major_road","name:en":"Abu Dhabi International Airport Road","sort_rank":381,"kind_detail":"trunk","ref":"E33","min_zoom":8.0},"arcs":[[42],[43],[44],[45]]},{"type":"LineString","properties":{"source":"openstreetmap.org","kind":"major_road","name:en":"19th Street","sort_rank":380,"kind_detail":"primary","min_zoom":8.0,"id":306798619},"arcs":[46]},{"type":"MultiLineString","properties":{"kind":"major_road","name:en":"Sheikh Rashid Bin Saeed Street","sort_rank":380,"kind_detail":"primary","source":"openstreetmap.org","min_zoom":8.0,"old_name":"2nd Street","ref":"18"},"arcs":[[47],[48],[49],[50]]},{"type":"MultiLineString","properties":{"source":"openstreetmap.org","kind":"major_road","sort_rank":381,"kind_detail":"trunk","ref":"E11","min_zoom":8.0},"arcs":[[51],[52]]},{"type":"MultiLineString","properties":{"source":"openstreetmap.org","kind":"major_road","landuse_kind":"urban_area","sort_rank":380,"kind_detail":"primary","ref":"E12","min_zoom":8.0},"arcs":[[53],[54]]},{"type":"MultiLineString","properties":{"kind":"major_road","name:en":"Hazaa' Bin Zayed The First Street","sort_rank":380,"kind_detail":"primary","source":"openstreetmap.org","min_zoom":8.0,"old_name":"11th Street","landuse_kind":"urban_area","ref":"11"},"arcs":[[55],[56],[57],[58]]},{"type":"MultiLineString","properties":{"source":"openstreetmap.org","kind":"major_road","landuse_kind":"residential","sort_rank":380,"kind_detail":"primary","min_zoom":8.0},"arcs":[[59],[60],[61],[62],[63],[64],[65],[66],[67],[68],[69],[70],[71],[72],[73],[74],[75],[76],[77],[78],[79],[80],[81],[82],[83]]},{"type":"MultiLineString","properties":{"source":"openstreetmap.org","kind":"major_road","name:en":"Street 42","landuse_kind":"residential","sort_rank":380,"kind_detail":"primary","min_zoom":8.0},"arcs":[[84],[85],[86],[87]]},{"type":"MultiLineString","properties":{"source":"openstreetmap.org","kind":"major_road","name:en":"Street 16","sort_rank":380,"kind_detail":"primary","min_zoom":8.0},"arcs":[[88],[89]]},{"type":"LineString","properties":{"kind":"major_road","name:en":"Hazaa' Bin Zayed The First Street","sort_rank":380,"kind_detail":"primary","source":"openstreetmap.org","min_zoom":8.0,"old_name":"11th Street","loc_name":"Defence Road","landuse_kind":"urban_area","ref":"11","id":66030817},"arcs":[90]},{"type":"MultiLineString","properties":{"source":"openstreetmap.org","kind":"major_road","name:en":"Street 40","landuse_kind":"residential","sort_rank":380,"kind_detail":"primary","min_zoom":8.0},"arcs":[[91],[92],[93],[94]]},{"type":"MultiLineString","properties":{"source":"openstreetmap.org","kind":"major_road","name:en":"Al Shamkha Bridge","sort_rank":380,"kind_detail":"primary","min_zoom":8.0},"arcs":[[95],[96]]},{"type":"MultiLineString","properties":{"source":"openstreetmap.org","kind":"major_road","sort_rank":381,"kind_detail":"trunk","ref":"E33","min_zoom":8.0},"arcs":[[97],[98]]},{"type":"MultiLineString","properties":{"kind":"major_road","name:en":"Hazaa' Bin Zayed The First Street","sort_rank":380,"kind_detail":"primary","source":"openstreetmap.org","min_zoom":8.0,"alt_name:en":"11th Street","landuse_kind":"urban_area","loc_name":"Defence Road","ref":"11"},"arcs":[[99],[100]]},{"type":"LineString","properties":{"kind":"major_road","name:en":"Sheikh Rashid Bin Saeed Street","sort_rank":380,"kind_detail":"primary","source":"openstreetmap.org","min_zoom":8.0,"landuse_kind":"urban_area","ref":"18","id":395952479},"arcs":[101]},{"type":"MultiLineString","properties":{"sort_rank":381,"source":"openstreetmap.org","min_zoom":8.0,"kind":"major_road","kind_detail":"trunk"},"arcs":[[102],[103],[104],[105],[106]]},{"type":"MultiLineString","properties":{"kind":"major_road","name:en":"Hamdan Bin Mohammed Street","sort_rank":380,"kind_detail":"primary","source":"openstreetmap.org","min_zoom":8.0,"old_name":"Al Nasr Street","landuse_kind":"urban_area","ref":"5"},"arcs":[[107],[108]]},{"type":"MultiLineString","properties":{"source":"openstreetmap.org","kind":"major_road","name:en":"Sheikh Zayed Tunnel","kind_detail":"trunk","sort_rank":381,"landuse_kind":"urban_area","min_zoom":8.0},"arcs":[[109],[110]]},{"type":"MultiLineString","properties":{"kind":"major_road","name:en":"Hazaa' Bin Zayed The First Street","sort_rank":380,"kind_detail":"primary","source":"openstreetmap.org","min_zoom":8.0,"landuse_kind":"urban_area","ref":"11"},"arcs":[[111],[112]]},{"type":"MultiLineString","properties":{"source":"openstreetmap.org","kind":"major_road","name:en":"Hamim Road","sort_rank":380,"kind_detail":"primary","ref":"E65","min_zoom":8.0},"arcs":[[113],[114],[115]]},{"type":"MultiLineString","properties":{"source":"openstreetmap.org","kind":"major_road","name:en":"Abu Dhabi-Ghweifat Highway","sort_rank":381,"kind_detail":"trunk","ref":"E11","min_zoom":8.0},"arcs":[[116],[117],[118],[119],[120],[121]]},{"type":"MultiLineString","properties":{"source":"openstreetmap.org","kind":"major_road","name:en":"Street 51","sort_rank":380,"kind_detail":"primary","min_zoom":8.0},"arcs":[[122],[123],[124],[125]]},{"type":"MultiLineString","properties":{"source":"openstreetmap.org","kind":"major_road","name:en":"1st Street","sort_rank":380,"kind_detail":"primary","min_zoom":8.0},"arcs":[[126],[127],[128]]},{"type":"MultiLineString","properties":{"source":"openstreetmap.org","kind":"highway","landuse_kind":"urban_area","sort_rank":383,"kind_detail":"motorway","ref":"E10","min_zoom":8.0},"arcs":[[129],[130]]},{"type":"MultiLineString","properties":{"kind":"major_road","name:en":"Corniche Street","sort_rank":380,"kind_detail":"primary","source":"openstreetmap.org","min_zoom":8.0,"old_name":"1st Street","ref":"1"},"arcs":[[131],[132],[133],[134],[135]]},{"type":"MultiLineString","properties":{"source":"openstreetmap.org","kind":"major_road","name:en":"Sheikh Mohammed Bin Rashid Al Maktoum Road","sort_rank":381,"kind_detail":"trunk","ref":"E311","min_zoom":8.0},"arcs":[[136],[137],[138]]},{"type":"MultiLineString","properties":{"source":"openstreetmap.org","kind":"major_road","landuse_kind":"urban_area","sort_rank":380,"kind_detail":"primary","min_zoom":8.0},"arcs":[[139],[140],[141]]},{"type":"MultiLineString","properties":{"kind":"major_road","name:en":"Hazaa' Bin Zayed The First Street","sort_rank":380,"kind_detail":"primary","source":"openstreetmap.org","min_zoom":8.0,"old_name":"11th Street","ref":"11"},"arcs":[[142],[143]]},{"type":"MultiLineString","properties":{"source":"openstreetmap.org","kind":"major_road","name:en":"19th Street","sort_rank":381,"kind_detail":"trunk","ref":"E30","min_zoom":8.0},"arcs":[[144],[145]]},{"type":"MultiLineString","properties":{"kind":"major_road","name:en":"Sheikh Zayed Bin Sultan Street","sort_rank":380,"kind_detail":"primary","source":"openstreetmap.org","min_zoom":8.0,"old_name":"Al Salam Street","landuse_kind":"urban_area","ref":"24"},"arcs":[[146],[147]]},{"type":"MultiLineString","properties":{"kind":"major_road","name:en":"Sheikh Rashid Bin Saeed Street","sort_rank":380,"kind_detail":"primary","source":"openstreetmap.org","min_zoom":8.0,"old_name":"2nd Street","landuse_kind":"urban_area","ref":"18"},"arcs":[[148],[149],[150],[151],[152],[153],[154]]},{"type":"MultiLineString","properties":{"source":"openstreetmap.org","kind":"highway","name:en":"Sheikh Zayed Bridge","sort_rank":383,"kind_detail":"motorway","ref":"E10","min_zoom":8.0},"arcs":[[155],[156]]},{"type":"MultiLineString","properties":{"source":"openstreetmap.org","kind":"highway","name:en":"Abu Dhabi International Airport Road","sort_rank":383,"kind_detail":"motorway","ref":"E20","min_zoom":8.0},"arcs":[[157],[158]]},{"type":"MultiLineString","properties":{"source":"openstreetmap.org","kind":"major_road","name:en":"Street 33","landuse_kind":"residential","sort_rank":380,"kind_detail":"primary","min_zoom":8.0},"arcs":[[159],[160],[161],[162],[163],[164],[165],[166],[167],[168],[169],[170],[171],[172],[173],[174]]},{"type":"MultiLineString","properties":{"source":"openstreetmap.org","kind":"highway","sort_rank":383,"kind_detail":"motorway","ref":"E10","min_zoom":8.0},"arcs":[[175],[176]]},{"type":"MultiLineString","properties":{"source":"openstreetmap.org","kind":"major_road","name:en":"Street 40","sort_rank":380,"kind_detail":"primary","min_zoom":8.0},"arcs":[[177],[178],[179],[180]]},{"type":"MultiLineString","properties":{"source":"openstreetmap.org","kind":"major_road","name:en":"Abu Dhabi-Al Ain Truck Road","sort_rank":380,"kind_detail":"primary","ref":"E30","min_zoom":8.0},"arcs":[[181],[182],[183],[184],[185],[186],[187],[188]]},{"type":"MultiLineString","properties":{"source":"openstreetmap.org","kind":"major_road","name:en":"Street 31","sort_rank":380,"kind_detail":"primary","min_zoom":8.0},"arcs":[[189],[190],[191],[192],[193],[194]]},{"type":"MultiLineString","properties":{"source":"openstreetmap.org","kind":"highway","name:en":"Sheikh Makhtoum Bin Rashid Road","sort_rank":383,"kind_detail":"motorway","ref":"E11","min_zoom":8.0},"arcs":[[195],[196],[197],[198],[199],[200],[201],[202],[203],[204],[205],[206],[207],[208],[209],[210],[211],[212]]},{"type":"MultiLineString","properties":{"source":"openstreetmap.org","kind":"major_road","name:en":"Al Meena Street","sort_rank":380,"kind_detail":"primary","ref":"26","min_zoom":8.0},"arcs":[[213],[214],[215]]},{"type":"MultiLineString","properties":{"sort_rank":380,"kind_detail":"primary","min_zoom":8.0,"kind":"major_road","source":"openstreetmap.org"},"arcs":[[216],[217],[218],[219],[220],[221],[222],[223],[224],[225],[226],[227],[228],[229],[230],[231],[232],[233],[234],[235],[236],[237],[238],[239],[240],[241],[242],[243],[244],[245],[246],[247],[248],[249],[250],[251],[252],[253],[254],[255],[256],[257],[258],[259],[260],[261],[262],[263],[264],[265],[266],[267],[268],[269],[270],[271],[272],[273],[274],[275],[276],[277],[278],[279],[280],[281],[282],[283],[284],[285],[286],[287],[288],[289],[290],[291],[292],[293],[294],[295],[296],[297],[298],[299],[300],[301],[302]]},{"type":"MultiLineString","properties":{"source":"openstreetmap.org","kind":"major_road","name:en":"Street 33","landuse_kind":"urban_area","sort_rank":380,"kind_detail":"primary","min_zoom":8.0},"arcs":[[303],[304]]},{"type":"MultiLineString","properties":{"source":"openstreetmap.org","kind":"major_road","sort_rank":381,"kind_detail":"trunk","ref":"E20","min_zoom":8.0},"arcs":[[305],[306]]},{"type":"MultiLineString","properties":{"kind":"major_road","name:en":"Corniche Street","sort_rank":380,"kind_detail":"primary","source":"openstreetmap.org","min_zoom":8.0,"old_name":"1st Street","landuse_kind":"urban_area","ref":"1"},"arcs":[[307],[308]]},{"type":"MultiLineString","properties":{"source":"openstreetmap.org","kind":"major_road","name:en":"Corniche Street","sort_rank":380,"kind_detail":"primary","ref":"1","min_zoom":8.0},"arcs":[[309],[310]]},{"type":"MultiLineString","properties":{"kind":"major_road","name:en":"Maqta Bridge","sort_rank":381,"landuse_kind":"urban_area","source":"openstreetmap.org","min_zoom":8.0,"kind_detail":"trunk","ref":"E22"},"arcs":[[311],[312]]},{"type":"MultiLineString","properties":{"source":"openstreetmap.org","kind":"major_road","name:en":"19th Street","sort_rank":380,"kind_detail":"primary","ref":"E30","min_zoom":8.0},"arcs":[[313],[314],[315],[316],[317],[318],[319],[320],[321],[322],[323]]},{"type":"MultiLineString","properties":{"source":"openstreetmap.org","kind":"major_road","sort_rank":381,"kind_detail":"trunk","ref":"E45","min_zoom":8.0},"arcs":[[324],[325],[326],[327],[328],[329],[330],[331],[332],[333]]},{"type":"MultiLineString","properties":{"kind":"major_road","name:en":"King Abdullah Bin Abdulaziz Al Saud Street","sort_rank":380,"kind_detail":"primary","source":"openstreetmap.org","min_zoom":8.0,"old_name":"Baynouna Street","landuse_kind":"urban_area","ref":"4"},"arcs":[[334],[335]]},{"type":"MultiLineString","properties":{"kind":"major_road","name:en":"Abu Dhabi International Airport Road","sort_rank":381,"landuse_kind":"urban_area","source":"openstreetmap.org","min_zoom":8.0,"kind_detail":"trunk","ref":"E33"},"arcs":[[336],[337]]},{"type":"MultiLineString","properties":{"kind":"major_road","name:en":"King Abdullah Bin Abdulaziz Al Saud Street","sort_rank":380,"kind_detail":"primary","source":"openstreetmap.org","min_zoom":8.0,"old_name":"Baynouna Street","ref":"4"},"arcs":[[338],[339],[340],[341]]},{"type":"MultiLineString","properties":{"source":"openstreetmap.org","kind":"major_road","name:en":"Sheikh Zayed Tunnel","sort_rank":381,"kind_detail":"trunk","min_zoom":8.0},"arcs":[[342],[343]]},{"type":"MultiLineString","properties":{"source":"openstreetmap.org","kind":"major_road","sort_rank":380,"kind_detail":"primary","ref":"E65","min_zoom":8.0},"arcs":[[344],[345],[346],[347]]},{"type":"MultiLineString","properties":{"kind":"major_road","name:en":"Sultan Bin Zayed The First Street","sort_rank":380,"kind_detail":"primary","source":"openstreetmap.org","min_zoom":8.0,"old_name":"4th Street","ref":"20"},"arcs":[[348],[349]]},{"type":"MultiLineString","properties":{"source":"openstreetmap.org","kind":"major_road","name:en":"Street 42","sort_rank":380,"kind_detail":"primary","min_zoom":8.0},"arcs":[[350],[351],[352],[353]]},{"type":"MultiLineString","properties":{"source":"openstreetmap.org","kind":"major_road","name:en":"Sheikh Rashid Bin Saeed Street","sort_rank":381,"kind_detail":"trunk","ref":"E22","min_zoom":8.0},"arcs":[[354],[355]]},{"type":"MultiLineString","properties":{"source":"openstreetmap.org","kind":"major_road","name:en":"Street 33","sort_rank":380,"kind_detail":"primary","min_zoom":8.0},"arcs":[[356],[357],[358],[359],[360],[361],[362],[363]]},{"type":"MultiLineString","properties":{"source":"openstreetmap.org","kind":"major_road","name:en":"Street 1","sort_rank":380,"kind_detail":"primary","min_zoom":8.0},"arcs":[[364],[365],[366],[367],[368],[369],[370],[371],[372],[373],[374],[375],[376],[377],[378]]},{"type":"MultiLineString","properties":{"kind":"major_road","name:en":"Sheikh Zayed Bin Sultan Street","sort_rank":380,"kind_detail":"primary","source":"openstreetmap.org","min_zoom":8.0,"old_name":"Al Salam Street","ref":"24"},"arcs":[[379],[380]]},{"type":"MultiLineString","properties":{"kind":"major_road","name:en":"Shakhbout Bin Sultan Street","sort_rank":380,"kind_detail":"primary","source":"openstreetmap.org","min_zoom":8.0,"old_name":"Al Saada Street","ref":"19"},"arcs":[[381],[382]]},{"type":"MultiLineString","properties":{"kind":"highway","name:en":"Sheikh Zayed Bin Sultan Street","sort_rank":383,"kind_detail":"motorway","source":"openstreetmap.org","min_zoom":8.0,"old_name":"Al Salam Street","ref":"24"},"arcs":[[383],[384]]},{"type":"MultiLineString","properties":{"source":"openstreetmap.org","kind":"major_road","name:en":"Seih Shuaib - Al Faya Truck Road","sort_rank":381,"kind_detail":"trunk","ref":"E75","min_zoom":8.0},"arcs":[[385],[386],[387],[388],[389],[390],[391],[392],[393],[394],[395],[396]]},{"type":"MultiLineString","properties":{"kind":"major_road","name:en":"Sheikh Rashid Bin Saeed Street","sort_rank":381,"landuse_kind":"urban_area","source":"openstreetmap.org","min_zoom":8.0,"kind_detail":"trunk","ref":"E22"},"arcs":[[397],[398]]},{"type":"MultiLineString","properties":{"kind":"highway","name:en":"Sheikh Zayed Bridge","sort_rank":383,"kind_detail":"motorway","source":"openstreetmap.org","min_zoom":8.0,"landuse_kind":"urban_area","ref":"E10"},"arcs":[[399],[400]]},{"type":"MultiLineString","properties":{"kind":"major_road","name:en":"Mussafah Bridge","sort_rank":381,"landuse_kind":"urban_area","source":"openstreetmap.org","min_zoom":8.0,"kind_detail":"trunk","ref":"E33"},"arcs":[[401],[402]]},{"type":"MultiLineString","properties":{"source":"openstreetmap.org","kind":"major_road","name:en":"Abu Dhabi-Ghweifat International Highway","sort_rank":381,"kind_detail":"trunk","ref":"E11","min_zoom":8.0},"arcs":[[403],[404],[405],[406],[407],[408],[409],[410]]},{"type":"MultiLineString","properties":{"kind":"major_road","alt_name:en":"30th Street","sort_rank":380,"kind_detail":"primary","source":"openstreetmap.org","min_zoom":8.0,"name:en":"Al Khaleej Al Arabi Street","old_name":"Musaffah Street","ref":"8"},"arcs":[[411],[412]]},{"type":"MultiLineString","properties":{"kind":"highway","name:en":"Sheikh Khalifa Bin Zayed Highway","sort_rank":383,"kind_detail":"motorway","source":"openstreetmap.org","min_zoom":8.0,"loc_name":"Yas Island Road","ref":"E12"},"arcs":[[413],[414],[415],[416]]},{"type":"MultiLineString","properties":{"source":"openstreetmap.org","kind":"major_road","name:en":"Mussafah Bridge","sort_rank":381,"kind_detail":"trunk","ref":"E33","min_zoom":8.0},"arcs":[[417],[418]]},{"type":"MultiLineString","properties":{"kind":"major_road","name:en":"Sheikh Zayed Bin Sultan Street","sort_rank":381,"kind_detail":"trunk","source":"openstreetmap.org","min_zoom":8.0,"old_name":"Al Salam Street","ref":"24"},"arcs":[[419],[420]]},{"type":"MultiLineString","properties":{"kind":"major_road","name:en":"Al Meena Street","sort_rank":380,"kind_detail":"primary","source":"openstreetmap.org","min_zoom":8.0,"landuse_kind":"urban_area","ref":"26"},"arcs":[[421],[422]]},{"type":"MultiLineString","properties":{"kind":"major_road","name:en":"Sheikh Rashid Bin Saeed Street","sort_rank":381,"kind_detail":"trunk","source":"openstreetmap.org","min_zoom":8.0,"old_name":"2nd Street","ref":"18"},"arcs":[[423],[424]]},{"type":"MultiLineString","properties":{"source":"openstreetmap.org","kind":"highway","name:en":"Sheikh Khalifa Bin Zayed Highway","sort_rank":383,"kind_detail":"motorway","ref":"E12","min_zoom":8.0},"arcs":[[425],[426],[427],[428],[429],[430]]},{"type":"MultiLineString","properties":{"source":"openstreetmap.org","kind":"highway","sort_rank":383,"kind_detail":"motorway","ref":"E20","min_zoom":8.0},"arcs":[[431],[432]]},{"type":"MultiLineString","properties":{"source":"openstreetmap.org","kind":"highway","landuse_kind":"urban_area","sort_rank":383,"kind_detail":"motorway","ref":"E12","min_zoom":8.0},"arcs":[[433],[434]]},{"type":"MultiLineString","properties":{"kind":"major_road","name:en":"Al Khaleej Al Arabi Street","sort_rank":381,"kind_detail":"trunk","source":"openstreetmap.org","min_zoom":8.0,"old_name":"Musaffah Street","loc_name":"Coast Road","ref":"8"},"arcs":[[435],[436]]},{"type":"MultiLineString","properties":{"source":"openstreetmap.org","kind":"major_road","landuse_kind":"residential","sort_rank":381,"kind_detail":"trunk","ref":"E45","min_zoom":8.0},"arcs":[[437],[438]]},{"type":"MultiLineString","properties":{"source":"openstreetmap.org","kind":"highway","name:en":"Abu Dhabi-Ghweifat International Highway","sort_rank":383,"kind_detail":"motorway","ref":"E11","min_zoom":8.0},"arcs":[[439],[440]]},{"type":"LineString","properties":{"source":"openstreetmap.org","kind":"major_road","name:en":"Sheikh Mohammed Bin Rashid Al Maktoum Road","sort_rank":380,"kind_detail":"primary","min_zoom":8.0},"arcs":[441]},{"type":"MultiLineString","properties":{"kind":"major_road","name:en":"Shakhbout Bin Sultan Street","sort_rank":380,"kind_detail":"primary","source":"openstreetmap.org","min_zoom":8.0,"old_name":"Al Saada Street","landuse_kind":"urban_area","ref":"19"},"arcs":[[442],[443]]},{"type":"MultiLineString","properties":{"kind":"highway","name:en":"Sheikh Zayed Bin Sultan Street","sort_rank":383,"landuse_kind":"urban_area","source":"openstreetmap.org","min_zoom":8.0,"old_name":"Al Salam Street","kind_detail":"motorway","ref":"24"},"arcs":[[444],[445]]},{"type":"MultiLineString","properties":{"source":"openstreetmap.org","kind":"highway","sort_rank":383,"kind_detail":"motorway","ref":"E22","min_zoom":8.0},"arcs":[[446],[447]]},{"type":"MultiLineString","properties":{"kind":"major_road","alt_name:en":"30th Street","sort_rank":380,"kind_detail":"primary","source":"openstreetmap.org","min_zoom":8.0,"name:en":"Al Khaleej Al Arabi Street","old_name":"Musaffah Street","landuse_kind":"urban_area","ref":"8"},"arcs":[[448],[449]]}]},"earth":{"type":"GeometryCollection","geometries":[{"type":"MultiPolygon","properties":{"sort_rank":10,"source":"naturalearthdata.com","min_zoom":0.0,"kind":"earth","area":93046838391},"arcs":[[[450]],[[451]],[[452]],[[453]],[[454]],[[455]],[[456]]]}]},"landuse":{"type":"GeometryCollection","geometries":[{"type":"MultiPolygon","properties":{"source":"openstreetmap.org","kind":"military","tier":3,"area":72752096,"sort_rank":45,"min_zoom":8.0},"arcs":[[[457]]]},{"type":"MultiPolygon","properties":{"source":"naturalearthdata.com","kind":"urban_area","name":"","area":334778592,"sort_rank":11,"min_zoom":4.0},"arcs":[[[458]],[[459]]]},{"type":"Polygon","properties":{"kind":"residential","name":"Al Falah New Community","area":16038000,"sort_rank":20,"source":"openstreetmap.org","min_zoom":8.0,"tier":2,"id":307102874},"arcs":[[460]]},{"type":"Polygon","properties":{"kind":"residential","name":"Khalifa City","area":25052600,"sort_rank":20,"source":"openstreetmap.org","min_zoom":8.0,"tier":2,"id":56059257},"arcs":[[461]]},{"type":"MultiPolygon","properties":{"source":"openstreetmap.org","kind":"residential","tier":2,"area":272831923,"sort_rank":20,"min_zoom":8.0},"arcs":[[[462]],[[463]],[[464]],[[465]],[[466]]]},{"type":"Polygon","properties":{"kind":"residential","name":"Madinat Zayed","area":39505200,"sort_rank":20,"source":"openstreetmap.org","min_zoom":8.0,"tier":2,"id":331764681},"arcs":[[467]]},{"type":"Polygon","properties":{"kind":"aerodrome","natural":"sand","area":44221900,"sort_rank":60,"source":"openstreetmap.org","min_zoom":8.0,"tier":3,"id":218153981},"arcs":[[468]]},{"type":"MultiPolygon","properties":{"source":"openstreetmap.org","kind":"military","tier":3,"area":34423631,"sort_rank":45,"min_zoom":8.0,"osm_relation":true},"arcs":[[[469],[470],[471],[472],[473],[474],[475],[476],[477],[478],[479],[480],[481],[482],[483],[484],[485],[486],[487],[488],[489],[490],[491]],[[492],[493]]]}]}},"type":"Topology","transform":{"translate":[53.4375,23.2413461024],"scale":[0.0003433228,0.0003139133]},"arcs":[[[1179,4096],[-100,0]],[[1179,4096],[-100,0]],[[3374,4096],[-6,-4],[-25,-44],[-10,-12],[-25,2],[-62,20],[-34,2],[43,-36],[18,-9],[-69,-10],[-72,53],[-25,38],[267,0]],[[2879,4096],[43,-10],[171,-115],[78,-16],[77,-4],[54,-26],[9,-84],[-18,0],[-28,34],[-41,19],[-47,14],[-43,20],[10,-38],[50,-55],[18,-40],[-42,8],[-72,33],[-45,5],[0,-24],[13,-4],[27,-18],[-47,-24],[-10,-37],[17,-80],[-116,-230],[-54,-77],[-108,-83],[-22,-36],[-119,48],[-55,3],[-23,-40],[-27,-4],[-154,-114],[-192,-56],[-29,-23],[-20,-48],[-48,-51],[-53,-42],[-38,-23],[-30,-10],[-89,-12],[-77,-37],[-61,-11],[-58,-30],[-184,-31],[-179,-97],[-31,-27],[-74,-9],[-354,3],[-28,7],[-29,12],[-28,5],[-24,-12],[-20,-14],[-90,-44],[-23,6],[-28,14],[-30,7],[-50,-25],[-32,-6],[-33,0],[-24,4],[-20,19],[-38,58],[-12,12],[-27,8],[-31,17],[-53,40],[-33,-17],[-43,-2],[-42,9],[-30,21],[-40,45],[-26,17],[-24,0],[0,697],[9,9],[19,123],[-1,0],[-27,15],[0,454],[2879,0]],[[2732,4021],[-118,-110],[0,-51],[139,-43],[139,-46],[77,-14],[40,14],[-2,36],[-54,53],[-108,56],[-51,41],[-21,58],[20,67],[-20,0],[-41,-61]],[[2498,3612],[43,-32],[8,-17],[-4,-14],[-13,6],[-28,18],[-32,8],[-21,-3],[8,-22],[79,-139],[48,23],[31,93],[-2,43],[-27,29],[-62,41],[-37,-4],[9,-30]],[[2315,3556],[-42,1],[-41,-13],[-35,-24],[-21,-29],[-15,-50],[11,-21],[27,-12],[37,-26],[50,-59],[17,-10],[32,0],[25,6],[28,14],[26,22],[21,27],[-65,75],[-29,45],[-26,54]],[[2052,3445],[-15,13],[-63,-27],[-40,-66],[32,-83],[63,-36],[74,-21],[62,-28],[29,-56],[24,82],[-31,78],[-36,40],[-75,82],[-24,22]],[[1212,3254],[-16,39],[-25,-34],[-32,-19],[-80,-34],[-70,-57],[-20,-8],[-15,3],[-6,1],[-43,19],[-27,0],[-34,-11],[-13,-4],[-20,-13],[-17,-11],[-55,-50],[-31,-15],[-71,-27],[-5,-3],[-33,-20],[-45,-45],[1,-25],[33,-12],[51,-7],[80,-5],[29,-10],[50,-28],[87,-36],[97,-11],[95,19],[79,52],[-22,19],[31,61],[35,-10],[22,-41],[-6,-29],[86,-35],[105,-5],[89,32],[40,73],[-30,90],[-60,24],[-21,9],[-100,21],[-11,6],[-75,47],[-13,15],[-30,49],[12,16],[4,10]],[[3374,4096],[-6,-4],[-25,-44],[-10,-12],[-25,2],[-62,20],[-34,2],[43,-36],[18,-9],[-69,-10],[-72,53],[-25,38]],[[2879,4096],[43,-10],[171,-115],[78,-16],[77,-4],[54,-26],[9,-84],[-18,0],[-28,34],[-41,19],[-47,14],[-43,20],[10,-38],[50,-55],[18,-40],[-42,8],[-72,33],[-45,5],[0,-24],[13,-4],[27,-18],[-47,-24],[-10,-37],[17,-80],[-116,-230],[-54,-77],[-108,-83],[-22,-36],[-119,48],[-55,3],[-23,-40],[-27,-4],[-154,-114],[-192,-56],[-29,-23],[-20,-48],[-48,-51],[-53,-42],[-38,-23],[-30,-10],[-89,-12],[-77,-37],[-61,-11],[-58,-30],[-184,-31],[-179,-97],[-31,-27],[-74,-9],[-354,3],[-28,7],[-29,12],[-28,5],[-24,-12],[-20,-14],[-90,-44],[-23,6],[-28,14],[-30,7],[-50,-25],[-32,-6],[-33,0],[-24,4],[-20,19],[-38,58],[-12,12],[-27,8],[-31,17],[-53,40],[-33,-17],[-43,-2],[-42,9],[-30,21],[-40,45],[-26,17],[-24,0]],[[2194,3141],[24,82],[-31,78],[-36,40],[-75,82],[-24,22],[-15,13],[-63,-27],[-40,-66],[32,-83],[63,-36],[74,-21],[62,-28],[29,-56]],[[2753,3817],[139,-46],[77,-14],[40,14],[-2,36],[-54,53],[-108,56],[-51,41],[-21,58],[20,67],[-20,0],[-41,-61],[-118,-110],[0,-51],[139,-43]],[[639,2921],[80,-5],[29,-10],[50,-28],[87,-36],[97,-11],[95,19],[79,52],[-22,19],[31,61],[35,-10],[22,-41],[-6,-29],[86,-35],[105,-5],[89,32],[40,73],[-30,90],[-60,24],[-21,9],[-100,21],[-11,6],[-75,47],[-13,15],[-30,49],[12,16],[4,10],[-16,39],[-25,-34],[-32,-19],[-80,-34],[-70,-57],[-20,-8],[-15,3],[-6,1],[-43,19],[-27,0],[-34,-11],[-13,-4],[-20,-13],[-17,-11],[-55,-50],[-31,-15],[-71,-27],[-5,-3],[-33,-20],[-45,-45],[1,-25],[33,-12],[51,-7]],[[0,3495],[9,9],[19,123],[-1,0],[-27,15]],[[2414,3355],[-26,-22],[-28,-14],[-25,-6],[-32,0],[-17,10],[-50,59],[-37,26],[-27,12],[-11,21],[15,50],[21,29],[35,24],[41,13],[42,-1],[26,-54],[29,-45],[65,-75],[-21,-27]],[[2588,3605],[-62,41],[-37,-4],[9,-30],[43,-32],[8,-17],[-4,-14],[-13,6],[-28,18],[-32,8],[-21,-3],[8,-22],[79,-139],[48,23],[31,93],[-2,43],[-27,29]],[[4089,3805],[3,2],[-2,4],[-3,-3],[2,-3]],[[3530,3724],[-50,6]],[[2756,3959],[60,-97],[13,-16],[90,-14],[4,-1],[8,-2]],[[2931,3829],[8,-3],[15,-5],[12,-6]],[[2966,3815],[7,-3],[4,-3],[31,-28]],[[3008,3784],[-34,28],[-8,3]],[[2966,3815],[-35,14]],[[2931,3829],[-8,3],[-94,14],[-13,16],[-50,84],[-9,13]],[[2781,3922],[-8,14]],[[2691,3985],[133,-163],[109,-46]],[[2935,3777],[-21,19],[-90,27],[-133,162]],[[3049,3756],[-2,0]],[[3047,3755],[2,0]],[[3139,3676],[70,-15]],[[3209,3661],[-69,15]],[[3406,3704],[124,19]],[[3480,3730],[-47,-20]],[[2830,4095],[-33,-27]],[[2797,4068],[33,26]],[[2786,4059],[4,2],[7,7]],[[2797,4068],[-11,-9]],[[4036,3130],[0,2]],[[3391,3404],[-4,-6]],[[3388,3398],[4,5]],[[4030,3085],[-1,-2],[2,0],[0,2],[-1,0]],[[3095,3689],[7,-2]],[[3102,3688],[-7,2]],[[3103,3687],[36,-11]],[[3140,3676],[-37,12]],[[3509,3225],[3,0]],[[2663,3979],[10,-11]],[[2675,3969],[-10,12]],[[3031,3753],[-59,7],[-21,11]],[[2951,3771],[90,-17]],[[1436,2560],[-2,0]],[[1434,2559],[2,1]],[[2767,4052],[-12,-12],[-15,-29]],[[2740,4011],[28,40]],[[2732,3926],[-67,-64]],[[2665,3862],[67,63]],[[2790,3966],[-5,-9]],[[2786,3956],[5,9]],[[3404,3527],[-1,1]],[[3423,3554]],[[3424,3555],[-1,0]],[[3537,3700],[1,0]],[[3625,3654],[29,27]],[[3653,3681],[-27,-24]],[[3727,3687],[4,-22]],[[3732,3665],[-3,22]],[[3731,3663],[13,-24]],[[3744,3640],[-12,24]],[[3745,3638],[23,-17]],[[3768,3622],[-22,17]],[[3425,3554],[-1,0],[0,-1],[1,0],[0,1]],[[3439,3573],[1,0],[0,1],[-1,0],[0,-1]],[[3452,3533],[-1,0],[0,-1],[1,0],[0,1]],[[3455,3593],[0,1],[-1,-1],[0,-1],[1,1]],[[3474,3618],[-1,-1],[1,0],[0,1]],[[3489,3637],[-1,0],[0,-1],[1,0],[0,1]],[[3505,3657],[-1,1],[-1,-1],[1,-1],[1,1]],[[3509,3487],[1,-1],[1,1],[0,1],[-2,-1]],[[3522,3680],[-1,-1],[0,-1],[1,0],[0,2]],[[3731,3665],[-1,0],[1,-2],[1,1],[-1,1]],[[3745,3640],[-1,-1]],[[3744,3639],[1,-1],[1,1]],[[3746,3639],[-1,1]],[[3495,3498],[14,-11]],[[3510,3488],[-15,11]],[[3511,3486],[12,-9]],[[3523,3477],[-12,10]],[[3309,3687],[20,-44]],[[3330,3644],[-20,43]],[[2732,3925],[1,1]],[[3424,3553],[27,-21]],[[3451,3533],[-26,21]],[[3452,3532],[24,-19]],[[3477,3513],[-25,19]],[[3492,3500],[2,-1]],[[3494,3499],[-2,2]],[[3102,3687],[1,0]],[[3103,3688],[-1,0]],[[2760,3945],[-12,-7],[-16,-12]],[[2733,3926],[20,15]],[[2683,3957],[-3,5]],[[3031,3716],[-3,-7]],[[3032,3708],[-1,7]],[[1238,2524],[0,2],[-2,-1],[1,-1],[1,0]],[[1254,2502],[-1,1],[-1,-2],[2,0],[0,1]],[[4067,3300],[3,-2],[2,3],[-3,3],[-2,-4]],[[2740,4011],[-63,-49]],[[2678,3962],[62,49]],[[2725,4017],[31,-58]],[[2757,3959],[-31,59]],[[2753,3941],[33,15]],[[2785,3957],[-25,-12]],[[2711,0],[51,199],[41,1115]],[[2803,1314],[3,77]],[[2806,1391],[52,1486]],[[0,2605],[313,-88],[247,-10],[107,-40]],[[667,2467],[95,-36]],[[762,2431],[3,-1],[456,76]],[[1221,2507],[-459,-76]],[[762,2431],[-1,0],[-94,36]],[[667,2467],[-107,41],[-89,4],[-158,6],[-313,88]],[[3173,3450],[59,2]],[[3232,3452],[78,3],[4,0]],[[3314,3456],[-5,0],[-77,-4]],[[3232,3452],[-59,-2]],[[3503,3257],[0,-55]],[[3504,3201],[0,56]],[[3502,3200],[2,0],[-1,2],[-1,0],[0,-2]],[[3065,3765],[30,-3],[25,0]],[[3120,3763],[-55,3]],[[2576,3885],[40,28]],[[2618,3915],[-41,-28]],[[2739,4062],[-74,-81],[-27,-47]],[[2639,3935],[98,113]],[[2695,4006],[-17,-14]],[[3813,4096],[0,-21]],[[3813,4072],[9,-204],[45,-95],[-171,-255],[131,176],[42,83],[-45,91],[-10,206]],[[3814,4087],[0,9]],[[2751,4042],[4,-3]],[[2755,4039],[-4,3]],[[2935,3777],[-3,-3],[3,-2],[3,3],[-3,2]],[[2794,3988],[-4,-22]],[[2791,3965],[4,23]],[[3228,3355],[-54,58],[-11,293],[-17,12]],[[3147,3717],[26,-304],[58,-61]],[[2706,3999],[73,-78]],[[2773,3936],[-52,68],[-6,4]],[[2673,3968],[18,-22]],[[2951,3771]],[[2951,3771],[-4,2],[-82,13],[-48,21],[-142,162]],[[2675,3965],[16,-19]],[[2692,3946],[-14,19]],[[2691,3946],[126,-140],[44,-19],[22,-5],[61,-9],[7,-2]],[[2951,3771]],[[3039,3770],[7,-2]],[[3046,3769],[-7,2]],[[3433,3710],[-224,-49]],[[3209,3661],[197,43]],[[3423,3553],[-19,-25]],[[3405,3528],[19,25]],[[3439,3574],[-15,-19]],[[3425,3554],[15,19]],[[3454,3593],[-14,-19]],[[3440,3574],[14,18]],[[3473,3617],[-19,-23]],[[3455,3593],[18,24]],[[3488,3636],[-14,-18]],[[3474,3617],[14,19]],[[3503,3656],[-15,-19]],[[3489,3637],[15,19]],[[3520,3678],[-16,-20]],[[3505,3657],[16,21]],[[3537,3700],[-16,-20]],[[3522,3679],[16,21]],[[3120,3762],[326,93],[11,11],[152,230]],[[3608,4096],[-2,-2],[-146,-223],[-14,-14],[-326,-94]],[[3476,3513],[2,-2]],[[3479,3512],[-2,1]],[[3479,3510],[13,-10]],[[3492,3501],[-12,10]],[[3683,3189],[11,-2]],[[3694,3187],[-11,3]],[[3694,3187],[319,-100]],[[4013,3087],[16,-4]],[[4030,3085],[-17,2]],[[4031,3083],[16,-1]],[[4047,3082],[-15,3]],[[4047,3082],[49,-10]],[[3556,3521],[-28,-47]],[[3529,3473],[28,47]],[[3581,3563],[-24,-41]],[[3558,3521],[24,42]],[[3602,3614],[-20,-49]],[[3583,3564],[20,49]],[[3653,4096],[-3,-11]],[[3650,4085],[-4,-18],[-40,-114]],[[3606,3953],[-1,-5],[2,-71]],[[3607,3877],[4,-119],[-3,-7]],[[3608,3751],[-21,-54]],[[3587,3697],[-20,-49],[-53,-102]],[[3514,3546],[-32,-62]],[[3482,3484],[-1,-1],[-6,-5]],[[3475,3478],[-75,-60],[-9,-14]],[[3392,3403],[83,75]],[[3475,3478],[7,6]],[[3482,3484],[4,3],[28,59]],[[3514,3546],[73,151]],[[3587,3697],[21,45],[0,9]],[[3608,3751],[-1,126]],[[3607,3877],[-1,76]],[[3606,3953],[0,8],[44,124]],[[3650,4085],[4,11]],[[2749,4057],[-8,-8],[-17,-33]],[[2727,4019],[24,40]],[[2751,4059],[-9,-10]],[[2729,4040],[12,9]],[[2741,4049],[1,-1],[9,-6]],[[2742,4049],[-1,0]],[[2741,4049]],[[2741,4049],[0,-1],[-6,-11]],[[2751,4042],[-9,7],[-1,0]],[[2741,4049],[-5,-1]],[[2840,3108],[21,-43]],[[2863,3066],[-22,43]],[[2862,3060],[-16,-528]],[[2861,3062],[1,-2]],[[2862,3060],[1,1]],[[2863,3066],[-2,-3],[2,-2],[2,2],[-2,3]],[[2929,3741],[1,0]],[[2930,3741],[10,-7],[15,-2]],[[2930,3739],[4,-4],[-4,6]],[[2930,3741]],[[3173,3450],[-2,-1],[-8,0]],[[3163,3449],[-4,1],[-14,-1]],[[3145,3448],[12,1],[6,0]],[[3163,3449],[8,1],[2,0]],[[3331,3641],[22,-29]],[[3354,3613],[-22,29]],[[3354,3613],[-1,-1],[2,-1]],[[3355,3611],[1,1],[-2,1]],[[3355,3611],[40,-36]],[[3396,3576],[-40,35]],[[3397,3574],[26,-20]],[[3423,3555],[-25,20]],[[3403,3528],[1,-1]],[[3538,3700],[-1,0]],[[3540,3722],[-2,-21]],[[3539,3701],[13,21]],[[3617,3648],[-14,-33]],[[3604,3615],[14,32]],[[3626,3657],[-8,-8]],[[3619,3649],[6,5]],[[3658,3685],[-5,-4]],[[3654,3681],[4,3]],[[3686,3689],[-27,-4]],[[3659,3684],[27,4]],[[3726,3695],[-39,-6]],[[3687,3688],[39,6]],[[3713,3772],[13,-77]],[[3727,3695],[-12,77]],[[3726,3693],[1,-6]],[[3729,3687],[-1,7]],[[3747,3698],[-19,-3]],[[3728,3694],[19,3]],[[3777,3702],[-28,-4]],[[3749,3697],[28,4]],[[3768,3621],[10,-8]],[[3779,3614],[-11,8]],[[3810,3706],[-32,-4]],[[3778,3701],[32,4]],[[3811,3705],[33,-25]],[[3844,3681],[-33,24]],[[2839,3110],[1,-2]],[[2840,3108],[1,1],[-1,2],[-1,-1]],[[3143,3448],[2,0],[0,1],[-2,0],[0,-1]],[[3330,3643],[-1,-1],[2,-1],[1,2],[-2,0]],[[3360,3492],[-1,-1],[1,-1],[1,1],[-1,1]],[[3397,3576],[-2,-1]],[[3395,3575],[2,-1],[1,1],[-1,1]],[[3479,3510],[1,1],[-1,1],[-1,-1],[1,-1]],[[3504,3257],[1,1],[-1,1],[-1,-1],[1,-1]],[[3511,3293],[0,2],[-1,0],[0,-2],[1,0]],[[3519,3303],[0,2],[-1,-1],[0,-1],[1,0]],[[3529,3472],[0,2],[-2,-1],[1,-1],[1,0]],[[3533,3319],[0,2],[-1,0],[0,-2],[1,0]],[[3540,3331],[-1,-1],[1,-1],[1,1],[-1,1]],[[3556,3347],[0,2],[-1,0],[0,-2],[1,0]],[[3557,3522],[-1,-1],[1,-1],[1,1],[-1,1]],[[3565,3361],[0,-2],[1,0],[1,2],[-2,0]],[[3583,3563],[0,1],[-1,0],[-1,-1],[2,0]],[[3583,3384],[0,-3],[2,0],[0,2],[-2,1]],[[3603,3615],[-1,-1],[1,-1],[1,1],[-1,1]],[[3618,3649],[-1,-1],[1,-1],[1,1],[-1,1]],[[3659,3686],[-2,-1],[1,-1],[2,1],[-1,1]],[[3681,3192],[-1,-3],[3,0],[0,2],[-2,1]],[[3687,3690],[-1,-1],[1,-1],[1,1],[-1,1]],[[3714,3774],[-1,-1],[1,-1],[1,1],[-1,1]],[[3727,3695],[-1,-1],[1,-1],[1,2],[-1,0]],[[3748,3698],[-1,0],[1,-2],[1,1]],[[3749,3697],[-1,1]],[[3777,3702],[0,-1],[1,1],[-1,0]],[[3811,3706],[-1,-1],[1,0],[0,1]],[[2933,3773],[0,-2]],[[2936,3771],[0,1]],[[4096,3810],[-4,0]],[[4092,3806],[4,0]],[[2616,3913],[17,11],[6,11]],[[2638,3934],[-20,-19]],[[2700,4008],[-5,-2]],[[2737,4048],[3,14]],[[3061,3757],[-12,-1]],[[3049,3755],[13,1]],[[3681,3192],[-145,36],[-19,-4]],[[3517,3224],[-112,-19],[-5,4]],[[3400,3209],[-55,41]],[[3345,3250],[-64,48],[-24,27]],[[3257,3325],[-4,5],[-7,9],[-18,16]],[[3231,3352],[21,-22],[5,-5]],[[3257,3325],[88,-75]],[[3345,3250],[49,-42],[6,1]],[[3400,3209],[109,16]],[[3512,3225],[5,-1]],[[3517,3224],[163,-34]],[[1253,2501],[49,-84],[10,-87],[-104,-287],[-180,-309],[-17,-13]],[[1011,1721],[-225,-169],[-57,-32]],[[729,1520],[-8,-4],[-1,-59],[22,-54]],[[742,1403],[-22,54],[9,63]],[[729,1520],[1,4],[281,197]],[[1011,1721],[17,12],[180,310],[105,287],[-10,87],[-49,85]],[[816,1198],[188,-1021],[13,-177]],[[1019,0],[-14,173],[-189,1025]],[[1237,2524],[15,-22]],[[1253,2503],[-15,22]],[[2614,3875],[49,-12]],[[2665,3862],[-51,14]],[[3063,3699],[32,-10]],[[3095,3690],[-31,9]],[[2614,3876],[-23,5],[-6,2]],[[2585,3883],[-9,3]],[[2577,3887],[8,-4]],[[2585,3883],[6,-2],[23,-6]],[[2735,4037],[-10,-20]],[[2726,4018],[10,21]],[[2859,2912],[5,147]],[[2859,2912],[-1,-35],[1,16],[0,19]],[[2863,3061],[1,-2]],[[2864,3059],[1,3]],[[2683,3995],[8,-10]],[[2691,3985],[-8,10]],[[3494,3499],[1,-1]],[[3495,3499],[-1,0]],[[3523,3477],[4,-4]],[[3528,3474],[-5,3]],[[3111,3735],[36,-18]],[[3146,3718],[-35,17]],[[2933,3771],[-4,-30]],[[2930,3741],[2,12],[0,4]],[[2932,3757],[4,14]],[[2932,3757]],[[3314,3455],[27,5],[6,4],[13,26]],[[3359,3491],[-45,-35]],[[3403,3528],[-44,-36]],[[3361,3492],[43,35]],[[3509,3294],[-6,-35]],[[3504,3259],[6,34]],[[3518,3304],[-7,-9]],[[3511,3295],[7,8]],[[3531,3320],[-12,-15]],[[3520,3304],[12,15]],[[3539,3329],[-7,-8]],[[3533,3320],[7,9]],[[3554,3348],[-14,-17]],[[3541,3330],[14,17]],[[3565,3360],[-9,-11]],[[3556,3348],[10,11]],[[3583,3382],[-17,-21]],[[3567,3361],[17,20]],[[3586,3383],[68,82],[-70,-81]],[[2690,4000],[16,-1]],[[2715,4008],[-15,0]],[[2751,3816],[-31,-28]],[[2721,3787],[33,29]],[[3039,3771],[-31,14]],[[3008,3783],[9,-7],[9,-4],[13,-2]],[[4032,3101],[-2,-16]],[[4031,3085],[1,16]],[[4032,3101],[2,14]],[[4033,3117],[1,-2]],[[4034,3129],[-1,-11]],[[4034,3115],[1,2]],[[4035,3131],[0,-2],[1,0],[0,2],[-1,0]],[[4096,3321],[-23,-17],[-3,-7],[-35,-166]],[[4035,3118],[1,11]],[[4036,3132],[35,166]],[[4072,3300],[24,20]],[[4034,3118],[-1,0],[1,-2],[1,1],[-1,1]],[[3111,3735],[-35,17],[-15,5]],[[3062,3756],[49,-21]],[[3065,3766],[-19,3]],[[3046,3768],[19,-3]],[[3064,3699],[-14,5]],[[3050,3703],[13,-4]],[[1434,2560],[-213,-53]],[[1221,2506],[213,53]],[[3192,3314],[-69,-26],[-50,-27],[-34,-34],[-55,-55]],[[2984,3172],[-16,-16],[-66,-33]],[[2902,3123],[-75,-39],[-179,-163],[-276,-16],[-236,-80],[-314,-171],[-386,-94]],[[1436,2560],[387,93],[310,169],[234,81],[281,18],[249,199],[5,3]],[[2902,3123],[82,49]],[[2984,3172],[3,2],[55,55],[152,84]],[[2710,3830],[26,-30]],[[2738,3801],[-27,28]],[[2831,4096],[-1,-1]],[[2830,4094],[2,2]],[[3093,4096],[211,-73],[186,-56]],[[3490,3969],[-21,6],[-125,39],[-40,10],[-207,72]],[[3047,3704],[3,-1]],[[3050,3704],[-3,1]],[[3031,3715],[-23,69]],[[3008,3781],[23,-65]],[[2724,4016],[-4,-8]],[[2721,4007],[6,12]],[[3047,3756],[-16,-3]],[[3041,3754],[6,1]],[[3602,3896],[-1,2]],[[3601,3898],[-68,57]],[[3533,3955],[-2,3],[-41,11]],[[3490,3967],[40,-10],[3,-2]],[[3533,3955],[38,-14],[25,-30],[5,-13]],[[3601,3898],[0,-2]],[[4087,3809],[-197,-54],[-360,-31]],[[3530,3723],[72,-2],[290,33],[196,51]],[[2786,4059],[-19,-7]],[[2768,4051],[18,8]],[[2736,3800],[55,-19],[122,-38],[134,-39]],[[3047,3705],[-309,96]],[[742,1403],[74,-205]],[[816,1198],[-10,46],[-64,159]],[[3387,3398],[-195,-84]],[[3194,3313],[194,85]],[[3654,3465],[42,53]],[[2811,3868],[-60,-52]],[[2754,3816],[59,51]],[[3008,3785],[-9,7]],[[3001,3789],[7,-6]],[[4096,3124],[-317,62],[-194,85],[-210,143],[-229,304]],[[3147,3717],[227,-303],[211,-144],[194,-85],[317,-62]],[[2631,3924],[7,-11],[35,-42],[37,-41]],[[2711,3829],[-79,95]],[[1239,3164],[75,-47],[11,-6],[100,-21],[21,-9],[60,-24],[30,-90],[-40,-73],[-89,-32],[-105,5],[-86,35],[6,29],[-22,41],[-35,10],[-31,-61],[22,-19],[-79,-52],[-95,-19],[-97,11],[-87,36],[-50,28],[-29,10],[-80,5],[-51,7],[-33,12],[-1,25],[45,45],[33,20],[5,3],[71,27],[31,15],[55,50],[17,11],[20,13],[13,4],[34,11],[27,0],[43,-19],[6,-1],[15,-3],[20,8],[70,57],[80,34],[32,19],[25,34],[16,-39],[-4,-10],[-12,-16],[30,-49],[13,-15]],[[4096,4096],[0,-4096],[-4096,0],[0,2798],[24,0],[26,-17],[40,-45],[30,-21],[42,-9],[43,2],[33,17],[53,-40],[31,-17],[27,-8],[12,-12],[38,-58],[20,-19],[24,-4],[33,0],[32,6],[50,25],[30,-7],[28,-14],[23,-6],[90,44],[20,14],[24,12],[28,-5],[29,-12],[28,-7],[354,-3],[74,9],[31,27],[179,97],[184,31],[58,30],[61,11],[77,37],[89,12],[30,10],[38,23],[53,42],[48,51],[20,48],[29,23],[192,56],[154,114],[27,4],[23,40],[55,-3],[119,-48],[22,36],[108,83],[54,77],[116,230],[-17,80],[10,37],[47,24],[-27,18],[-13,4],[0,24],[45,-5],[72,-33],[42,-8],[-18,40],[-50,55],[-10,38],[43,-20],[47,-14],[41,-19],[28,-34],[18,0],[-9,84],[-54,26],[-77,4],[-78,16],[-171,115],[-43,10],[228,0],[25,-38],[72,-53],[69,10],[-18,9],[-43,36],[34,-2],[62,-20],[25,-2],[10,12],[25,44],[6,4],[722,0]],[[2218,3223],[-24,-82],[-29,56],[-62,28],[-74,21],[-63,36],[-32,83],[40,66],[63,27],[15,-13],[24,-22],[75,-82],[36,-40],[31,-78]],[[2360,3319],[-25,-6],[-32,0],[-17,10],[-50,59],[-37,26],[-27,12],[-11,21],[15,50],[21,29],[35,24],[41,13],[42,-1],[26,-54],[29,-45],[65,-75],[-21,-27],[-26,-22],[-28,-14]],[[0,3642],[27,-15],[1,0],[-19,-123],[-9,-9],[0,147]],[[3009,3771],[-40,-14],[-77,14],[-139,46],[-139,43],[0,51],[118,110],[41,61],[20,0],[-20,-67],[21,-58],[51,-41],[108,-56],[54,-53],[2,-36]],[[2615,3576],[2,-43],[-31,-93],[-48,-23],[-79,139],[-8,22],[21,3],[32,-8],[28,-18],[13,-6],[4,14],[-8,17],[-43,32],[-9,30],[37,4],[62,-41],[27,-29]],[[3950,3858],[2,86],[86,-2],[-1,-41],[45,-1],[-1,-61],[-131,19]],[[3003,3550],[50,104],[-7,117],[47,24],[-40,46],[45,-5],[34,-38],[-64,-187],[-65,-61]],[[3009,3771],[-117,0],[-278,89],[0,51],[179,171],[-20,-67],[21,-58],[159,-97],[54,-53],[2,-36]],[[3699,3884],[113,-1],[0,-95],[-97,-14],[-16,110]],[[3228,3769],[161,52],[32,-101],[-167,-40],[-26,89]],[[3678,3491],[51,70],[17,-13],[63,102],[58,-44],[29,38],[72,-209],[-212,-2],[-78,58]],[[3480,3469],[90,172],[36,-14],[-100,-180],[-26,22]],[[3597,3551],[27,8],[15,72],[86,-65],[-48,-64],[-80,49]],[[3403,3528],[133,173],[32,-26],[-109,-193],[-56,46]],[[3620,3648],[21,32],[180,15],[-92,-127],[-109,80]],[[684,1300],[4,43],[55,-29],[-1,89],[22,9],[26,-35],[99,41],[36,-90],[-70,-26],[11,-73],[-48,-32],[-50,11],[-51,95],[-33,-3]],[[3127,3203],[3,45],[48,30],[68,-36],[73,7],[30,-70],[-54,-107],[-104,32],[-64,99]],[[982,1361],[81,46],[94,16],[49,-175],[-8,-10],[-99,0],[-21,11],[-96,112]],[[1159,1240],[36,-2],[-14,35],[5,-32],[-27,-1]],[[1184,1250],[-1,-4],[-7,-5],[9,0],[-1,9]],[[1064,1406],[9,-48],[102,-87],[-25,150],[-86,-15]],[[1045,1344],[31,-28],[1,-1],[1,2],[-22,19],[13,36],[-24,-28]],[[1113,1284],[27,-24],[0,1],[-3,8],[-1,8],[-23,7]],[[1081,1309],[11,-63],[51,8],[-40,36],[-14,-22],[-8,41]],[[1168,1338],[7,-3],[-2,16],[-2,-9],[-3,-4]],[[1063,1291],[24,-21],[-13,45],[-11,-24]],[[1137,1272],[4,-13],[12,-3],[4,7],[-20,9]],[[1162,1258],[1,-1],[9,3],[-6,5],[-4,-7]],[[1091,1316],[12,-10],[4,1],[-13,12],[-3,-3]],[[1018,1330],[32,-28],[4,4],[-20,43],[-16,-19]],[[1110,1300],[2,-3],[6,-4],[0,4],[-8,3]],[[1106,1290],[5,-4],[3,7],[-3,3],[-5,-6]],[[1043,1346],[2,-2],[24,32],[-16,-19],[-10,-11]],[[1060,1337],[12,-11],[5,5],[-7,15],[-10,-9]],[[1075,1344],[2,-13],[4,8],[-6,5]],[[1147,1248],[8,-8],[9,1],[-10,7],[-7,0]],[[1139,1288],[2,-5],[13,-12],[-1,6],[-14,11]],[[1107,1312],[28,-24],[-22,23],[-6,1]],[[1089,1328],[14,-12],[4,0],[-13,12],[-5,0]],[[1089,1305],[8,-7],[5,5],[-8,8],[-5,-6]],[[3102,3250],[152,63],[56,-45],[39,-71],[15,-60],[-69,-65],[-104,32],[-82,124],[-7,22]],[[3127,3203],[19,-28],[12,-19],[33,-52],[104,-32],[54,107],[-30,70],[-73,-7],[-68,36],[-48,-30],[-3,-45]]]}