{"objects":{"water":{"type":"GeometryCollection","geometries":[{"type":"Polygon","properties":{"source":"naturalearthdata.com","kind":"ocean","area":1576712559132672,"sort_rank":200,"min_zoom":0.0,"id":1},"arcs":[[2]]},{"type":"LineString","properties":{"source":"naturalearthdata.com","kind":"ocean","sort_rank":205,"boundary":true,"min_zoom":0.0,"id":55},"arcs":[3]}]},"buildings":{"type":"GeometryCollection","geometries":[]},"places":{"type":"GeometryCollection","geometries":[{"type":"Point","properties":{"source":"naturalearthdata.com","kind":"locality","name":"Mirbat","population":1120,"min_zoom":7.0,"id":3010},"coordinates":[3653,1087]},{"type":"Point","properties":{"kind":"locality","name:en":"Salalah","name":"\u0635\u0644\u0627\u0644\u0629","kind_detail":"city","name:cs":"Sal\u00e1la","min_zoom":8.0,"name:de":"Salala","source":"openstreetmap.org","name:fr":"Salalah","int_name":"\u015eal\u0101lah","name:uk":"\u0421\u0430\u043b\u0430\u043b\u0430","name:ru":"\u0421\u0430\u043b\u0430\u043b\u0430","name:zh":"\u85a9\u62c9\u62c9","id":226878498,"population":178469},"coordinates":[1917,1155]}]},"transit":{"type":"GeometryCollection","geometries":[]},"pois":{"type":"GeometryCollection","geometries":[]},"boundaries":{"type":"GeometryCollection","geometries":[{"type":"LineString","properties":{"name:pt":"Om\u00e3","name:ka":"\u10dd\u10db\u10d0\u10dc\u10d8","name:ko":"\uc624\ub9cc","name:cv":"\u041e\u043c\u0430\u043d","name:tr":"Umman","name:kl":"Oman","name:cs":"Om\u00e1n","name:tt":"\u041e\u043c\u0430\u043d","name:kw":"Oman","name:kv":"\u041e\u043c\u0430\u043d","name:ku":"Oman","name:az":"Oman","name:tl":"Oman","name:zh-min-nan":"Oman","name:os":"\u041e\u043c\u0430\u043d","name:or":"\u0b13\u0b2e\u0b3e\u0b28","name:ce":"\u041e\u043c\u0430\u043d","name:ta":"\u0b93\u0bae\u0bbe\u0ba9\u0bcd","name:tg":"\u041e\u043c\u0430\u043d","name:ca":"Oman","name:te":"\u0c12\u0c2e\u0c28\u0c4d","name:li":"Omaan","name:cy":"Oman","sort_rank":262,"name:hr":"Oman","name:da":"Oman","name:sw":"Omani","name:de":"Oman","source":"openstreetmap.org","name:nv":"Om\u0105\u0301\u0105\u0301","name:kn":"\u0c92\u0cae\u0cbe\u0ca8\u0ccd","name:be":"\u0410\u043c\u0430\u043d","name:dv":"\u07a2\u07aa\u0789\u07a7\u0782\u07b0","name:lv":"Om\u0101na","name:lt":"Omanas","name:uz":"Oman","name:kk":"\u041e\u043c\u0430\u043d","name:he":"\u05e2\u05d5\u05de\u05d0\u05df","name:eo":"Omano","name:ur":"\u0633\u0644\u0637\u0646\u062a \u0639\u0645\u0627\u0646","name:lb":"Oman","name:la":"Omania","name:uk":"\u041e\u043c\u0430\u043d","name:hy":"\u0555\u0574\u0561\u0576","name:ug":"\u0626\u0648\u0645\u0627\u0646","name:hu":"Om\u00e1n","name:ln":"Oman","name:oc":"Oman","name:el":"\u039f\u03bc\u03ac\u03bd","kind":"country","name:en":"Oman","name":"\u0639\u0645\u0627\u0646","name:tk":"Oman","min_zoom":8.0,"name:th":"\u0e1b\u0e23\u0e30\u0e40\u0e17\u0e28\u0e42\u0e2d\u0e21\u0e32\u0e19","name:eu":"Oman","name:et":"Omaan","name:jv":"Oman","name:es":"Om\u00e1n","name:ht":"Om\u00e0n","name:ia":"Oman","name:ro":"Oman","name:ie":"Oman","name:id":"Oman","name:ms":"Oman","name:mr":"\u0913\u092e\u093e\u0928","name:pa":"\u0a13\u0a2e\u0a3e\u0a28","name:my":"\u1021\u102d\u102f\u1019\u1014\u103a\u1014\u102d\u102f\u1004\u103a\u1004\u1036","name:io":"Oman","name:is":"\u00d3man","name:am":"\u12a6\u121b\u1295","name:it":"Oman","name:vi":"Oman","name:ml":"\u0d12\u0d2e\u0d3e\u0d7b","name:rw":"Omani","name:pl":"Oman","name:mk":"\u041e\u043c\u0430\u043d","name:af":"Oman","name:mn":"\u041e\u043c\u0430\u043d","name:ss":"IMani","name:si":"\u0d95\u0db8\u0dcf\u0db1\u0dba","kind_detail":"2","name:hi":"\u0913\u092e\u093e\u0928","id":-305138,"name:fr":"Oman","name:zh-yue":"\u963f\u66fc","name:fy":"Oman","name:vo":"Lom\u00e4n","name:zh":"\u963f\u66fc","name:so":"Cumaan","name:sr":"\u041e\u043c\u0430\u043d","name:sl":"Oman","name:nl":"Oman","name:ja":"\u30aa\u30de\u30fc\u30f3","name:nn":"Oman","name:sh":"Oman","name:qu":"Uman","name:na":"Oman","name:se":"Oman","name:br":"Oman","name:bs":"Oman","name:yi":"\u05d0\u05de\u05d0\u05df","name:bn":"\u0993\u09ae\u09be\u09a8","name:bo":"\u0f68\u0f7c\u0f0b\u0f58\u0f53\u0f0d","name:sk":"Om\u00e1n","name:sa":"\u0913\u092e\u093e\u0928","name:no":"Oman","name:ru":"\u041e\u043c\u0430\u043d","name:sv":"Oman","name:su":"Oman","name:bg":"\u041e\u043c\u0430\u043d","name:an":"Om\u00e1n","name:ba":"\u041e\u043c\u0430\u043d","osm_relation":true,"name:sq":"Omani","name:ga":"\u00d3man","name:gd":"Om\u00e0n","name:yo":"Oman","name:wo":"Omaan","name:gn":"Om\u00e3","name:gl":"Om\u00e1n","maritime_boundary":true,"name:gv":"Yn Omaan","name:gu":"\u0a93\u0aae\u0abe\u0aa8","name:fi":"Oman"},"arcs":[0]},{"type":"LineString","properties":{"kind":"region","name:en":"Dhofar","name":"\u0645\u062d\u0627\u0641\u0638\u0629 \u0638\u0641\u0627\u0631","sort_rank":256,"kind_detail":"4","name:cs":"Daf\u00e1r","min_zoom":8.0,"name:de":"Dhofar","source":"openstreetmap.org","maritime_boundary":true,"name:ru":"\u0414\u043e\u0444\u0430\u0440","id":-3781314,"osm_relation":true},"arcs":[1]}]},"roads":{"type":"GeometryCollection","geometries":[{"type":"MultiLineString","properties":{"sort_rank":380,"kind_detail":"primary","min_zoom":8.0,"kind":"major_road","source":"openstreetmap.org"},"arcs":[[4],[5],[6],[7],[8],[9],[10],[11],[12],[13],[14],[15],[16],[17],[18],[19],[20],[21],[22],[23],[24],[25],[26],[27],[28],[29],[30],[31],[32],[33],[34],[35],[36],[37]]},{"type":"MultiLineString","properties":{"sort_rank":381,"source":"openstreetmap.org","min_zoom":8.0,"kind":"major_road","kind_detail":"trunk"},"arcs":[[38],[39],[40],[41],[42],[43],[44],[45],[46],[47],[48],[49],[50],[51],[52]]},{"type":"MultiLineString","properties":{"kind":"major_road","name:en":"Salalah-Muscat Street","network":"Roads in Oman","sort_rank":381,"kind_detail":"trunk","source":"openstreetmap.org","min_zoom":8.0,"landuse_kind":"residential","shield_text":"31","ref":"31"},"arcs":[[53],[54],[55],[56],[57],[58]]},{"type":"MultiLineString","properties":{"source":"openstreetmap.org","kind":"major_road","name:en":"Ar Rubat Street","sort_rank":381,"kind_detail":"trunk","ref":"47","min_zoom":8.0},"arcs":[[59],[60]]},{"type":"MultiLineString","properties":{"source":"openstreetmap.org","kind":"major_road","name:en":"Itin Street","landuse_kind":"urban_area","sort_rank":380,"kind_detail":"primary","min_zoom":8.0},"arcs":[[61],[62]]},{"type":"LineString","properties":{"kind":"major_road","name:en":"Sultan Qaboos Street","sort_rank":380,"kind_detail":"primary","source":"openstreetmap.org","min_zoom":8.0,"landuse_kind":"urban_area","ref":"49","id":255443219},"arcs":[63]},{"type":"MultiLineString","properties":{"kind":"major_road","network":"Roads in Oman","sort_rank":380,"kind_detail":"primary","source":"openstreetmap.org","min_zoom":8.0,"landuse_kind":"urban_area","shield_text":"49","ref":"49"},"arcs":[[64],[65]]},{"type":"MultiLineString","properties":{"source":"openstreetmap.org","kind":"major_road","name:en":"A'Nama Street","landuse_kind":"urban_area","sort_rank":380,"kind_detail":"primary","min_zoom":8.0},"arcs":[[66],[67]]},{"type":"LineString","properties":{"kind":"major_road","name:en":"A'Robat","sort_rank":381,"landuse_kind":"urban_area","source":"openstreetmap.org","min_zoom":8.0,"kind_detail":"trunk","id":240568258},"arcs":[68]},{"type":"MultiLineString","properties":{"source":"openstreetmap.org","kind":"major_road","name:en":"A'Salam Street","landuse_kind":"urban_area","sort_rank":380,"kind_detail":"primary","min_zoom":8.0},"arcs":[[69],[70]]},{"type":"LineString","properties":{"source":"openstreetmap.org","kind":"major_road","name:en":"Khor Salalah Roundabout","sort_rank":380,"kind_detail":"primary","min_zoom":8.0,"id":255587676},"arcs":[71]},{"type":"LineString","properties":{"kind":"major_road","network":"Roads in Oman","sort_rank":381,"kind_detail":"trunk","source":"openstreetmap.org","min_zoom":8.0,"shield_text":"47","ref":"47","id":255563410},"arcs":[72]},{"type":"MultiLineString","properties":{"kind":"major_road","network":"Roads in Oman","sort_rank":380,"kind_detail":"primary","source":"openstreetmap.org","min_zoom":8.0,"shield_text":"49","ref":"49"},"arcs":[[73],[74],[75],[76],[77],[78],[79],[80],[81],[82]]},{"type":"MultiLineString","properties":{"kind":"major_road","name:en":"Sultan Qaboos Street","network":"Roads in Oman","sort_rank":380,"kind_detail":"primary","source":"openstreetmap.org","min_zoom":8.0,"landuse_kind":"residential","shield_text":"49","ref":"49"},"arcs":[[83],[84],[85],[86]]},{"type":"MultiLineString","properties":{"kind":"major_road","name:en":"23rd July Street","sort_rank":380,"kind_detail":"primary","name:fr":"Rue du 23 Juillet","source":"openstreetmap.org","min_zoom":8.0,"landuse_kind":"urban_area"},"arcs":[[87],[88],[89],[90],[91],[92],[93],[94]]},{"type":"MultiLineString","properties":{"kind":"major_road","name:en":"Thumrayt - Salalah Road","network":"Roads in Oman","sort_rank":381,"kind_detail":"trunk","source":"openstreetmap.org","min_zoom":8.0,"shield_text":"31","ref":"31"},"arcs":[[95],[96]]},{"type":"MultiLineString","properties":{"kind":"major_road","network":"Roads in Oman","sort_rank":380,"kind_detail":"primary","source":"openstreetmap.org","min_zoom":8.0,"shield_text":"31","ref":"31"},"arcs":[[97],[98]]},{"type":"MultiLineString","properties":{"kind":"major_road","name:en":"Sultan Quaboos Street","network":"Roads in Oman","sort_rank":381,"kind_detail":"trunk","source":"openstreetmap.org","min_zoom":8.0,"shield_text":"47","ref":"47"},"arcs":[[99],[100]]},{"type":"MultiLineString","properties":{"source":"openstreetmap.org","kind":"major_road","name:en":"Ar Rubat Street","sort_rank":380,"kind_detail":"primary","ref":"47","min_zoom":8.0},"arcs":[[101],[102]]},{"type":"LineString","properties":{"kind":"major_road","name:en":"Al Qurm Roundabout","network":"Roads in Oman","sort_rank":381,"kind_detail":"trunk","source":"openstreetmap.org","min_zoom":8.0,"landuse_kind":"urban_area","shield_text":"47","ref":"47","id":255578706},"arcs":[103]},{"type":"MultiLineString","properties":{"kind":"major_road","network":"Roads in Oman","sort_rank":381,"kind_detail":"trunk","source":"openstreetmap.org","min_zoom":8.0,"landuse_kind":"military","shield_text":"31","ref":"31"},"arcs":[[104],[105]]},{"type":"MultiLineString","properties":{"kind":"major_road","name:en":"Ar Rubat Street","sort_rank":381,"kind_detail":"trunk","source":"openstreetmap.org","min_zoom":8.0,"landuse_kind":"residential","ref":"47"},"arcs":[[106],[107]]},{"type":"LineString","properties":{"kind":"major_road","network":"Roads in Oman","sort_rank":380,"kind_detail":"primary","source":"openstreetmap.org","min_zoom":8.0,"shield_text":"47","id":27407048},"arcs":[108]},{"type":"LineString","properties":{"kind":"major_road","name:en":"Hospital Roundabout","sort_rank":380,"landuse_kind":"urban_area","source":"openstreetmap.org","min_zoom":8.0,"kind_detail":"primary","id":241837820},"arcs":[109]},{"type":"LineString","properties":{"kind":"major_road","name:en":"Salalah Bypass Road","sort_rank":380,"kind_detail":"primary","source":"openstreetmap.org","min_zoom":8.0,"ref":"SBR","id":240551877},"arcs":[110]},{"type":"LineString","properties":{"kind":"major_road","sort_rank":381,"landuse_kind":"residential","source":"openstreetmap.org","min_zoom":8.0,"kind_detail":"trunk","ref":"31","id":240565048},"arcs":[111]},{"type":"MultiLineString","properties":{"source":"openstreetmap.org","kind":"major_road","landuse_kind":"urban_area","sort_rank":380,"kind_detail":"primary","min_zoom":8.0},"arcs":[[112],[113],[114],[115],[116],[117],[118]]},{"type":"LineString","properties":{"source":"openstreetmap.org","kind":"major_road","landuse_kind":"urban_area","sort_rank":381,"kind_detail":"trunk","min_zoom":8.0,"id":240551852},"arcs":[119]},{"type":"MultiLineString","properties":{"kind":"major_road","name:en":"Ar Rubat Street","sort_rank":380,"kind_detail":"primary","source":"openstreetmap.org","min_zoom":8.0,"landuse_kind":"residential","ref":"47"},"arcs":[[120],[121]]},{"type":"MultiLineString","properties":{"kind":"major_road","name:en":"Sultan Quaboos Street","network":"Roads in Oman","sort_rank":381,"kind_detail":"trunk","source":"openstreetmap.org","min_zoom":8.0,"landuse_kind":"urban_area","shield_text":"47","ref":"47"},"arcs":[[122],[123],[124],[125]]},{"type":"LineString","properties":{"kind":"major_road","name:en":"Madinat Al Haq Roundabout","network":"Roads in Oman","sort_rank":380,"kind_detail":"primary","source":"openstreetmap.org","min_zoom":8.0,"shield_text":"49","id":255460123},"arcs":[126]},{"type":"MultiLineString","properties":{"kind":"major_road","name:en":"Salalah-Muscat Street","network":"Roads in Oman","sort_rank":381,"landuse_kind":"urban_area","source":"openstreetmap.org","min_zoom":8.0,"kind_detail":"trunk","shield_text":"31","ref":"31"},"arcs":[[127],[128]]},{"type":"MultiLineString","properties":{"kind":"major_road","name:en":"Ar Rubat Street","sort_rank":381,"landuse_kind":"urban_area","source":"openstreetmap.org","min_zoom":8.0,"kind_detail":"trunk","ref":"47"},"arcs":[[129],[130],[131],[132],[133],[134]]},{"type":"MultiLineString","properties":{"kind":"major_road","name:en":"Um Al Ghawarif Street","sort_rank":380,"kind_detail":"primary","source":"openstreetmap.org","min_zoom":8.0,"landuse_kind":"urban_area","ref":"49"},"arcs":[[135],[136]]},{"type":"MultiLineString","properties":{"kind":"major_road","network":"Roads in Oman","sort_rank":380,"kind_detail":"primary","source":"openstreetmap.org","min_zoom":8.0,"shield_text":"47","ref":"47"},"arcs":[[137],[138],[139],[140]]},{"type":"MultiLineString","properties":{"source":"openstreetmap.org","kind":"major_road","landuse_kind":"residential","sort_rank":380,"kind_detail":"primary","min_zoom":8.0},"arcs":[[141],[142],[143],[144],[145],[146],[147],[148],[149],[150]]},{"type":"MultiLineString","properties":{"source":"openstreetmap.org","kind":"major_road","name:en":"Salalah Bypass Road","landuse_kind":"residential","sort_rank":380,"kind_detail":"primary","min_zoom":8.0},"arcs":[[151],[152]]},{"type":"MultiLineString","properties":{"source":"openstreetmap.org","kind":"major_road","name:en":"Sultan Qaboos Street","landuse_kind":"urban_area","sort_rank":380,"kind_detail":"primary","min_zoom":8.0},"arcs":[[153],[154],[155],[156],[157],[158],[159],[160],[161]]},{"type":"MultiLineString","properties":{"source":"openstreetmap.org","kind":"major_road","name:en":"Sultan Qaboos Street","sort_rank":380,"kind_detail":"primary","min_zoom":8.0},"arcs":[[162],[163],[164],[165],[166],[167],[168],[169],[170],[171],[172],[173]]},{"type":"MultiLineString","properties":{"source":"openstreetmap.org","kind":"major_road","name:en":"Al Nahdah Street","sort_rank":380,"kind_detail":"primary","min_zoom":8.0},"arcs":[[174],[175],[176]]},{"type":"LineString","properties":{"kind":"major_road","name:en":"Madinat Al Haq Roundabout","network":"Roads in Oman","sort_rank":380,"kind_detail":"primary","source":"openstreetmap.org","min_zoom":8.0,"landuse_kind":"residential","shield_text":"49","id":255460123},"arcs":[177]},{"type":"MultiLineString","properties":{"source":"openstreetmap.org","kind":"major_road","sort_rank":380,"kind_detail":"primary","ref":"49","min_zoom":8.0},"arcs":[[178],[179]]},{"type":"LineString","properties":{"kind":"major_road","name:en":"Taqah Roundabout","network":"Roads in Oman","sort_rank":380,"kind_detail":"primary","source":"openstreetmap.org","min_zoom":8.0,"landuse_kind":"residential","shield_text":"49","id":255456549},"arcs":[180]},{"type":"MultiLineString","properties":{"source":"openstreetmap.org","kind":"major_road","sort_rank":381,"kind_detail":"trunk","ref":"31","min_zoom":8.0},"arcs":[[181],[182],[183],[184]]},{"type":"MultiLineString","properties":{"kind":"major_road","name:en":"Ar Rubat Street","sort_rank":380,"kind_detail":"primary","source":"openstreetmap.org","min_zoom":8.0,"landuse_kind":"urban_area","ref":"47"},"arcs":[[185],[186],[187],[188]]},{"type":"MultiLineString","properties":{"source":"openstreetmap.org","kind":"major_road","name:en":"18th November Street","landuse_kind":"residential","sort_rank":380,"kind_detail":"primary","min_zoom":8.0},"arcs":[[189],[190]]},{"type":"LineString","properties":{"kind":"major_road","name:en":"Taqah Ash Shamaliyyah Roundabout","network":"Roads in Oman","sort_rank":380,"kind_detail":"primary","source":"openstreetmap.org","min_zoom":8.0,"landuse_kind":"residential","shield_text":"49","id":75295727},"arcs":[191]},{"type":"MultiLineString","properties":{"kind":"major_road","name:en":"Sultan Qaboos Street","network":"Roads in Oman","sort_rank":380,"kind_detail":"primary","source":"openstreetmap.org","min_zoom":8.0,"shield_text":"49","ref":"49"},"arcs":[[192],[193]]},{"type":"MultiLineString","properties":{"source":"openstreetmap.org","kind":"major_road","name:en":"Al Nahdah Street","landuse_kind":"urban_area","sort_rank":380,"kind_detail":"primary","min_zoom":8.0},"arcs":[[194],[195]]},{"type":"LineString","properties":{"kind":"major_road","network":"Roads in Oman","sort_rank":380,"kind_detail":"primary","source":"openstreetmap.org","min_zoom":8.0,"shield_text":"31","id":287304064},"arcs":[196]},{"type":"MultiLineString","properties":{"source":"openstreetmap.org","kind":"major_road","name:en":"18th November Street","sort_rank":380,"kind_detail":"primary","min_zoom":8.0},"arcs":[[197],[198],[199],[200],[201],[202],[203],[204],[205],[206]]},{"type":"LineString","properties":{"kind":"major_road","name:en":"Salalah al Gharbiyya","sort_rank":380,"landuse_kind":"urban_area","source":"openstreetmap.org","min_zoom":8.0,"kind_detail":"primary","id":255610395},"arcs":[207]},{"type":"MultiLineString","properties":{"kind":"major_road","network":"Roads in Oman","sort_rank":381,"kind_detail":"trunk","source":"openstreetmap.org","min_zoom":8.0,"shield_text":"31","ref":"31"},"arcs":[[208],[209],[210],[211],[212],[213],[214],[215],[216],[217],[218],[219],[220],[221],[222],[223],[224]]},{"type":"MultiLineString","properties":{"source":"openstreetmap.org","kind":"major_road","name:en":"Itin Street","sort_rank":380,"kind_detail":"primary","min_zoom":8.0},"arcs":[[225],[226]]},{"type":"MultiLineString","properties":{"kind":"major_road","network":"Roads in Oman","sort_rank":380,"kind_detail":"primary","source":"openstreetmap.org","min_zoom":8.0,"shield_text":"39","ref":"39"},"arcs":[[227],[228],[229],[230]]},{"type":"LineString","properties":{"kind":"major_road","name:en":"Al Awqdayn Roundabout","sort_rank":381,"kind_detail":"trunk","min_zoom":8.0,"name:de":"Al Awqdayn Roundabout","source":"openstreetmap.org","name:fr":"Al Awqdayn Roundabout","landuse_kind":"urban_area","id":241837818},"arcs":[231]},{"type":"LineString","properties":{"kind":"major_road","network":"Roads in Oman","sort_rank":380,"kind_detail":"primary","source":"openstreetmap.org","min_zoom":8.0,"shield_text":"45","ref":"45","id":44117548},"arcs":[232]},{"type":"LineString","properties":{"kind":"major_road","name:en":"al Huseela R\/A","sort_rank":380,"kind_detail":"primary","min_zoom":8.0,"source":"openstreetmap.org","name:fr":"Rond-point al Huseela","landuse_kind":"urban_area","id":255610389},"arcs":[233]},{"type":"LineString","properties":{"kind":"major_road","name:en":"A'Dahariz Roundabout","sort_rank":380,"landuse_kind":"urban_area","source":"openstreetmap.org","min_zoom":8.0,"kind_detail":"primary","id":255437292},"arcs":[234]},{"type":"MultiLineString","properties":{"source":"openstreetmap.org","kind":"major_road","name:en":"23rd July Street","landuse_kind":"urban_area","sort_rank":380,"kind_detail":"primary","min_zoom":8.0},"arcs":[[235],[236],[237],[238],[239],[240]]},{"type":"LineString","properties":{"kind":"major_road","sort_rank":380,"landuse_kind":"urban_area","source":"openstreetmap.org","min_zoom":8.0,"kind_detail":"primary","ref":"49","id":239457772},"arcs":[241]},{"type":"MultiLineString","properties":{"kind":"major_road","name:en":"Thumrayt Street","sort_rank":381,"landuse_kind":"urban_area","source":"openstreetmap.org","min_zoom":8.0,"kind_detail":"trunk","ref":"31"},"arcs":[[242],[243]]},{"type":"MultiLineString","properties":{"kind":"major_road","name:en":"Salalah-Muscat Street","network":"Roads in Oman","sort_rank":381,"kind_detail":"trunk","source":"openstreetmap.org","min_zoom":8.0,"shield_text":"31","ref":"31"},"arcs":[[244],[245]]},{"type":"MultiLineString","properties":{"kind":"major_road","network":"Roads in Oman","sort_rank":380,"kind_detail":"primary","source":"openstreetmap.org","min_zoom":8.0,"landuse_kind":"residential","shield_text":"49","ref":"49"},"arcs":[[246],[247],[248],[249],[250],[251],[252]]},{"type":"MultiLineString","properties":{"kind":"major_road","name:en":"Sultan Qaboos Street","network":"Roads in Oman","sort_rank":380,"kind_detail":"primary","source":"openstreetmap.org","min_zoom":8.0,"landuse_kind":"urban_area","shield_text":"49","ref":"49"},"arcs":[[253],[254],[255],[256],[257],[258],[259],[260]]},{"type":"MultiLineString","properties":{"source":"openstreetmap.org","kind":"major_road","name:en":"Salalah Bypass Road","sort_rank":380,"kind_detail":"primary","min_zoom":8.0},"arcs":[[261],[262]]}]},"earth":{"type":"GeometryCollection","geometries":[{"type":"MultiPolygon","properties":{"sort_rank":10,"source":"naturalearthdata.com","min_zoom":0.0,"kind":"earth","area":74506957473},"arcs":[[[263]]]}]},"landuse":{"type":"GeometryCollection","geometries":[{"type":"Polygon","properties":{"source":"openstreetmap.org","kind":"nature_reserve","area":5347200000,"tier":2,"id":372822988,"min_zoom":4.0,"sort_rank":23},"arcs":[[264]]},{"type":"Polygon","properties":{"source":"openstreetmap.org","kind":"military","area":21029700,"tier":3,"id":373396544,"min_zoom":8.0,"sort_rank":45},"arcs":[[265],[266]]},{"type":"Polygon","properties":{"source":"naturalearthdata.com","kind":"urban_area","name":"","area":94622880,"sort_rank":11,"min_zoom":4.0,"id":11367},"arcs":[[267]]},{"type":"Polygon","properties":{"source":"openstreetmap.org","kind":"aerodrome","area":14964500,"tier":3,"id":373395182,"min_zoom":8.0,"sort_rank":60},"arcs":[[268]]},{"type":"MultiPolygon","properties":{"source":"openstreetmap.org","kind":"residential","tier":2,"area":157113067,"sort_rank":20,"min_zoom":8.0},"arcs":[[[269]],[[270]],[[271]],[[272]]]},{"type":"Polygon","properties":{"kind":"residential","name":"Taqah","area":11728900,"sort_rank":20,"source":"openstreetmap.org","min_zoom":8.0,"tier":2,"id":326129030},"arcs":[[273]]}]}},"type":"Topology","transform":{"translate":[53.4375,16.6361918784],"scale":[0.0003433228,0.0003277689]},"arcs":[[[1103,0],[123,151],[402,54],[342,166],[186,153],[386,59],[678,7],[159,-123],[223,-104],[346,-61],[106,7],[42,12]],[[1103,0],[123,151],[402,54],[342,166],[186,153],[386,59],[678,7],[159,-123],[223,-104],[346,-61],[106,7],[42,12]],[[0,338],[423,9],[95,24],[103,47],[54,33],[24,34],[28,56],[65,69],[73,61],[54,35],[53,-15],[61,23],[60,35],[52,18],[58,5],[174,37],[133,8],[73,15],[33,32],[9,18],[41,37],[9,26],[-3,24],[-7,22],[0,23],[10,28],[32,23],[128,66],[51,13],[230,0],[543,63],[28,-7],[28,-14],[59,44],[72,-5],[137,-39],[17,5],[61,28],[32,8],[38,0],[103,-21],[35,4],[60,14],[34,3],[36,-6],[84,-29],[119,-22],[33,-39],[13,-54],[23,-58],[22,23],[99,-65],[33,12],[53,-7],[34,18],[33,-38],[48,0],[97,38],[6,1],[0,-1001],[-4096,0],[0,338]],[[0,338],[423,9],[95,24],[103,47],[54,33],[24,34],[28,56],[65,69],[73,61],[54,35],[53,-15],[61,23],[60,35],[52,18],[58,5],[174,37],[133,8],[73,15],[33,32],[9,18],[41,37],[9,26],[-3,24],[-7,22],[0,23],[10,28],[32,23],[128,66],[51,13],[230,0],[543,63],[28,-7],[28,-14],[59,44],[72,-5],[137,-39],[17,5],[61,28],[32,8],[38,0],[103,-21],[35,4],[60,14],[34,3],[36,-6],[84,-29],[119,-22],[33,-39],[13,-54],[23,-58],[22,23],[99,-65],[33,12],[53,-7],[34,18],[33,-38],[48,0],[97,38],[6,1]],[[1568,1069],[52,-67]],[[1638,1140],[-69,-69]],[[1621,1003],[-52,66]],[[1570,1070],[73,74]],[[1726,1199],[15,-38]],[[1743,1162],[-16,38]],[[1731,2978],[2,-1]],[[1784,1238],[36,19]],[[1820,1259],[-28,-16]],[[1827,3108],[-18,5]],[[1839,1365],[-19,-106]],[[1820,1255],[1,2]],[[1821,1259],[19,106]],[[1822,1257],[36,21]],[[1825,1259],[-3,0]],[[2269,1425],[1,-8]],[[2270,1417],[0,8]],[[2270,1417],[4,-135]],[[2915,1288],[18,-11]],[[3415,1204],[15,-2]],[[3671,1130],[-1,0]],[[3690,1123],[-19,7]],[[3750,1103],[-3,1]],[[3845,3890],[-11,-13]],[[4096,1246],[-103,-20],[-32,-41]],[[1567,1070],[1,-1],[2,1],[-2,1],[-1,-1]],[[1822,1258],[-1,1],[-2,-1],[1,-1],[2,1]],[[1902,1191]],[[1927,1116],[0,-1],[1,0],[0,1],[-1,0]],[[2024,1374],[-1,2],[-1,-1],[0,-1],[2,0]],[[2200,1425],[-1,1],[-2,0],[1,-2],[2,1]],[[2271,1426],[-1,1],[-2,0],[1,-2],[2,1]],[[2441,1273],[-1,2],[-2,-1],[1,-2],[2,1]],[[2588,1265],[-1,2],[-2,-1],[1,-2],[2,1]],[[1643,3608],[-1,-2]],[[1642,3606],[-2,-3]],[[1642,3603],[0,3]],[[1642,3606],[-1,4]],[[1733,2977],[3,-8]],[[1769,2864],[0,2]],[[1801,2731],[-1,-3]],[[1876,1871],[3,6]],[[1878,2139],[-1,-3]],[[1879,2136],[-1,-3]],[[1886,2071],[0,3]],[[1887,2068],[0,4]],[[1734,2978],[0,2],[-2,-1],[1,-2],[1,1]],[[1805,3114],[-1,-1],[2,-1],[0,2],[-1,0]],[[2071,1405],[0,2],[-1,0],[-1,-2],[2,0]],[[2054,1214],[2,21]],[[2056,1235],[10,84]],[[2064,1319],[-8,-84]],[[2056,1235],[-2,-22]],[[2068,1385],[-3,-64]],[[2066,1321],[5,78]],[[1914,1185],[-15,-1]],[[1899,1184],[13,0]],[[1812,1199],[-4,-38]],[[1808,1161],[5,38]],[[2273,1265],[3,1]],[[2276,1266],[14,-3]],[[2290,1264],[-13,4]],[[1808,1161],[0,-37]],[[1810,1124],[-2,37]],[[2057,1190],[0,1],[-2,-1],[1,-1],[1,1]],[[1838,1133],[-28,-9]],[[1811,1123],[27,9]],[[1858,1107],[0,-1],[1,-1],[1,1],[-2,1]],[[1620,1003],[1,-2],[1,0],[0,2],[-2,0]],[[2290,1263],[148,9]],[[2438,1274],[-148,-10]],[[2440,1272],[145,-7]],[[2585,1266],[-145,8]],[[2587,1264],[58,-42],[68,9]],[[2716,1233],[-70,-11],[-58,44]],[[2753,1254],[-7,-5]],[[2799,1262]],[[2806,1267],[-4,-2]],[[2880,1277],[30,13],[244,-65],[401,-38],[90,-19],[25,-38]],[[2240,1245],[10,7]],[[2250,1252],[3,1]],[[2259,1258],[-9,-6]],[[2250,1252],[-10,-7]],[[1933,1163],[-94,-29]],[[1840,1133],[93,30]],[[1949,1167],[-16,-4]],[[1933,1163],[16,4]],[[1949,1167],[12,2]],[[1961,1169],[-12,-2]],[[1961,1169],[27,6]],[[1987,1175],[-26,-6]],[[2068,1494],[2,-87]],[[2071,1407],[-2,87]],[[1806,3112],[2,1]],[[1809,3113],[-3,0]],[[1634,1014],[-13,-11]],[[1623,1002],[12,11]],[[2137,1220],[-34,0]],[[2103,1220],[33,-1]],[[1690,1063],[-1,2],[-1,-1],[1,-2],[1,1]],[[1785,3094],[-26,-26]],[[1761,3070],[23,21]],[[2068,1219],[-13,-9]],[[2055,1209],[15,11]],[[1599,952],[3,1],[0,1],[-4,0],[1,-2]],[[1810,1123],[0,1],[-2,0],[1,-2],[1,1]],[[2020,1373],[-195,-114]],[[2066,1319],[0,2],[-2,0],[0,-2],[2,0]],[[1741,1161],[15,-35]],[[1757,1127],[-14,35]],[[1988,1185],[0,-9]],[[1988,1176],[4,9]],[[2274,1282],[0,-11]],[[2274,1271],[0,-3]],[[2276,1269],[-2,2]],[[1965,1186],[-1,1],[-1,0],[0,-2],[2,1]],[[2075,1220],[-5,0],[-2,-1]],[[2070,1220],[4,0]],[[1688,1064],[-54,-50]],[[1635,1013],[54,49]],[[1756,1126],[-67,-61]],[[1690,1063],[67,61]],[[2802,1261],[-2,0]],[[2053,1209],[1,5]],[[2054,1213],[0,-6]],[[1899,1184],[-142,-57]],[[1758,1126],[141,58]],[[1912,1184],[51,2]],[[1963,1187],[-49,-2]],[[1965,1185],[90,24]],[[2055,1210],[-90,-23]],[[2057,1189],[84,-1]],[[2141,1189],[-84,1]],[[0,588],[280,-55],[76,-58],[77,0],[60,65],[178,45],[153,79],[-7,46],[39,23],[261,34],[-18,32],[79,59],[9,69],[76,63],[227,-45],[109,12]],[[1599,957],[-1,-3]],[[1620,1002],[-21,-45]],[[1602,953],[19,48]],[[1645,1147],[-7,-7]],[[1643,1144],[3,2]],[[1724,1204],[2,-5]],[[1792,1243],[-68,-37]],[[1725,1205],[-1,1]],[[1724,1206],[-1,0],[0,-2],[2,1]],[[1727,1200],[-2,5]],[[1725,1205],[59,33]],[[3747,1104],[-57,19]],[[1647,1147],[0,2],[-2,-1],[0,-1],[2,0]],[[1723,1206],[-77,-57]],[[1647,1148],[76,56]],[[1757,1124],[51,-2]],[[1808,1124],[-49,2]],[[1810,1122],[7,-2]],[[1818,1121],[-7,2]],[[2023,1141],[117,46]],[[2140,1187],[2,1]],[[2141,1188],[-1,-1]],[[2142,1188],[3,1]],[[2145,1189],[-3,0]],[[1817,1120],[41,-15]],[[1858,1107],[-40,14]],[[1859,1105],[6,1]],[[1865,1106],[-6,1]],[[1865,1106],[40,6]],[[1905,1112],[22,3]],[[1927,1116],[-22,-4]],[[1934,1117],[-6,-1]],[[1928,1115],[6,2]],[[1934,1117],[25,2]],[[1959,1119],[6,0]],[[1965,1119],[58,22]],[[1901,1194],[3,-14]],[[1905,1180],[-4,14]],[[1916,1135],[5,-20],[-4,20]],[[2800,1261],[2,0]],[[2806,1267],[74,10]],[[3961,1185],[-48,22],[-70,-74],[-93,-30]],[[2728,1234],[-2,1],[-1,-2],[2,-1],[1,2]],[[1685,4029],[-1,-15]],[[1707,3316],[84,-103],[13,-99]],[[1970,1703],[1,-4]],[[1971,1699],[-1,4]],[[2074,1220],[29,0]],[[2103,1220],[-28,0]],[[2136,1219],[3,0]],[[2139,1220],[-2,0]],[[2088,1408],[12,2]],[[2100,1411],[-8,-1]],[[2768,1265],[-1,-1],[1,-1],[1,1],[-1,1]],[[2198,1216],[-13,-9]],[[2188,1215],[3,1]],[[1904,1180],[5,-22],[2,-9],[5,-14]],[[1917,1135],[-12,45]],[[1732,2979],[-1,-1]],[[2069,1407],[-46,-31]],[[2024,1375],[45,30]],[[2092,1410],[-21,-3]],[[2071,1405],[17,3]],[[2197,1426],[-97,-15]],[[2100,1410],[97,14]],[[2268,1427],[-69,-1]],[[2199,1424],[70,1]],[[2271,1426],[3,0]],[[2274,1426],[-3,1]],[[1838,1133],[1,-1],[1,1],[-2,1],[0,-1]],[[1684,4096],[-17,-218]],[[1706,3317],[-13,140],[-51,146],[11,116]],[[1653,3719],[14,161]],[[1759,3068],[-33,-31],[6,-58]],[[1734,2980],[-7,57],[34,33]],[[1970,1703],[-55,31],[-61,121],[25,23],[3,19],[5,171],[-100,308],[11,250],[1,102]],[[1799,2728],[1,14]],[[1800,2742],[0,7],[-66,229]],[[1736,2969],[64,-227]],[[1800,2742],[0,-1],[-1,-13]],[[1799,2728],[-12,-352],[100,-308],[-6,-166],[0,-5],[-27,-42],[3,-43],[58,-78],[55,-31]],[[1784,3091],[22,21]],[[1804,3112],[-19,-18]],[[1806,3114],[-15,101],[-84,101],[-68,270],[14,133]],[[1653,3719],[31,295],[1,15],[7,67]],[[1971,1699],[40,-151],[32,-44],[25,-10]],[[2069,1494],[-26,10],[-21,35],[-11,9],[-4,25],[-36,126]],[[1820,1257],[-8,-58]],[[1813,1199],[7,56]],[[1805,3110],[4,2]],[[1809,3112]],[[4096,3980],[-6,1],[-47,-28],[-141,-10],[-337,-349],[-290,-52],[-161,39],[-108,-47],[-59,-66],[-136,2],[-77,-25],[-337,-237],[-295,-40],[-89,-113],[-186,53],[-18,4]],[[1809,3112],[-1,1]],[[1758,1125],[-1,2],[-1,-1],[1,-2],[1,1]],[[1731,2978],[-69,26],[-46,60],[-1248,-20],[-36,-39],[-149,-55],[-65,-78],[-118,-65]],[[1987,1175],[1,0],[1,0],[-1,1],[-1,-1]],[[2142,1189],[-1,1],[0,-2],[1,0],[0,1]],[[1933,1163]],[[1933,1163]],[[1949,1167]],[[1949,1167]],[[1961,1169]],[[1961,1169]],[[2277,1267],[-1,2],[-2,-1],[1,-2],[2,1]],[[2057,1191],[-2,13],[-2,5]],[[2054,1207],[2,-16]],[[2070,1405],[-2,-20]],[[2071,1399],[0,6]],[[2713,1231],[13,1]],[[2725,1234],[-9,-1]],[[2746,1249],[-19,-14]],[[2728,1233],[39,30]],[[2767,1264],[-14,-10]],[[2799,1262],[-30,3]],[[2769,1264],[31,-4]],[[2185,1207],[-10,-6],[-28,-11]],[[2147,1190],[-2,-1]],[[2145,1189],[2,1]],[[2147,1190],[41,25]],[[2191,1216],[49,29]],[[2240,1245],[-42,-29]],[[2253,1253],[20,12]],[[2274,1268],[-15,-10]],[[1858,1278],[164,96]],[[2022,1375],[-2,-2]],[[0,4096],[4096,0],[0,-3095],[-6,-1],[-97,-38],[-48,0],[-33,38],[-34,-18],[-53,7],[-33,-12],[-99,65],[-22,-23],[-23,58],[-13,54],[-33,39],[-119,22],[-84,29],[-36,6],[-34,-3],[-60,-14],[-35,-4],[-103,21],[-38,0],[-32,-8],[-61,-28],[-17,-5],[-137,39],[-72,5],[-59,-44],[-28,14],[-28,7],[-543,-63],[-230,0],[-51,-13],[-128,-66],[-32,-23],[-10,-28],[0,-23],[7,-22],[3,-24],[-9,-26],[-41,-37],[-9,-18],[-33,-32],[-73,-15],[-133,-8],[-174,-37],[-58,-5],[-52,-18],[-60,-35],[-61,-23],[-53,15],[-54,-35],[-73,-61],[-65,-69],[-28,-56],[-24,-34],[-54,-33],[-103,-47],[-95,-24],[-423,-9],[0,3758]],[[3188,2938],[908,456],[0,-1824],[-258,-59],[-650,1427]],[[1616,3169],[11,64],[142,2],[30,-118],[-23,-39],[-69,-38],[-24,11],[10,77],[-69,12],[-8,29]],[[1713,3046],[41,32],[-19,152],[-69,-28],[8,-61],[20,-1],[-5,-60],[18,2],[6,-36]],[[2097,1315],[6,-96],[26,-6],[89,74],[73,-6],[-4,-64],[-98,-1],[-35,-68],[-319,-17],[-160,-89],[-9,-55],[-53,45],[-8,58],[212,111],[61,14],[25,-36],[47,26],[17,110],[130,0]],[[1662,3231],[73,-1],[19,-152],[-41,-32],[-51,185]],[[3637,1063],[65,75],[50,-11],[-24,-99],[-37,26],[-13,-23],[-32,8],[-9,24]],[[1636,1136],[26,20],[-27,-18],[-29,66],[15,17],[3,-20],[28,-12],[-15,22],[74,32],[-24,22],[112,10],[15,-17],[-89,-60],[30,-73],[-67,-58],[3,43],[-24,-23],[-31,49]],[[2047,1238],[23,161],[29,14],[26,-151],[-69,-57],[-9,33]],[[2104,1408],[163,17],[5,-158],[-32,-23],[-18,37],[-78,-14],[16,120],[-45,-7],[-11,28]],[[2712,1231],[42,22],[-13,49],[57,2],[7,26],[-6,-70],[49,8],[7,-24],[-27,-29],[-116,16]]]}