{"objects":{"water":{"type":"GeometryCollection","geometries":[{"type":"MultiPolygon","properties":{"source":"naturalearthdata.com","kind":"ocean","area":1576712559132672,"sort_rank":200,"min_zoom":0.0,"id":1},"arcs":[[[5]]]},{"type":"LineString","properties":{"source":"naturalearthdata.com","kind":"ocean","sort_rank":205,"boundary":true,"min_zoom":0.0,"id":75},"arcs":[6]},{"type":"LineString","properties":{"source":"naturalearthdata.com","kind":"ocean","sort_rank":205,"boundary":true,"min_zoom":0.0,"id":76},"arcs":[7]}]},"buildings":{"type":"GeometryCollection","geometries":[]},"places":{"type":"GeometryCollection","geometries":[{"type":"Point","properties":{"old_name:fr":"Guyane fran\u00e7aise","name:pt":"Guiana Francesa","name:mt":"Gujana Fran\u010bi\u017ca","name:ko":"\ud504\ub791\uc2a4\ub839 \uae30\uc544\ub098","name:kn":"\u0cab\u0ccd\u0cb0\u0cc6\u0c82\u0c9a\u0ccd \u0c97\u0caf\u0cbe\u0ca8\u0cbe","name:km":"\u17a0\u17d2\u179c\u17d2\u179c\u17c1\u1793\u200b\u17a0\u17d2\u1782\u17c0\u178e\u17b6","name:cs":"Francouzsk\u00e1 Guyana","name:ki":"Gwiyana ya Ufaransa","name:tr":"Frans\u0131z Guyanas\u0131","name:th":"\u0e40\u0e1f\u0e23\u0e19\u0e0a\u0e4c\u0e40\u0e01\u0e35\u0e22\u0e19\u0e32","name:ti":"\u12e8\u1348\u1228\u1295\u1233\u12ed \u1309\u12ca\u12a0\u1293","name:ks":"\u0641\u0631\u065b\u0627\u0646\u0633\u0650\u0633\u06cc \u06af\u0650\u0627\u0646\u0627","name:to":"Falanise Kuiana","name:sv":"Franska Guyana","name:or":"\u0b2b\u0b4d\u0b30\u0b47\u0b1e\u0b4d\u0b1a \u0b17\u0b41\u0b07\u0b28\u0b3e","name:pl":"Gujana Francuska","name:ta":"\u0b83\u0baa\u0bcd\u0bb0\u0bc6\u0ba9\u0bcd\u0b9a\u0bcd \u0b95\u0baf\u0bbe\u0ba9\u0bbe","name:ca":"Guaiana Francesa","name:te":"\u0c2b\u0c4d\u0c30\u0c46\u0c02\u0c1a\u0c4d \u0c17\u0c3f\u0c2f\u0c3e\u0c28\u0c3e","name:hu":"Francia Guyana","name:ro":"Guyana Francez\u0103","name:hr":"Francuska Gvajana","name:da":"Fransk Guyana","name:de":"Franz\u00f6sisch-Guayana","name:dz":"\u0f42\u0f74\u0f60\u0f72\u0f0b\u0f61\u0f0b\u0f53\u0f0b \u0f55\u0fb2\u0f53\u0f66\u0f84\u0f0b\u0f58\u0f44\u0f60\u0f0b\u0f41\u0f7c\u0f44\u0f66","source":"openstreetmap.org","name:lv":"Fran\u010du Gvi\u0101na","name:lt":"Pranc\u016bzijos Gviana","name:hi":"\u092b\u093c\u094d\u0930\u093e\u0902\u0938\u0940\u0938\u0940 \u0917\u093f\u0906\u0928\u093e","name:he":"\u05d2\u05d9\u05d0\u05e0\u05d4 \u05d4\u05e6\u05e8\u05e4\u05ea\u05d9\u05ea","kind":"region","name:ur":"\u0641\u0631\u06cc\u0646\u0686 \u06af\u06cc\u0627\u0646\u0627","name:la":"Guiana Francica","name:lg":"Guyana enfalansa","name:uk":"\u0424\u0440\u0430\u043d\u0446\u0443\u0437\u044c\u043a\u0430 \u0413\u0432\u0456\u0430\u043d\u0430","name:li":"Frans Guyana","name:ln":"Giyan\u025b ya Fal\u00e1ns\u025b","name:lo":"\u0ec0\u0e9f\u0eb1\u0e99\u0eaa\u0e81\u0eb4\u0ea7\u0e99\u0eb2","population":237549,"name:el":"\u0393\u03b1\u03bb\u03bb\u03b9\u03ba\u03ae \u0393\u03bf\u03c5\u03b9\u03ac\u03bd\u03b1","name:eo":"Gujano","name:en":"French Guiana","name":"Guyane","name:ee":"Frentsi Gayana nutome","min_zoom":4.0,"name:gu":"\u0aab\u0acd\u0ab0\u0ac7\u0a82\u0a9a \u0a97\u0aaf\u0abe\u0aa8\u0abe","name:eu":"Guyana Frantsesa","name:et":"Prantsuse Guajaana","name:nl":"Frans-Guyana","name:es":"Guayana Francesa","name:ia":"Guyana francese","name:rm":"Guyana Franzosa","name:rn":"Gwayana y'Abafaransa","name:az":"Frans\u0131z Quyanas\u0131","name:id":"Guyana Perancis","name:ms":"French Guiana","name:mr":"\u092b\u094d\u0930\u0947\u0902\u091a \u0917\u092f\u093e\u0928\u093e","name:ar":"\u063a\u064a\u0627\u0646\u0627","name:my":"\u1015\u103c\u1004\u103a\u101e\u1005\u103a \u1002\u102e\u101a\u102c\u1014\u102c","int_name":"French Guiana","name:is":"Franska Gv\u00e6jana","name:am":"\u12e8\u1348\u1228\u1295\u1233\u12ed \u1309\u12ca\u12a0\u1293","name:it":"Guyana francese","name:vi":"Guyane thu\u1ed9c Ph\u00e1p","name:ru":"\u0424\u0440\u0430\u043d\u0446\u0443\u0437\u0441\u043a\u0430\u044f \u0413\u0432\u0438\u0430\u043d\u0430","name:mn":"\u0424\u0440\u0430\u043d\u0446 \u0413\u0432\u0438\u0430\u043d\u0430","id":313753808,"name:mk":"\u0424\u0440\u0430\u043d\u0446\u0443\u0441\u043a\u0430 \u0413\u0432\u0430\u0458\u0430\u043d\u0430","name:af":"Frans-Guyana","name:zu":"isi-French Guiana","name:ha":"Gini Ta Faransa","name:nn":"Fransk Guyana","name:ff":"Giyaan Farayse","kind_detail":"state","name:no":"Fransk Guyana","name:mg":"Guyana frantsay","name:fo":"Fransk Gujana","name:fy":"Fr\u00e2nsk Guyana","name:zh":"\u6cd5\u5c5e\u572d\u4e9a\u90a3","name:so":"French Guiana","name:sn":"French Guiana","name:sl":"Francoska Gvajana","name:sk":"Franc\u00fazska Guyana","name:ja":"\u4ecf\u9818\u30ae\u30a2\u30ca","name:si":"\u0db4\u0dca\u200d\u0dbb\u0d82\u0dc1 \u0d9c\u0dba\u0db1\u0dcf\u0dc0","alt_name:ru":"\u0424\u0440\u0430\u043d\u0446\u0443\u0437\u0441\u043a\u0430\u044f \u0413\u0432\u0438\u0430\u043d\u0430","name:sg":"G\u00fcy\u00e2ni t\u00ee far\u00e2nzi","name:se":"Frankriikka Guayana","name:ne":"\u092b\u094d\u0930\u093e\u0928\u094d\u0938\u0947\u0932\u0940 \u0917\u093e\u092f\u0928\u093e","name:br":"Gwiana c\u2019hall","name:bs":"Francuska Gvajana","name:bm":"Faransi ka gwiyani","name:bn":"\u09ab\u09b0\u09be\u09b8\u09c0 \u0997\u09be\u09af\u09bc\u09be\u09a8\u09be","name:ml":"\u0d2b\u0d4d\u0d30\u0d1e\u0d4d\u0d1a\u0d4d \u0d17\u0d2f\u0d3e\u0d28","name:sw":"Gwiyana ya Ufaransa","name:be":"\u0424\u0440\u0430\u043d\u0446\u0443\u0437\u0441\u043a\u0430\u044f \u0413\u0432\u0456\u044f\u043d\u0430","name:bg":"\u0424\u0440\u0435\u043d\u0441\u043a\u0430 \u0413\u0432\u0438\u0430\u043d\u0430","name:sr":"\u0424\u0440\u0430\u043d\u0446\u0443\u0441\u043a\u0430 \u0413\u0432\u0430\u0458\u0430\u043d\u0430","name:ga":"Gu\u00e1in na Fraince","name:gd":"Guiana Fhrangach","name:gl":"G\u00fciana Francesa","name:fa":"\u06af\u0648\u06cc\u0627\u0646 \u0641\u0631\u0627\u0646\u0633\u0647","name:yo":"Or\u00edl\u1eb9\u0301\u00e8de Firen\u1e63i Guana","name:ak":"Fr\u025bnkye Gayana","name:fi":"Ranskan Guayana","name:tt":"\u0424\u0440\u0430\u043d\u0446\u0443\u0437 \u0413\u0432\u0438\u0430\u043d\u0430\u0441\u044b"},"coordinates":[637,1742]},{"type":"Point","properties":{"source":"naturalearthdata.com","kind":"locality","name":"Cayenne","population":61550,"min_zoom":5.0,"id":6970},"coordinates":[1613,3099]},{"type":"Point","properties":{"source":"naturalearthdata.com","kind":"locality","name":"Vila Velha","population":1209091,"min_zoom":6.0,"id":6076},"coordinates":[3234,592]},{"type":"Point","properties":{"source":"naturalearthdata.com","kind":"locality","name":"Kourou","population":24029,"min_zoom":6.0,"id":5901},"coordinates":[1147,3430]},{"type":"Point","properties":{"source":"naturalearthdata.com","kind":"locality","name":"Saint-Georges","population":2742,"min_zoom":7.0,"id":3347},"coordinates":[2370,1605]},{"type":"Point","properties":{"source":"naturalearthdata.com","kind":"locality","name":"Iracoubo","population":1536,"min_zoom":7.0,"id":3828},"coordinates":[317,3898]}]},"transit":{"type":"GeometryCollection","geometries":[]},"pois":{"type":"GeometryCollection","geometries":[{"type":"Point","properties":{"kind":"nature_reserve","tier":2,"protect_class":"24","area":438526000,"source":"openstreetmap.org","min_zoom":7.9,"operator":"Funda\u00e7\u00e3o Nacional do \u00cdndio","id":-3811334,"osm_relation":true,"name":"Terra Ind\u00edgena Jumina"},"coordinates":[2717,1819]},{"type":"Point","properties":{"kind":"nature_reserve","tier":2,"protect_class":"24","area":4719190000,"source":"openstreetmap.org","min_zoom":6.19,"operator":"Funda\u00e7\u00e3o Nacional do \u00cdndio","id":-3811201,"osm_relation":true,"name":"Terra Ind\u00edgena Ua\u00e7a"},"coordinates":[2835,1090]},{"type":"Point","properties":{"kind":"nature_reserve","tier":2,"protect_class":"2","area":6637970000,"source":"openstreetmap.org","min_zoom":5.94,"operator":"Instituto Chico Mendes de Conserva\u00e7\u00e3o da Biodiversidade","id":-3425637,"osm_relation":true,"name":"Parque Nacional do Cabo Orange"},"coordinates":[3368,1257]},{"type":"Point","properties":{"kind":"protected_area","name":"Aire d'adh\u00e9sion du Parc amazonien de Guyane","area":1718080000,"source":"openstreetmap.org","min_zoom":7.0,"tier":2,"id":-1106415,"osm_relation":true},"coordinates":[269,1626]},{"type":"Point","properties":{"kind":"nature_reserve","name":"R\u00e9serve Naturelle de La Trinit\u00e9","area":778568000,"source":"openstreetmap.org","min_zoom":7.49,"tier":2,"id":-1106389,"osm_relation":true},"coordinates":[184,2571]},{"type":"Point","properties":{"kind":"nature_reserve","name":"R\u00e9serve Naturelle des marais de Kaw-Roura","area":927812000,"source":"openstreetmap.org","min_zoom":7.36,"tier":2,"id":-1106387,"osm_relation":true},"coordinates":[1909,2626]},{"type":"Point","properties":{"kind":"nature_reserve","name":"R\u00e9serve Naturelle des Nouragues","area":1074620000,"source":"openstreetmap.org","min_zoom":7.26,"tier":2,"id":-1106386,"osm_relation":true},"coordinates":[993,1824]},{"type":"Point","properties":{"kind":"protected_area","protect_class":"5","area":3419780000,"source":"openstreetmap.org","min_zoom":7.0,"tier":2,"id":-1105270,"osm_relation":true,"name":"Parc naturel r\u00e9gional de Guyane"},"coordinates":[1378,2488]}]},"boundaries":{"type":"GeometryCollection","geometries":[{"type":"MultiLineString","properties":{"source":"naturalearthdata.com","kind":"country","sort_rank":262,"kind_detail":"2","min_zoom":0.0,"id":132},"arcs":[[0],[1],[2],[3],[4]]}]},"roads":{"type":"GeometryCollection","geometries":[{"type":"MultiLineString","properties":{"source":"naturalearthdata.com","kind":"major_road","kind_detail":"secondary","sort_rank":379,"landuse_kind":"protected_area","min_zoom":3.0,"id":40178},"arcs":[[8],[9],[10],[11],[12]]},{"type":"MultiLineString","properties":{"source":"naturalearthdata.com","kind":"major_road","sort_rank":379,"kind_detail":"secondary","min_zoom":3.0,"id":40178},"arcs":[[13],[14],[15],[16]]},{"type":"LineString","properties":{"source":"naturalearthdata.com","kind":"major_road","kind_detail":"secondary","sort_rank":379,"landuse_kind":"protected_area","min_zoom":3.0,"id":40254},"arcs":[17]},{"type":"LineString","properties":{"source":"naturalearthdata.com","kind":"major_road","sort_rank":379,"kind_detail":"secondary","min_zoom":3.0,"id":40254},"arcs":[18]},{"type":"LineString","properties":{"source":"naturalearthdata.com","kind":"minor_road","sort_rank":355,"kind_detail":"tertiary","min_zoom":6.0,"id":40293},"arcs":[19]},{"type":"LineString","properties":{"source":"naturalearthdata.com","kind":"major_road","sort_rank":379,"kind_detail":"secondary","min_zoom":3.0,"id":40294},"arcs":[20]},{"type":"LineString","properties":{"source":"naturalearthdata.com","kind":"major_road","sort_rank":379,"kind_detail":"secondary","min_zoom":3.0,"id":40312},"arcs":[21]},{"type":"LineString","properties":{"source":"naturalearthdata.com","kind":"major_road","kind_detail":"secondary","sort_rank":379,"landuse_kind":"urban_area","min_zoom":3.0,"id":40350},"arcs":[22]},{"type":"MultiLineString","properties":{"source":"naturalearthdata.com","kind":"major_road","sort_rank":379,"kind_detail":"secondary","min_zoom":3.0,"id":40350},"arcs":[[23],[24]]},{"type":"LineString","properties":{"source":"naturalearthdata.com","kind":"major_road","sort_rank":379,"kind_detail":"secondary","min_zoom":3.0,"id":40351},"arcs":[25]},{"type":"LineString","properties":{"source":"naturalearthdata.com","kind":"major_road","sort_rank":379,"kind_detail":"secondary","min_zoom":3.0,"id":40385},"arcs":[26]},{"type":"LineString","properties":{"source":"naturalearthdata.com","kind":"major_road","sort_rank":379,"kind_detail":"secondary","min_zoom":3.0,"id":40394},"arcs":[27]},{"type":"LineString","properties":{"source":"naturalearthdata.com","kind":"major_road","kind_detail":"secondary","sort_rank":379,"landuse_kind":"protected_area","min_zoom":3.0,"id":40441},"arcs":[28]},{"type":"LineString","properties":{"source":"naturalearthdata.com","kind":"major_road","sort_rank":379,"kind_detail":"secondary","min_zoom":3.0,"id":40441},"arcs":[29]},{"type":"LineString","properties":{"source":"naturalearthdata.com","kind":"major_road","kind_detail":"secondary","sort_rank":379,"landuse_kind":"nature_reserve","min_zoom":3.0,"id":40966},"arcs":[30]},{"type":"MultiLineString","properties":{"source":"naturalearthdata.com","kind":"major_road","sort_rank":379,"kind_detail":"secondary","min_zoom":3.0,"id":40966},"arcs":[[31],[32]]}]},"earth":{"type":"GeometryCollection","geometries":[{"type":"MultiPolygon","properties":{"sort_rank":10,"source":"naturalearthdata.com","min_zoom":0.0,"kind":"earth","area":351733642987},"arcs":[[[33]]]}]},"landuse":{"type":"GeometryCollection","geometries":[{"type":"MultiPolygon","properties":{"kind":"nature_reserve","protect_class":"2","area":44752042871,"sort_rank":23,"operator":"Instituto Chico Mendes de Conserva\u00e7\u00e3o da Biodiversidade","source":"openstreetmap.org","min_zoom":4.0,"tier":2,"osm_relation":true},"arcs":[[[34]],[[35]]]},{"type":"MultiPolygon","properties":{"source":"openstreetmap.org","kind":"nature_reserve","tier":2,"area":1694814421,"sort_rank":23,"min_zoom":6.0,"osm_relation":true},"arcs":[[[36]],[[37]]]},{"type":"MultiPolygon","properties":{"source":"openstreetmap.org","kind":"protected_area","tier":2,"area":13704779444,"sort_rank":17,"min_zoom":4.0,"osm_relation":true},"arcs":[[[38]],[[39]],[[40]],[[41]],[[42]]]},{"type":"Polygon","properties":{"kind":"nature_reserve","protect_class":"24","area":438526016,"sort_rank":23,"operator":"Funda\u00e7\u00e3o Nacional do \u00cdndio","source":"openstreetmap.org","min_zoom":6.0,"tier":2,"id":-3811334,"osm_relation":true},"arcs":[[43]]},{"type":"MultiPolygon","properties":{"kind":"nature_reserve","protect_class":"24","area":56123592210,"sort_rank":23,"operator":"Funda\u00e7\u00e3o Nacional do \u00cdndio","source":"openstreetmap.org","min_zoom":4.0,"tier":2,"osm_relation":true},"arcs":[[[44]]]},{"type":"MultiPolygon","properties":{"source":"openstreetmap.org","kind":"nature_reserve","tier":2,"area":7657234960,"sort_rank":23,"min_zoom":4.0,"osm_relation":true},"arcs":[[[45]]]},{"type":"MultiPolygon","properties":{"source":"openstreetmap.org","kind":"park","tier":2,"area":19622329462,"sort_rank":24,"min_zoom":4.0,"osm_relation":true},"arcs":[[[46]],[[47]]]},{"type":"MultiPolygon","properties":{"source":"naturalearthdata.com","kind":"urban_area","name":"","area":116541844,"sort_rank":11,"min_zoom":4.0},"arcs":[[[48]]]},{"type":"MultiPolygon","properties":{"kind":"protected_area","protect_class":"5","area":6089524378,"sort_rank":17,"source":"openstreetmap.org","min_zoom":4.0,"tier":2,"osm_relation":true},"arcs":[[[49]],[[50]],[[51]]]}]}},"type":"Topology","transform":{"translate":[-53.4375,2.8113711933],"scale":[0.0006866455,0.0006847204]},"arcs":[[[2158,1333],[10,1],[13,13],[3,13],[-5,31],[4,14],[11,12],[46,22],[93,103],[25,35],[18,38],[12,48],[21,45],[37,32],[109,53]],[[2147,1335],[11,-2]],[[1728,630],[19,10],[15,15],[196,324],[1,12],[-2,14],[0,11],[28,14],[12,18],[17,41],[61,91],[14,34],[11,62],[10,28],[23,25],[14,6]],[[1705,633],[11,-2],[12,-1]],[[1396,0],[34,78],[10,14],[10,10],[12,8],[16,6],[19,10],[-2,12],[-10,14],[-6,18],[8,22],[92,169],[3,11],[-14,63],[-1,33],[9,29],[52,38],[30,70],[29,25],[18,3]],[[4096,4096],[0,-4096],[-441,0],[-9,4],[-15,12],[-6,21],[-2,16],[6,23],[2,17],[-11,21],[-18,39],[-23,33],[-9,29],[-4,32],[-12,37],[-10,25],[-19,18],[-3,32],[8,22],[-7,29],[-22,51],[-10,35],[18,45],[-12,69],[-82,215],[-6,106],[23,58],[2,5],[-7,146],[-8,194],[14,230],[-19,36],[-34,-1],[-29,-56],[-18,-60],[-10,-130],[-26,-97],[-4,-34],[-31,75],[25,153],[2,176],[0,147],[-11,78],[-55,126],[-108,137],[-132,146],[-93,63],[-55,38],[-37,19],[-31,-13],[-15,-15],[-18,-77],[-1,-18],[21,-149],[70,-218],[51,-107],[41,-68],[10,-41],[-12,-41],[-21,60],[-89,160],[-39,101],[-19,85],[-11,24],[-18,17],[-20,-3],[-16,-26],[1,-85],[-52,-131],[-29,-29],[-46,-13],[16,32],[29,89],[5,44],[-3,55],[-9,40],[-18,36],[-57,86],[-9,23],[-3,25],[7,30],[13,14],[13,11],[6,20],[-11,12],[-24,3],[-25,6],[-11,20],[-7,23],[-2,12],[4,-1],[7,6],[6,11],[3,14],[-24,0],[-15,30],[-8,41],[-2,34],[-13,33],[-39,55],[11,17],[-12,17],[-69,63],[-24,13],[-23,4],[-23,-4],[-18,-13],[-24,-44],[-8,-52],[12,-209],[-3,-26],[-14,-40],[-3,-15],[-22,-31],[-49,-26],[-89,-28],[38,49],[46,27],[39,33],[16,67],[-7,58],[-35,113],[-7,59],[-17,60],[-41,60],[-52,54],[-50,40],[-95,55],[-14,21],[-10,28],[-24,30],[-30,25],[-27,12],[-16,-28],[-63,-39],[-21,-23],[-12,-38],[-8,-37],[-4,-10],[-11,-11],[-10,-14],[-4,-20],[-9,0],[-4,54],[43,72],[54,71],[26,48],[-8,30],[-22,27],[-30,20],[-35,8],[-31,-11],[-37,-52],[-27,-17],[13,60],[-32,54],[-113,96],[-37,21],[-7,1],[-17,-3],[-8,2],[-1,6],[1,10],[1,9],[-5,4],[-16,8],[-205,192],[-104,83],[-44,72],[-67,37],[-98,93],[-100,56],[-43,20],[-10,1],[-6,-11],[-59,13],[-53,18],[-70,48],[-36,13],[-33,15],[-63,18],[-44,18],[-29,17],[-14,2],[-15,-10],[3,-9],[9,2],[27,-6],[30,-24],[27,-18],[26,-5],[-1,-17],[-32,-10],[-26,21],[-23,29],[-20,12],[-37,-4],[-49,13],[-104,26],[-43,-1],[0,80],[4096,0]],[[3434,994],[-25,-63],[6,-106],[82,-215],[12,-69],[-18,-45],[10,-35],[22,-51],[7,-29],[-8,-22],[3,-32],[19,-18],[10,-25],[12,-37],[4,-32],[9,-29],[23,-33],[18,-39],[11,-21],[-2,-17],[-6,-23],[2,-16],[6,-21],[15,-12],[9,-4]],[[0,4016],[43,1],[104,-26],[49,-13],[37,4],[20,-12],[23,-29],[26,-21],[32,10],[1,17],[-26,5],[-27,18],[-30,24],[-27,6],[-9,-2],[-3,9],[15,10],[14,-2],[29,-17],[44,-18],[63,-18],[33,-15],[36,-13],[70,-48],[53,-18],[59,-13],[6,11],[10,-1],[43,-20],[100,-56],[98,-93],[67,-37],[44,-72],[104,-83],[205,-192],[16,-8],[5,-4],[-1,-9],[-1,-10],[1,-6],[8,-2],[17,3],[7,-1],[37,-21],[113,-96],[32,-54],[-13,-60],[27,17],[37,52],[31,11],[35,-8],[30,-20],[22,-27],[8,-30],[-26,-48],[-54,-71],[-43,-72],[4,-54],[9,0],[4,20],[10,14],[11,11],[4,10],[8,37],[12,38],[21,23],[63,39],[16,28],[27,-12],[30,-25],[24,-30],[10,-28],[14,-21],[95,-55],[50,-40],[52,-54],[41,-60],[17,-60],[7,-59],[35,-113],[7,-58],[-16,-67],[-39,-33],[-46,-27],[-38,-49],[89,28],[49,26],[22,31],[3,15],[14,40],[3,26],[-12,209],[8,52],[24,44],[18,13],[23,4],[23,-4],[24,-13],[69,-63],[12,-17],[-11,-17],[39,-55],[13,-33],[2,-34],[8,-41],[15,-30],[24,0],[-3,-14],[-6,-11],[-7,-6],[-4,1],[2,-12],[7,-23],[11,-20],[25,-6],[24,-3],[11,-12],[-6,-20],[-13,-11],[-13,-14],[-7,-30],[3,-25],[9,-23],[57,-86],[18,-36],[9,-40],[3,-55],[-5,-44],[-29,-89],[-16,-32],[46,13],[29,29],[52,131],[-1,85],[16,26],[20,3],[18,-17],[11,-24],[19,-85],[39,-101],[89,-160],[21,-60],[12,41],[-10,41],[-41,68],[-51,107],[-70,218],[-21,149],[1,18],[18,77],[15,15],[31,13],[37,-19],[55,-38],[93,-63],[132,-146],[108,-137],[55,-126],[11,-78],[0,-147],[-2,-176],[-25,-153],[31,-75],[4,34],[26,97],[10,130],[18,60],[29,56],[34,1],[19,-36],[-14,-230],[8,-194],[7,-146]],[[6,3985],[-6,2]],[[185,3921],[-46,18],[-48,24],[-57,12]],[[262,3903],[-28,0]],[[293,3915],[-4,0],[-13,-7]],[[668,3771],[-72,54],[-25,6],[-72,6],[-30,6],[-150,72],[-15,0]],[[34,3975],[-3,0],[-25,10]],[[234,3903],[-5,0],[-44,18]],[[276,3908],[-11,-5],[-3,0]],[[304,3915],[-11,0]],[[760,3708],[-44,38],[-48,25]],[[1100,3439],[-72,54],[-48,37],[-84,72],[-54,54],[-78,48],[-4,4]],[[1298,3295],[-90,54],[-60,54],[-24,42],[-24,-6]],[[1298,3295],[-24,-6],[-30,12],[-60,54],[-60,42],[-24,42]],[[1406,3216],[-54,37],[-30,12],[-24,30]],[[1613,3100],[4,-16]],[[1617,3084],[-12,-36]],[[1611,3114],[2,-14]],[[1605,3048],[-96,54],[-31,24],[-24,24],[-48,66]],[[1605,3048],[0,-54],[-24,-31],[-24,-36]],[[1557,2927],[-79,-30],[-6,-12]],[[1472,2867],[0,-24],[12,-36],[49,-36],[12,-18],[30,-61]],[[1472,2885],[0,-18]],[[2484,845],[4,-14],[48,-30],[42,-36],[72,-72],[66,-79],[72,-102],[18,-30],[8,-13]],[[2319,1482],[12,-12],[30,-12],[6,-13],[6,-72],[12,-60],[18,-30],[0,-42],[-12,-73],[6,-72],[31,-72],[30,-42],[12,-49],[6,-60],[8,-28]],[[2814,469],[40,-66],[30,-48],[24,-42],[24,-60],[6,-60],[0,-109],[-5,-84]],[[3655,0],[-3655,0],[0,4016],[43,1],[104,-26],[49,-13],[37,4],[20,-12],[23,-29],[26,-21],[32,10],[1,17],[-26,5],[-27,18],[-30,24],[-27,6],[-9,-2],[-3,9],[15,10],[14,-2],[29,-17],[44,-18],[63,-18],[33,-15],[36,-13],[70,-48],[53,-18],[59,-13],[6,11],[10,-1],[43,-20],[100,-56],[98,-93],[67,-37],[44,-72],[104,-83],[205,-192],[16,-8],[5,-4],[-1,-9],[-1,-10],[1,-6],[8,-2],[17,3],[7,-1],[37,-21],[113,-96],[32,-54],[-13,-60],[27,17],[37,52],[31,11],[35,-8],[30,-20],[22,-27],[8,-30],[-26,-48],[-54,-71],[-43,-72],[4,-54],[9,0],[4,20],[10,14],[11,11],[4,10],[8,37],[12,38],[21,23],[63,39],[16,28],[27,-12],[30,-25],[24,-30],[10,-28],[14,-21],[95,-55],[50,-40],[52,-54],[41,-60],[17,-60],[7,-59],[35,-113],[7,-58],[-16,-67],[-39,-33],[-46,-27],[-38,-49],[89,28],[49,26],[22,31],[3,15],[14,40],[3,26],[-12,209],[8,52],[24,44],[18,13],[23,4],[23,-4],[24,-13],[69,-63],[12,-17],[-11,-17],[39,-55],[13,-33],[2,-34],[8,-41],[15,-30],[24,0],[-3,-14],[-6,-11],[-7,-6],[-4,1],[2,-12],[7,-23],[11,-20],[25,-6],[24,-3],[11,-12],[-6,-20],[-13,-11],[-13,-14],[-7,-30],[3,-25],[9,-23],[57,-86],[18,-36],[9,-40],[3,-55],[-5,-44],[-29,-89],[-16,-32],[46,13],[29,29],[52,131],[-1,85],[16,26],[20,3],[18,-17],[11,-24],[19,-85],[39,-101],[89,-160],[21,-60],[12,41],[-10,41],[-41,68],[-51,107],[-70,218],[-21,149],[1,18],[18,77],[15,15],[31,13],[37,-19],[55,-38],[93,-63],[132,-146],[108,-137],[55,-126],[11,-78],[0,-147],[-2,-176],[-25,-153],[31,-75],[4,34],[26,97],[10,130],[18,60],[29,56],[34,1],[19,-36],[-14,-230],[8,-194],[7,-146],[-2,-5],[-23,-58],[6,-106],[53,-139],[29,-76],[12,-69],[-18,-45],[10,-35],[22,-51],[7,-29],[-8,-22],[3,-32],[19,-18],[10,-25],[12,-37],[4,-32],[9,-29],[23,-33],[18,-39],[11,-21],[-2,-17],[-6,-23],[2,-16],[6,-21],[15,-12],[9,-4]],[[2152,0],[-725,0],[48,107],[71,50],[-27,12],[3,30],[97,192],[-37,75],[30,60],[45,9],[11,72],[44,38],[37,-20],[68,87],[190,325],[49,-69],[4,-88],[-28,-48],[41,-142],[-2,-99],[-26,-27],[15,-144],[-22,-23],[102,-221],[-11,-73],[23,-103]],[[3672,0],[-139,0],[-129,70],[-63,-32],[-115,15],[-4,-16],[-40,-20],[0,435],[41,53],[-27,-4],[-13,51],[18,34],[16,-27],[8,31],[48,24],[-210,0],[185,351],[-63,227],[-16,182],[-90,65],[-153,319],[-51,-23],[-100,209],[-59,296],[15,107],[36,33],[-2,113],[160,-39],[306,-294],[144,-202],[46,-229],[68,-18],[66,-70],[18,-117],[-23,-201],[23,-354],[-15,-79],[87,-289],[-10,-100],[63,-248],[62,-117],[3,-133],[-91,-3]],[[5,2507],[38,116],[-26,41],[27,78],[-36,15],[20,18],[235,48],[56,-15],[63,-73],[-2,-96],[-50,-61],[18,-106],[-61,-76],[3,-31],[-54,-39],[-42,0],[-79,65],[-62,115],[-48,1]],[[1657,2679],[41,86],[74,25],[79,147],[23,-9],[52,-68],[171,-93],[10,-120],[70,-173],[3,-135],[-18,-3],[-6,109],[-92,29],[-45,-11],[21,-115],[-179,0],[-67,-35],[-6,30],[41,57],[-17,53],[-23,-9],[9,53],[59,-57],[41,31],[34,-8],[-10,40],[95,-35],[-17,25],[-78,13],[21,48],[-41,45],[-70,11],[-60,-40],[-115,109]],[[1427,0],[-34,0],[60,132],[41,27],[23,77],[-118,87],[-29,129],[9,68],[-46,17],[-18,-32],[-63,-13],[-15,-38],[-33,1],[-20,34],[-25,-60],[-64,4],[-18,-38],[-60,0],[-6,21],[67,44],[65,4],[28,49],[127,19],[25,38],[65,-18],[68,110],[169,-29],[64,57],[51,1],[94,116],[131,243],[46,51],[28,-4],[-222,-385],[-68,-87],[-37,20],[-44,-38],[-15,-79],[-43,-5],[-31,-63],[38,-81],[-95,-180],[-3,-30],[27,-12],[-71,-50],[-48,-107]],[[0,592],[0,172],[42,-34],[4,-75],[-46,-63]],[[0,62],[0,433],[233,-143],[37,-95],[-109,-3],[-161,-192]],[[0,2046],[0,132],[42,0],[78,87],[17,-46],[39,-4],[15,-29],[-15,-83],[35,6],[51,-33],[-104,-81],[-49,37],[-77,-8],[-32,22]],[[0,1794],[0,73],[78,-19],[96,-63],[36,22],[27,90],[95,46],[-46,-62],[3,-58],[43,-39],[59,-168],[50,-49],[-144,-119],[137,-149],[4,-135],[41,12],[27,-20],[-21,-20],[2,-63],[-61,-87],[-53,32],[-28,71],[-44,-5],[-181,64],[-93,73],[-14,71],[48,-29],[4,28],[106,-5],[-91,45],[-18,66],[-62,-6],[0,24],[182,4],[67,35],[-4,32],[-59,13],[25,31],[-29,6],[-38,68],[23,41],[-11,38],[-61,30],[-54,78],[-41,3]],[[2530,1639],[14,40],[48,-8],[67,88],[-47,87],[62,145],[-6,82],[24,20],[30,-24],[46,-148],[100,-190],[-332,-182],[-6,90]],[[2410,1107],[12,236],[53,42],[-29,63],[41,77],[439,233],[153,-319],[90,-65],[16,-182],[72,-48],[-17,-209],[-120,-367],[-68,-75],[-236,-23],[-63,-47],[-122,39],[-108,152],[-18,-13],[-76,211],[67,40],[7,97],[-93,158]],[[712,1795],[5,61],[46,14],[-1,51],[80,40],[21,44],[201,68],[20,28],[43,14],[45,-105],[68,8],[28,-23],[-16,-27],[19,-129],[-27,-48],[36,-78],[-167,-37],[-37,-83],[-49,-9],[-42,-50],[-65,80],[-24,63],[14,25],[-85,76],[-113,17]],[[0,764],[0,627],[62,6],[18,-66],[89,-40],[-104,0],[-4,-28],[-52,27],[18,-69],[45,-51],[229,-86],[36,10],[49,-92],[43,-16],[26,-76],[-54,-44],[9,-80],[-27,-53],[43,-56],[45,-14],[30,-90],[39,139],[106,10],[144,-48],[58,0],[68,36],[66,-54],[-19,-46],[16,-28],[117,-28],[111,118],[-41,41],[-8,53],[129,41],[1,169],[82,23],[61,-38],[48,9],[25,-85],[49,6],[25,-25],[93,42],[81,107],[27,-12],[84,38],[41,57],[107,3],[-271,-410],[-51,-1],[-64,-57],[-169,29],[-68,-110],[-65,18],[-25,-38],[-127,-19],[-28,-49],[-65,-4],[-68,-46],[68,-19],[17,38],[64,-4],[25,60],[20,-34],[34,-1],[14,38],[93,41],[34,-13],[-9,-68],[29,-129],[118,-87],[-116,-236],[-1401,0],[0,72],[161,182],[97,-7],[9,29],[-34,76],[-233,143],[0,97],[46,63],[-4,75],[-42,34]],[[0,1867],[0,172],[32,-15],[72,10],[54,-39],[104,81],[-90,32],[19,78],[-15,29],[-39,4],[-17,46],[15,109],[85,-53],[102,99],[87,-94],[71,-159],[69,-83],[123,-88],[24,-88],[-18,-118],[-33,-51],[-77,-54],[-33,8],[-128,-96],[-75,187],[-49,61],[49,98],[-95,-46],[-27,-90],[-36,-22],[-96,63],[-78,19]],[[1689,3040],[-81,49],[12,27],[61,-22],[8,-54]],[[2077,1873],[20,57],[63,35],[53,-44],[42,50],[68,-7],[50,33],[-4,27],[-61,20],[-15,308],[166,36],[-10,-34],[35,-38],[59,-6],[-41,-89],[81,-124],[-1,-59],[12,29],[31,-37],[-38,-114],[4,-103],[-174,-115],[-17,-101],[-52,5],[-24,4],[-50,102],[-127,33],[-41,122],[-29,10]],[[845,2333],[27,42],[52,14],[20,91],[55,51],[18,71],[58,27],[48,98],[64,60],[74,-11],[150,-78],[65,179],[5,-22],[52,-18],[22,18],[47,-41],[82,158],[41,-11],[37,26],[41,-12],[48,-60],[-17,-155],[-59,-45],[-25,-75],[28,-70],[68,-36],[-56,-51],[35,-97],[-37,-45],[5,-29],[-46,20],[-63,-77],[-15,33],[-42,3],[23,-27],[-80,-119],[-33,6],[-79,-71],[-98,6],[-63,-44],[-24,-54],[-33,30],[-69,-7],[-44,104],[-213,-86],[-31,120],[22,31],[-60,153]],[[0,3987],[0,26],[234,-25],[43,-40],[11,10],[-77,44],[33,18],[205,-84],[82,-62],[81,-10],[36,-40],[40,-22],[5,-36],[2,34],[-65,68],[87,-9],[78,-74],[-9,-56],[-45,-36],[-90,68],[-50,-21],[-72,-223],[-74,101],[50,111],[2,95],[-208,94],[-50,-20],[-249,89]]]}