{"objects":{"water":{"type":"GeometryCollection","geometries":[{"type":"Polygon","properties":{"source":"naturalearthdata.com","kind":"ocean","area":1576712559132672,"sort_rank":200,"min_zoom":0.0,"id":1},"arcs":[[0],[1],[2],[3],[4],[5],[6]]},{"type":"LineString","properties":{"source":"naturalearthdata.com","kind":"ocean","sort_rank":205,"boundary":true,"min_zoom":0.0,"id":1386},"arcs":[7]},{"type":"LineString","properties":{"source":"naturalearthdata.com","kind":"ocean","sort_rank":205,"boundary":true,"min_zoom":0.0,"id":1387},"arcs":[8]},{"type":"MultiLineString","properties":{"source":"naturalearthdata.com","kind":"ocean","sort_rank":205,"boundary":true,"min_zoom":0.0,"id":1388},"arcs":[[9],[10]]},{"type":"MultiLineString","properties":{"source":"naturalearthdata.com","kind":"ocean","sort_rank":205,"boundary":true,"min_zoom":0.0,"id":1389},"arcs":[[11],[12]]},{"type":"LineString","properties":{"source":"naturalearthdata.com","kind":"ocean","sort_rank":205,"boundary":true,"min_zoom":0.0,"id":1391},"arcs":[13]},{"type":"LineString","properties":{"source":"naturalearthdata.com","kind":"ocean","sort_rank":205,"boundary":true,"min_zoom":0.0,"id":1392},"arcs":[14]},{"type":"LineString","properties":{"source":"naturalearthdata.com","kind":"ocean","sort_rank":205,"boundary":true,"min_zoom":0.0,"id":1394},"arcs":[15]},{"type":"LineString","properties":{"source":"naturalearthdata.com","kind":"ocean","sort_rank":205,"boundary":true,"min_zoom":0.0,"id":4094},"arcs":[16]}]},"buildings":{"type":"GeometryCollection","geometries":[]},"places":{"type":"GeometryCollection","geometries":[{"type":"Point","properties":{"name:ka":"\u10d9\u10d0\u10d1\u10dd-\u10d5\u10d4\u10e0\u10d3\u10d4","name:mt":"Kape Verde","name:ko":"\uae4c\ubf40\ubca0\ub974\ub370","name:kn":"\u0c95\u0cc7\u0caa\u0ccd \u0cb5\u0cb0\u0ccd\u0ca1\u0cc6","name:km":"\u1780\u17b6\u1794\u179c\u17c2\u179a","name:kl":"Cap Verde","name:cs":"Kapverdy","alt_name:eo":"Kaboverdo","name:ki":"Kepuvede","name:tr":"Ye\u015fil Burun Adalar\u0131","name:ku":"Kap Verde","name:ti":"\u12ac\u1355 \u126c\u122d\u12f4","name:ks":"\u06a9\u06cc\u067e \u0624\u0631\u0691\u06cc","name:to":"Mui\u02bbi Veti","name:tl":"Kabo Berde","name:sv":"Kap Verde","name:or":"\u0b15\u0b47\u0b2a\u0b4d \u0b2d\u0b30\u0b4d\u0b26\u0b47","name:pl":"Wyspy Zielonego Przyl\u0105dka","name:ta":"\u0b95\u0bc7\u0baa\u0bcd \u0bb5\u0bc6\u0bb0\u0bcd\u0b9f\u0bc7","name:ca":"Cap Verd","name:te":"\u0c15\u0c47\u0c2a\u0c4d \u0c35\u0c46\u0c30\u0c4d\u0c21\u0c47","name:hu":"Z\u00f6ld-Fok","name:ro":"Capul Verde","name:hr":"Zelenortski Otoci","name:da":"Kap Verde","name:de":"Kap Verde","name:dz":"\u0f40\u0f7a\u0f54\u0f0b\u0f56\u0f71\u0f4c","source":"openstreetmap.org","name:lv":"Kaboverde","name:lt":"\u017daliasis Ky\u0161ulys","name:hi":"\u0915\u0948\u092a \u0935\u0930\u094d\u0921\u0947","name:he":"\u05db\u05e3 \u05d5\u05e8\u05d3\u05d4","kind":"country","name:ur":"\u06a9\u06cc\u067e \u0648\u0631\u0688\u06cc","name:lb":"Kap Verde","name:la":"Promontorium Viride","name:lg":"Bizinga by'e Kepu Veredi","name:uk":"\u041a\u0430\u0431\u043e-\u0412\u0435\u0440\u0434\u0435","name:hy":"\u053f\u0561\u0562\u0578-\u054e\u0565\u0580\u0564\u0565","min_zoom":2.0,"name:li":"Kaapverdi\u00eb","name:ln":"Bisanga bya Kapev\u025br\u025b","name:lo":"\u0ec0\u0e84\u0e9a\u0ea7\u0ead\u0e94","population":516000,"name:el":"\u03a0\u03c1\u03ac\u03c3\u03b9\u03bd\u03bf \u0391\u03ba\u03c1\u03c9\u03c4\u03ae\u03c1\u03b9\u03bf","name:eo":"Kabo-Verdo","name":"Cabo Verde","official_name":"Rep\u00fablica de Cabo Verde","name:ee":"Kape Verde nutome","name:th":"\u0e1b\u0e23\u0e30\u0e40\u0e17\u0e28\u0e40\u0e04\u0e1b\u0e40\u0e27\u0e34\u0e23\u0e4c\u0e14","name:gu":"\u0a95\u0ac5\u0aaa \u0ab5\u0ab0\u0acd\u0aa1\u0ac7","name:et":"Roheneemesaared","name:nl":"Kaapverdi\u00eb","name:yo":"Or\u00edl\u1eb9\u0301\u00e8de Et\u00edokun K\u00e1p\u00e9 f\u00e9nd\u00e8","name:ia":"Capo Verde","name:rm":"Cap Verd","name:rn":"Ibirwa bya Kapuveri","name:az":"Kape Verde","name:id":"Tanjung Verde","name:mr":"\u0915\u0947\u092a \u0935\u094d\u0939\u0930\u094d\u0921\u0947","name:ar":"\u0627\u0644\u0631\u0623\u0633 \u0627\u0644\u0623\u062e\u0636\u0631","name:io":"Kabo Verda","name:is":"Gr\u00e6nh\u00f6f\u00f0aeyjar","name:am":"\u12ac\u1355 \u126c\u122d\u12f4","name:it":"Capo Verde","name:vi":"C\u00e1p Ve","name:ru":"\u041a\u0430\u0431\u043e-\u0412\u0435\u0440\u0434\u0435","name:mn":"\u041a\u0430\u0431\u043e-\u0412\u0435\u0440\u0434\u0435","id":424311151,"name:mk":"\u0417\u0435\u043b\u0435\u043d\u043e\u0440\u0442\u0441\u043a\u0438 \u041e\u0441\u0442\u0440\u043e\u0432\u0438","name:af":"Kaap Verde","name:zu":"i-Cape Verde","name:ha":"Tsibiran Kap Barde","name:nn":"Kapp Verde","name:ff":"Duu\u0257e Kap Weer","name:fi":"Kap Verde","name:no":"Kapp Verde","name:mg":"Nosy Cap-Vert","name:fo":"Gr\u00f8nh\u00f8vdaoyggjarnar","alt_name:vi":"Cap Ve","name:fr":"Cap-Vert","name:fy":"Kaapverdje","name:vo":"Kabov\u00e4rdu\u00e4ns","name:zh":"\u4f5b\u5f97\u89d2","name:so":"Cabo Verde Islands","name:sn":"Zvitsuwa zveCape Verde","name:sl":"Zelenortski otoki","name:sk":"Kapverdy","name:ja":"\u30ab\u30fc\u30dc\u30d9\u30eb\u30c7","name:si":"\u0dc0\u0dbb\u0dca\u0da9\u0dd2 \u0d9a\u0dda\u0db4\u0dca","name:fa":"\u06a9\u06cc\u067e \u0648\u0631\u062f","name:sg":"Az\u00fb\u00e2 t\u00ee K\u00e2po-V\u00eare","name:se":"Kap Verde","name:ne":"\u0915\u0947\u092a \u092d\u0930\u094d\u0921\u0947","name:br":"Kab Glas","name:bs":"Kape Verde","name:bm":"Capiv\u025brdi","name:bn":"\u0995\u09c7\u09aa\u09ad\u09be\u09b0\u09cd\u09a6\u09c7","name:ml":"\u0d15\u0d47\u0d2a\u0d4d\u0d2a\u0d4d \u0d35\u0d46\u0d7c\u0d21\u0d46","name:sw":"Kepuvede","name:be":"\u041a\u0430\u0431\u0430-\u0412\u0435\u0440\u0434\u044d","name:bg":"\u041a\u0430\u0431\u043e \u0412\u0435\u0440\u0434\u0435","name:sr":"\u0417\u0435\u043b\u0435\u043d\u043e\u0440\u0442\u0441\u043a\u0430 \u041e\u0441\u0442\u0440\u0432\u0430","name:sq":"Kap Verde","name:ga":"Rinn Verde","name:gv":"Yn Rheynn Ghlass","name:ak":"Kepv\u025bdfo Islands","name:tt":"\u041a\u0430\u0431\u043e-\u0412\u0435\u0440\u0434\u0435"},"coordinates":[2998,3619]},{"type":"Point","properties":{"source":"naturalearthdata.com","kind":"locality","name":"Praia","country_capital":true,"population":113364,"min_zoom":5.0,"id":7101},"coordinates":[3356,2806]}]},"transit":{"type":"GeometryCollection","geometries":[]},"pois":{"type":"GeometryCollection","geometries":[]},"boundaries":{"type":"GeometryCollection","geometries":[]},"roads":{"type":"GeometryCollection","geometries":[]},"earth":{"type":"GeometryCollection","geometries":[{"type":"MultiPolygon","properties":{"sort_rank":10,"source":"naturalearthdata.com","min_zoom":0.0,"kind":"earth","area":4224788481},"arcs":[[[17]],[[18]],[[19]],[[20]],[[21]],[[22]],[[23]]]}]},"landuse":{"type":"GeometryCollection","geometries":[]}},"type":"Topology","transform":{"translate":[-28.125,11.1784018737],"scale":[0.001373291,0.0013324683]},"arcs":[[[4096,0],[-4096,0],[0,4096],[2691,0],[3,-14],[12,-13],[17,-5],[7,-1],[4,-4],[1,-6],[1,-7],[1,-10],[4,-7],[5,-5],[5,-6],[10,-28],[6,-9],[7,28],[21,38],[10,12],[29,11],[30,-7],[56,-25],[52,1],[8,2],[0,25],[-4,-2],[-7,4],[-14,11],[-17,7],[-60,5],[-6,1],[-8,4],[914,0],[5,-32],[9,4],[6,2],[5,3],[5,6],[-1,1],[-2,5],[-1,6],[-1,4],[1,1],[292,0],[0,-4096]],[[3793,3802],[-6,-24],[8,-65],[-14,-14],[-11,-4],[-7,-10],[-4,-13],[-1,-14],[5,-16],[9,-9],[26,-12],[8,-2],[11,-9],[7,-4],[7,-1],[42,3],[14,4],[26,14],[40,32],[12,8],[2,7],[1,7],[2,3],[5,4],[-3,8],[-6,8],[-3,1],[3,28],[-3,13],[-12,5],[-3,3],[-5,15],[-3,5],[-7,5],[-8,3],[-43,11],[-13,-2],[-6,-12],[-7,-6],[-17,2],[-18,6],[-13,6],[-9,6],[-3,4],[-3,6]],[[2589,4084],[-17,3],[-8,-2],[2,-9],[8,-2],[11,-1],[4,11]],[[3604,3118],[-2,-4],[-2,-1],[-6,-5],[0,7],[0,3],[-10,-6],[-10,-4],[1,-3],[0,-1],[1,-1],[3,-1],[-10,-19],[-16,-12],[-4,-11],[12,-1],[3,-8],[-5,-10],[-10,-6],[6,-8],[-3,-9],[-6,-10],[-2,-9],[4,-10],[9,-8],[17,-13],[15,-8],[10,-3],[10,1],[4,3],[3,9],[3,3],[5,2],[11,2],[4,1],[11,19],[1,21],[-8,42],[1,21],[-1,12],[-4,9],[-9,5],[-16,-4],[-10,5],[5,4],[-5,6]],[[3360,2964],[-2,0],[-7,-1],[-2,1],[-1,0],[-5,4],[-5,4],[1,1],[-4,2],[-2,3],[-1,2],[-2,4],[-11,-2],[-13,8],[-22,24],[-11,19],[-6,5],[-13,2],[6,6],[-25,13],[-11,9],[-10,13],[10,9],[-4,13],[-12,7],[-13,-8],[-2,4],[-1,3],[-2,3],[0,6],[-5,0],[-21,-16],[5,-1],[11,-4],[-15,-8],[-5,-2],[8,-5],[8,-11],[6,-15],[3,-13],[-2,-4],[-4,-4],[-3,-5],[-2,-8],[0,-9],[-3,-7],[-4,-5],[-7,-2],[9,-26],[1,-9],[-3,-7],[-10,-19],[-2,-6],[2,-6],[2,-4],[3,-2],[2,-3],[5,-18],[1,-2],[10,-5],[12,-4],[8,-6],[0,-25],[11,-13],[28,-24],[20,-7],[18,-6],[21,-3],[24,-1],[5,0],[6,-4],[6,0],[6,0],[11,4],[6,0],[10,4],[6,9],[4,12],[7,12],[-5,5],[17,12],[5,8],[3,11],[-4,1],[-2,2],[-2,3],[-2,4],[-3,5],[-2,2],[-2,1],[-3,3],[-29,56],[-1,2],[1,6],[0,3]],[[2754,2899],[-16,3],[-15,-1],[-13,-4],[-45,-23],[-17,-13],[-13,-16],[-10,-18],[-4,-15],[4,-16],[10,-14],[42,-35],[25,-13],[28,-4],[30,12],[26,23],[4,8],[0,8],[-3,9],[-3,8],[4,8],[0,10],[-8,37],[-9,25],[-7,12],[-10,9]],[[2499,2786],[-8,8],[-11,-5],[-13,-2],[-9,-5],[3,-14],[-10,0],[3,-7],[1,-6],[-1,-6],[-3,-7],[5,5],[6,-9],[13,-9],[6,-8],[5,0],[5,7],[6,5],[7,5],[2,12],[0,13],[-2,12],[-5,11]],[[3399,2886],[-3,5],[-2,2],[-2,1],[-3,3],[-29,56],[-1,2],[1,6],[0,3],[-2,0],[-7,-1],[-2,1],[-1,0],[-5,4],[-5,4],[1,1],[-4,2],[-2,3],[-1,2],[-2,4],[-11,-2],[-13,8],[-22,24],[-11,19],[-6,5],[-13,2],[6,6],[-25,13],[-11,9],[-10,13],[10,9],[-4,13],[-12,7],[-13,-8],[-2,4],[-1,3],[-2,3],[0,6],[-5,0],[-21,-16],[5,-1],[11,-4],[-15,-8],[-5,-2],[8,-5],[8,-11],[6,-15],[3,-13],[-2,-4],[-4,-4],[-3,-5],[-2,-8],[0,-9],[-3,-7],[-4,-5],[-7,-2],[9,-26],[1,-9],[-3,-7],[-10,-19],[-2,-6],[2,-6],[2,-4],[3,-2],[2,-3],[5,-18],[1,-2],[10,-5],[12,-4],[8,-6],[0,-25],[11,-13],[28,-24],[20,-7],[18,-6],[21,-3],[24,-1],[5,0],[6,-4],[6,0],[6,0],[11,4],[6,0],[10,4],[6,9],[4,12],[7,12],[-5,5],[17,12],[5,8],[3,11],[-4,1],[-2,2],[-2,3],[-2,4]],[[3639,3102],[-9,5],[-16,-4],[-10,5],[5,4],[-5,6],[-2,-4],[-2,-1],[-6,-5],[0,7],[0,3],[-10,-6],[-10,-4],[1,-3],[0,-1],[1,-1],[3,-1],[-10,-19],[-16,-12],[-4,-11],[12,-1],[3,-8],[-5,-10],[-10,-6],[6,-8],[-3,-9],[-6,-10],[-2,-9],[4,-10],[9,-8],[17,-13],[15,-8],[10,-3],[10,1],[4,3],[3,9],[3,3],[5,2],[11,2],[4,1],[11,19],[1,21],[-8,42],[1,21],[-1,12],[-4,9]],[[3783,4064],[9,4],[6,2],[5,3],[5,6],[-1,1],[-2,5],[-1,6],[-1,4],[1,1]],[[3778,4096],[5,-32]],[[2955,4079],[-17,7],[-60,5],[-6,1],[-8,4]],[[2691,4096],[3,-14],[12,-13],[17,-5],[7,-1],[4,-4],[1,-6],[1,-7],[1,-10],[4,-7],[5,-5],[5,-6],[10,-28],[6,-9],[7,28],[21,38],[10,12],[29,11],[30,-7],[56,-25],[52,1],[8,2],[0,25],[-4,-2],[-7,4],[-14,11]],[[2788,2806],[0,10],[-8,37],[-9,25],[-7,12],[-10,9],[-16,3],[-15,-1],[-13,-4],[-45,-23],[-17,-13],[-13,-16],[-10,-18],[-4,-15],[4,-16],[10,-14],[42,-35],[25,-13],[28,-4],[30,12],[26,23],[4,8],[0,8],[-3,9],[-3,8],[4,8]],[[3963,3704],[3,28],[-3,13],[-12,5],[-3,3],[-5,15],[-3,5],[-7,5],[-8,3],[-43,11],[-13,-2],[-6,-12],[-7,-6],[-17,2],[-18,6],[-13,6],[-9,6],[-3,4],[-3,6],[-6,-24],[8,-65],[-14,-14],[-11,-4],[-7,-10],[-4,-13],[-1,-14],[5,-16],[9,-9],[26,-12],[8,-2],[11,-9],[7,-4],[7,-1],[42,3],[14,4],[26,14],[40,32],[12,8],[2,7],[1,7],[2,3],[5,4],[-3,8],[-6,8],[-3,1]],[[2491,2794],[-11,-5],[-13,-2],[-9,-5],[3,-14],[-10,0],[3,-7],[1,-6],[-1,-6],[-3,-7],[5,5],[6,-9],[13,-9],[6,-8],[5,0],[5,7],[6,5],[7,5],[2,12],[0,13],[-2,12],[-5,11],[-8,8]],[[2572,4087],[-8,-2],[2,-9],[8,-2],[11,-1],[4,11],[-17,3]],[[2506,2750],[-2,-12],[-7,-5],[-6,-5],[-5,-7],[-5,0],[-6,8],[-13,9],[-6,9],[-5,-5],[3,7],[1,6],[-1,6],[-3,7],[10,0],[-3,14],[9,5],[13,2],[11,5],[8,-8],[5,-11],[2,-12],[0,-13]],[[2760,2742],[-30,-12],[-28,4],[-25,13],[-42,35],[-10,14],[-4,16],[4,15],[10,18],[13,16],[17,13],[45,23],[13,4],[15,1],[16,-3],[10,-9],[7,-12],[9,-25],[8,-37],[0,-10],[-4,-8],[3,-8],[3,-9],[0,-8],[-4,-8],[-26,-23]],[[3193,3106],[2,-4],[13,8],[12,-7],[4,-13],[-10,-9],[10,-13],[11,-9],[25,-13],[-6,-6],[13,-2],[6,-5],[11,-19],[22,-24],[13,-8],[11,2],[2,-4],[1,-2],[2,-3],[4,-2],[-1,-1],[5,-4],[5,-4],[1,0],[2,-1],[7,1],[2,0],[0,-3],[-1,-6],[1,-2],[29,-56],[3,-3],[2,-1],[2,-2],[3,-5],[2,-4],[2,-3],[2,-2],[4,-1],[-3,-11],[-5,-8],[-17,-12],[5,-5],[-7,-12],[-4,-12],[-6,-9],[-10,-4],[-6,0],[-11,-4],[-6,0],[-6,0],[-6,4],[-5,0],[-24,1],[-21,3],[-18,6],[-20,7],[-28,24],[-11,13],[0,25],[-8,6],[-12,4],[-10,5],[-1,2],[-5,18],[-2,3],[-3,2],[-2,4],[-2,6],[2,6],[10,19],[3,7],[-1,9],[-9,26],[7,2],[4,5],[3,7],[0,9],[2,8],[3,5],[4,4],[2,4],[-3,13],[-6,15],[-8,11],[-8,5],[5,2],[15,8],[-11,4],[-5,1],[21,16],[5,0],[0,-6],[2,-3],[1,-3]],[[3604,3108],[10,-5],[16,4],[9,-5],[4,-9],[1,-12],[-1,-21],[8,-42],[-1,-21],[-11,-19],[-4,-1],[-11,-2],[-5,-2],[-3,-3],[-3,-9],[-4,-3],[-10,-1],[-10,3],[-15,8],[-17,13],[-9,8],[-4,10],[2,9],[6,10],[3,9],[-6,8],[10,6],[5,10],[-3,8],[-12,1],[4,11],[16,12],[10,19],[-3,1],[-1,1],[0,1],[-1,3],[10,4],[10,6],[0,-3],[0,-7],[6,5],[2,1],[2,4],[5,-6],[-5,-4]],[[3839,3774],[17,-2],[7,6],[6,12],[13,2],[43,-11],[8,-3],[7,-5],[3,-5],[5,-15],[3,-3],[12,-5],[3,-13],[-3,-28],[3,-1],[6,-8],[3,-8],[-5,-4],[-2,-3],[-1,-7],[-2,-7],[-12,-8],[-40,-32],[-26,-14],[-14,-4],[-42,-3],[-7,1],[-7,4],[-11,9],[-8,2],[-26,12],[-9,9],[-5,16],[1,14],[4,13],[7,10],[11,4],[14,14],[-8,65],[6,24],[3,-6],[3,-4],[9,-6],[13,-6],[18,-6]],[[2691,4096],[173,0],[8,-4],[6,-1],[60,-5],[17,-7],[14,-11],[7,-4],[4,2],[0,-25],[-8,-2],[-52,-1],[-56,25],[-30,7],[-29,-11],[-10,-12],[-21,-38],[-7,-28],[-6,9],[-10,28],[-5,6],[-5,5],[-4,7],[-1,10],[-1,7],[-1,6],[-4,4],[-7,1],[-17,5],[-12,13],[-3,14]],[[3778,4096],[26,0],[-1,-1],[1,-4],[1,-6],[2,-5],[1,-1],[-5,-6],[-5,-3],[-6,-2],[-9,-4],[-5,32]]]}