{"objects":{"water":{"type":"GeometryCollection","geometries":[{"type":"MultiPolygon","properties":{"source":"naturalearthdata.com","kind":"ocean","area":1576712559132672,"sort_rank":200,"min_zoom":0.0,"id":1},"arcs":[[[13],[14]],[[15]]]},{"type":"LineString","properties":{"source":"naturalearthdata.com","kind":"ocean","sort_rank":205,"boundary":true,"min_zoom":0.0,"id":55},"arcs":[16]},{"type":"MultiLineString","properties":{"source":"naturalearthdata.com","kind":"ocean","sort_rank":205,"boundary":true,"min_zoom":0.0,"id":2763},"arcs":[[17],[18],[19]]},{"type":"LineString","properties":{"source":"naturalearthdata.com","kind":"ocean","sort_rank":205,"boundary":true,"min_zoom":0.0,"id":4085},"arcs":[20]},{"type":"MultiLineString","properties":{"source":"naturalearthdata.com","kind":"ocean","sort_rank":205,"boundary":true,"min_zoom":0.0,"id":4086},"arcs":[[21],[22]]}]},"buildings":{"type":"GeometryCollection","geometries":[]},"places":{"type":"GeometryCollection","geometries":[{"type":"Point","properties":{"name:pt":"Bahrein","name:cy":"Bahrain","name:mt":"Ba\u0127rajn","name:ko":"\ubc14\ub808\uc778","name:kn":"\u0cac\u0cb9\u0cb0\u0cc8\u0ca8\u0ccd","name:km":"\u1794\u17b6\u179a\u17c9\u17c2\u1793","name:kl":"Bahrain","name:cs":"Bahrajn","name:ki":"Bahareni","name:tr":"Bahreyn","name:ku":"Behreyn","name:ti":"\u1263\u1205\u122c\u1295","name:ks":"\u0628\u062d\u0631\u06cc\u0656\u0646","name:to":"Paleini","name:sv":"Bahrain","name:or":"\u0b2c\u0b3e\u0b39\u0b3e\u0b30\u0b3f\u0b28\u0b4d","name:pl":"Bahrajn","name:ta":"\u0baa\u0bb9\u0bcd\u0bb0\u0bc8\u0ba9\u0bcd","name:ca":"Bahrain","name:te":"\u0c2c\u0c39\u0c30\u0c47\u0c28\u0c4d","name:hu":"Bahrein","name:ro":"Bahrein","name:ka":"\u10d1\u10d0\u10f0\u10e0\u10d4\u10d8\u10dc\u10d8","name:hr":"Bahrein","name:da":"Bahrain","name:de":"Bahrain","name:dz":"\u0f56\u0fb7\u0f0b\u0f62\u0f7a\u0f53","source":"openstreetmap.org","name:lv":"Bahreina","name:lt":"Bahreinas","name:uz":"Baxreyn","name:kk":"\u0411\u0430\u0445\u0440\u0435\u0439\u043d","name:he":"\u05d1\u05d7\u05e8\u05d9\u05d9\u05df","kind":"country","name:ur":"\u0628\u062d\u0631\u06cc\u0646","name:lb":"Bahrain","name:la":"Baharina","name:lg":"Baareeni","name:uk":"\u0411\u0430\u0445\u0440\u0435\u0439\u043d","name:hy":"\u0532\u0561\u0570\u0580\u0565\u0575\u0576","min_zoom":2.0,"name:li":"Bahrein","name:ln":"Bahr\u025bn\u025b","name:lo":"\u0e9a\u0eb2\u0ec0\u0ea5\u0e99","population":1234571,"name:el":"\u039c\u03c0\u03b1\u03c7\u03c1\u03ad\u03b9\u03bd","name:eo":"Barejno","name:en":"Bahrain","name":"\u0627\u0644\u0628\u062d\u0631\u064a\u0646","official_name":"\u200e\u0645\u0645\u0644\u0643\u0629 \u0627\u0644\u0628\u062d\u0631\u064a\u0646 (Mamlakat al-Ba\u1e25rayn)","name:ee":"Bahrain nutome","name:th":"\u0e1b\u0e23\u0e30\u0e40\u0e17\u0e28\u0e1a\u0e32\u0e2b\u0e4c\u0e40\u0e23\u0e19","name:gu":"\u0aac\u0ac7\u0ab9\u0ab0\u0ac0\u0aa8","name:eu":"Bahrain","name:et":"Bahrein","name:nl":"Bahrein","name:es":"Bahr\u00e9in","name:ia":"Bahrain","name:rm":"Bahrain","name:rn":"Bahareyini","name:az":"Bahreyn","name:id":"Bahrain","name:ms":"Bahrain","name:mr":"\u092c\u0939\u093e\u0930\u0940\u0928","name:my":"\u1018\u102c\u101b\u102d\u1014\u103a\u1038","name:io":"Bahrain","int_name":"Bahrain","name:is":"Barein","name:am":"\u1263\u1205\u122c\u1295","name:it":"Bahrain","name:vi":"Bahrain","name:ru":"\u0411\u0430\u0445\u0440\u0435\u0439\u043d","name:mn":"\u0411\u0430\u0445\u0440\u0435\u0439\u043d","id":424297207,"name:mk":"\u0411\u0430\u0445\u0440\u0435\u0438\u043d","name:af":"Bahrein","name:zu":"i-Bahrain","name:ha":"Baharan","name:nn":"Bahrain","name:ff":"Bahreyn","name:fi":"Bahrain","name:hi":"\u092c\u093e\u0939\u0930\u0947\u0928","name:mg":"Bahrain","name:fo":"Bahrain","name:fr":"Bahre\u00efn","name:fy":"De Barein","name:vo":"Bahru\u00e4ns","name:zh":"\u5df4\u6797","name:gv":"Bahrain","name:so":"Baxreyn","name:sn":"Bahareni","name:sl":"Bahrajn","name:sk":"Bahrajn","name:ja":"\u30d0\u30fc\u30ec\u30fc\u30f3","name:si":"\u0db6\u0dc4\u0dbb\u0dda\u0db1\u0dca","name:fa":"\u0628\u062d\u0631\u064a\u0646","name:sg":"Bahr\u00e2ina","name:se":"Bahrain","name:ne":"\u092c\u093e\u0939\u094d\u0930\u0947\u0928","name:br":"Bahrein","name:bs":"Bahrein","name:bm":"Bareyini","name:bn":"\u09ac\u09be\u09b9\u09b0\u09be\u0987\u09a8","name:bo":"\u0f56\u0fb7\u0f71\u0f0b\u0f62\u0f7a\u0f53\u0f0d","name:ml":"\u0d2c\u0d39\u0d4d\u0d31\u0d48\u0d7b","name:no":"Bahrain","name:sw":"Bahareni","name:be":"\u0411\u0430\u0445\u0440\u044d\u0439\u043d","name:bg":"\u0411\u0430\u0445\u0440\u0435\u0439\u043d","name:sr":"\u0411\u0430\u0445\u0440\u0435\u0438\u043d","name:sq":"Bahrein","name:ga":"Bair\u00e9in","name:gd":"Bachrain","name:gl":"Bahrein","name:yo":"Or\u00edl\u1eb9\u0301\u00e8de B\u00e1r\u00e1n\u00ec","name:ak":"Baren"},"coordinates":[3832,1155]},{"type":"Point","properties":{"name:fa":"\u062f\u0645\u0627\u0645","kind":"locality","name:en":"Dammam","name":"\u0627\u0644\u062f\u0645\u0627\u0645","kind_detail":"city","name:cs":"Damm\u00e1m","name:de":"Dammam","source":"openstreetmap.org","min_zoom":8.0,"name:kn":"\u0ca6\u0cae\u0ccd\u0cae\u0cbe\u0c82","name:ru":"\u0414\u0430\u043c\u043c\u0430\u043c","population":769000,"name:zh":"\u8fbe\u66fc","id":287865393,"name:ja":"\u30c0\u30f3\u30de\u30fc\u30e0"},"coordinates":[2578,2072]},{"type":"Point","properties":{"kind":"locality","name:en":"Al Khobar","name":"\u0627\u0644\u062e\u0628\u0631","kind_detail":"city","name:cs":"Al-Khubar","name:de":"al-Chubar","source":"openstreetmap.org","min_zoom":8.0,"id":32441763,"population":500000},"coordinates":[2847,1640]},{"type":"Point","properties":{"name:pt":"Manama","name:id":"Al-Manamah","name:ka":"\u10db\u10d0\u10dc\u10d0\u10db\u10d0","name:mr":"\u092e\u0928\u093e\u092e\u093e","name:ko":"\ub9c8\ub098\ub9c8","name:kn":"\u0cae\u0ca8\u0cbe\u0cae","name:cs":"Man\u00e1ma","name:io":"Al Manamah","min_zoom":8.0,"name:am":"\u121b\u1293\u121b","name:os":"\u041c\u0430\u043d\u0430\u043c\u00e6","name:ru":"\u041c\u0430\u043d\u0430\u043c\u0430","name:ce":"\u041c\u0430\u043d\u0430\u043c\u0430","name:mn":"\u041c\u0430\u043d\u0430\u043c\u0430","name:pl":"Manama","name:ca":"Al-Manama","name:vo":"M\u00e4nam\u00e4","name:fa":"\u0645\u0646\u0627\u0645\u0647","name:ta":"\u0bae\u0ba9\u0bbe\u0bae\u0bbe","kind_detail":"city","id":38903284,"source":"openstreetmap.org","name:fr":"Manama","name:mk":"\u041c\u0430\u043d\u0430\u043c\u0430","name:zh-yue":"\u9ea5\u7d0d\u746a","name:de":"Manama","name:tg":"\u041c\u0430\u043d\u0430\u043c\u0430","admin_level":"2","name:lv":"Man\u0101ma","name:ja":"\u30de\u30ca\u30fc\u30de","name:lt":"Menama","name:kk":"\u041c\u0430\u043d\u0430\u043c\u0430","name:he":"\u05de\u05e0\u05d0\u05de\u05d4","kind":"locality","name:ur":"\u0645\u0646\u0627\u0645\u06c1","name:bn":"\u09ae\u09be\u09a8\u09be\u09ae\u09be","name:bo":"\u0f58\u0f0b\u0f53\u0f0b\u0f58\u0f0d","name:sk":"Man\u00e1ma","name:uk":"\u041c\u0430\u043d\u0430\u043c\u0430","name:hy":"\u0544\u0561\u0576\u0561\u0574\u0561","country_capital":true,"name:be":"\u041c\u0430\u043d\u0430\u043c\u0430","name:su":"Al-Manamah","name:hu":"Man\u00e1ma","name:sr":"\u041c\u0430\u043d\u0430\u043c\u0430","population":157474,"name:el":"\u039c\u03b1\u03bd\u03ac\u03bc\u03b1","name:eo":"Manamo","name:en":"Manama","name":"\u0627\u0644\u0645\u0646\u0627\u0645\u0629","name:zh":"\u9ea5\u7d0d\u9ea5","name:ku":"Mename","name:th":"\u0e21\u0e32\u0e19\u0e32\u0e21\u0e32","name:bg":"\u041c\u0430\u043d\u0430\u043c\u0430","name:et":"Al-Man\u0101mah","name:nl":"Manamah"},"coordinates":[3971,1378]},{"type":"Point","properties":{"kind":"locality","name:en":"Jubail","name":"\u0627\u0644\u062c\u0628\u064a\u0644","kind_detail":"city","name:cs":"Al Jubayl","source":"openstreetmap.org","min_zoom":8.0,"id":38903292,"population":150367},"coordinates":[1265,3906]},{"type":"Point","properties":{"kind":"locality","name:en":"Hamad Town","name":"\u0645\u062f\u064a\u0646\u0629 \u062d\u0645\u062f\u200e","kind_detail":"town","source":"openstreetmap.org","min_zoom":8.0,"int_name":"Madinat Hamad","id":659360718,"population":133350},"coordinates":[3727,1063]},{"type":"Point","properties":{"kind":"locality","name:en":"Riffa","name":"\u0627\u0644\u0631\u0641\u0627\u0639\u200e","kind_detail":"city","min_zoom":8.0,"source":"openstreetmap.org","name:fr":"Rifaa","name:ru":"\u042d\u0440-\u0420\u0438\u0444\u0430","id":2189166838,"population":121566},"coordinates":[3879,1079]},{"type":"Point","properties":{"kind":"locality","name:en":"Saihat","name":"\u0633\u064a\u0647\u0627\u062a","kind_detail":"city","name:ar":"\u0633\u064a\u0647\u0627\u062a nahdi erwin #8","min_zoom":8.0,"name:de":"Saihat","source":"openstreetmap.org","name:fr":"Saihat","int_name":"Sayh\u0101t,As Saihat,As Saih\u0101t,As Sayhat,As Sayh\u0101t,Saihat,Sihat,S\u012bh\u0101t, Sayhat","id":1013645811,"population":115000},"coordinates":[2397,2196]},{"type":"Point","properties":{"kind":"locality","name:en":"A'ali","name":"\u0639\u0627\u0644\u064a","kind_detail":"city","source":"openstreetmap.org","min_zoom":8.0,"id":2141284320,"population":100553},"coordinates":[3812,1153]},{"type":"Point","properties":{"kind":"locality","name:en":"Muharraq","name":"\u0627\u0644\u0645\u062d\u0631\u0642\u200e","kind_detail":"city","min_zoom":8.0,"name:de":"al-Muharraq","source":"openstreetmap.org","name:fr":"Muharraq","name:zh":"\u7a46\u54c8\u62c9\u514b","id":2189170851,"name:es":"Muharraq","population":75000},"coordinates":[4071,1453]},{"type":"Point","properties":{"kind":"locality","name:en":"Ras Tanura","name":"\u0631\u0623\u0633 \u062a\u0646\u0648\u0631\u0629","kind_detail":"town","name:de":"Ras Tanura","source":"openstreetmap.org","min_zoom":8.0,"alt_name:en":"Ra's Tann\u016brah","id":983083564,"population":73933},"coordinates":[2447,2960]},{"type":"Point","properties":{"kind":"locality","name:en":"Safwa","name":"\u0635\u0641\u0648\u0649","kind_detail":"town","min_zoom":8.0,"name:de":"Safwa","source":"openstreetmap.org","name:fr":"Safwa","int_name":"\u015eafw\u00e1,Safwah,\u015eafwah, Safwa","id":1012035231,"population":70000},"coordinates":[2144,2765]},{"type":"Point","properties":{"kind":"locality","name:en":"Abqaiq","name":"\u0623\u0628\u0642\u064a\u0642","kind_detail":"town","min_zoom":8.0,"name:de":"Abqaiq","source":"openstreetmap.org","name:fr":"Abqaiq","int_name":"Abqaiq,Abaqaiq,Abkayk,Abqaik,Abqaiq,Abqayq,Bukayk,Buqayq,Madinat Abqaiq, Abqaiq","id":348286415,"population":44000},"coordinates":[1310,441]},{"type":"Point","properties":{"kind":"locality","name:en":"Awamiya","name":"\u0627\u0644\u0639\u0648\u0627\u0645\u064a\u0629\u200e","kind_detail":"town","name:ar":"\u0627\u0644\u0639\u0648\u0627\u0645\u064a\u0629","name:de":"Awamija","source":"openstreetmap.org","min_zoom":8.0,"id":1012035239,"population":25000},"coordinates":[2227,2548]},{"type":"Point","properties":{"kind":"locality","name:en":"Dhahran","name":"\u0627\u0644\u0638\u0647\u0631\u0627\u0646","kind_detail":"town","min_zoom":8.0,"source":"openstreetmap.org","name:fr":"Dharan","name:uk":"\u0414\u0430\u0445\u0440\u0430\u043d","name:ru":"\u0414\u0430\u0445\u0440\u0430\u043d","id":447805356,"name:es":"Dharan","population":11300},"coordinates":[2626,1616]}]},"transit":{"type":"GeometryCollection","geometries":[]},"pois":{"type":"GeometryCollection","geometries":[{"type":"Point","properties":{"name:fa":"\u0645\u0637\u0627\u0631 \u0627\u0644\u0645\u0644\u0643 \u0641\u0647\u062f \u0628\u0646 \u0639\u0628\u062f\u0627\u0644\u0639\u0632\u064a\u0632","kind":"aerodrome","int_name":"Dammam-King Fahd International Airport,DMM,OEDF, Dammam-King Fahd International Airport","name":"\u0645\u0637\u0627\u0631 \u062f\u0645\u0627\u0645","area":36910300,"iata":"DMM","min_zoom":8.81,"name:de":"Dammam-King Fahd International Airport","source":"openstreetmap.org","name:fr":"Dammam-King Fahd International Airport","name:en":"Dammam-King Fahd International Airport","tier":3,"id":230207380},"coordinates":[1690,2171]}]},"boundaries":{"type":"GeometryCollection","geometries":[{"type":"LineString","properties":{"name:right:yo":"S\u00e1\u00fad\u00ed Ar\u00e1b\u00ed\u00e0","name:right:yi":"\u05e1\u05d0\u05d5\u05d3\u05d9 \u05d0\u05e8\u05d0\u05d1\u05d9\u05e2","name:right:hy":"\u054d\u0561\u0578\u0582\u0564\u0575\u0561\u0576 \u0531\u0580\u0561\u0562\u056b\u0561","name:left:mr":"\u092c\u0939\u0930\u0948\u0928","name:right:qu":"Sawud Arabya","name:left:ro":"Bahrain","alt_name:left:tl":"Bahrein","alt_name:left:ta":"\u0baa\u0bb9\u0bb0\u0bc8\u0ba9\u0bcd","int_name:left":"al-Ba\u1e25rayn","name:right:el":"\u03a3\u03b1\u03bf\u03c5\u03b4\u03b9\u03ba\u03ae \u0391\u03c1\u03b1\u03b2\u03af\u03b1","name:left:sw":"Bahrain","name:left:kg":"Bahrain","name:left:ka":"\u10d1\u10d0\u10f0\u10e0\u10d4\u10d8\u10dc\u10d8","name:left:km":"\u1794\u17b6\u179a\u17c9\u17c2\u1793","name:left:kl":"Bahrain","name:left:ko":"\ubc14\ub808\uc778","name:left:kn":"\u0cac\u0cb9\u0cb0\u0cc7\u0ca8\u0ccd","name:left:ki":"Bahrain","alt_name:left:de":"Bahrein","name:left:kk":"\u0411\u0430\u0445\u0440\u0435\u0439\u043d","name:left:rm":"Bahrain","name:left:ku":"Behreyn","name:left:kw":"Bahreyn","name:left:kv":"\u0411\u0430\u0445\u0440\u0435\u0439\u043d","name:right:ro":"Arabia Saudit\u0103","name:left:ks":"\u0628\u062d\u0631\u06cc\u0656\u0646","name:left:ru":"\u0411\u0430\u0445\u0440\u0435\u0301\u0439\u043d","name:right:ie":"Saudi Arabia","alt_name:left:sv":"Bahrein","name:left:ky":"\u0411\u0430\u0445\u0440\u0435\u0301\u0439\u043d","name:right:ia":"Arabia Saudita","name:right:bn":"\u09b8\u09cc\u09a6\u09bf \u0986\u09b0\u09ac","name:right:bo":"\u0f66\u0f60\u0f74\u0f0b\u0f51\u0f72\u0f0b\u0f68\u0f0b\u0f62\u0f0b\u0f54\u0f72\u0f0b\u0f61\u0f0d","name:right:bm":"Saudia Arabu ka Faamamara","name:right:ba":"\u0421\u04d9\u0493\u04af\u0434 \u0492\u04d9\u0440\u04d9\u0431\u0441\u0442\u0430\u043d\u044b","name:right:bg":"\u0421\u0430\u0443\u0434\u0438\u0442\u0441\u043a\u0430 \u0410\u0440\u0430\u0431\u0438\u044f","name:right:be":"\u0421\u0430\u0443\u0434\u0430\u045e\u0441\u043a\u0430\u044f \u0410\u0440\u0430\u0432\u0456\u044f","name:right:br":"Arabia Saoudat","name:right:bs":"Saudijska Arabija","name:right:nn":"Saudi-Arabia","name:right:no":"Saudi-Arabia","name:right:nl":"Saoedi-Arabi\u00eb","name:left:sk":"Bahrajn","name:right:wo":"Araabi Sawdit","name:right:ne":"\u0938\u093e\u0909\u0926\u0940 \u0905\u0930\u092c","name:right:na":"Taudiarabiya","alt_name:left:es":"Bahr\u00e9in","name:right:ps":"\u0633\u0639\u0648\u062f\u064a \u0639\u0631\u0628\u0633\u062a\u0627\u0646","name:right:hi":"\u0938\u0909\u0926\u0940 \u0905\u0930\u092c","name:right:nv":"\u00c1s\u00e1\u00ed Bik\u00e9yah Sa\u02bcood\u00ed","name:right:pt":"Ar\u00e1bia Saudita","kind_detail":"2","old_name:left:el":"\u03a4\u03cd\u03bb\u03bf\u03c2","alt_name:right:vi":"\u1ea2 R\u1eadp X\u00ea \u00dat;A-r\u1eadp X\u00ea-\u00fat","name:left:mt":"Ba\u0127rejn","name:right:gu":"\u0ab8\u0abe\u0a89\u0aa6\u0ac0 \u0a85\u0ab0\u0ac7\u0aac\u0abf\u0aaf\u0abe","name:right:gv":"Yn Araab Saudi","name:left:mg":"Baharainy","name:left:mk":"\u0411\u0430\u0445\u0440\u0435\u0438\u043d","name:left:tr":"Bahreyn","name:left:tt":"\u0411\u04d9\u0445\u0440\u04d9\u0439\u043d","name:left:mn":"\u0411\u0430\u0445\u0440\u0435\u0439\u043d","name:left:ml":"\u0d2c\u0d39\u0d4d\u200c\u0d31\u0d48\u0d7b","name:left:th":"\u0e1a\u0e32\u0e2b\u0e4c\u0e40\u0e23\u0e19","name:left:ti":"\u1263\u1205\u122c\u1295","name:left:tk":"Bahre\u00fdn","name:left:tl":"Bahrain","name:left:to":"Paleini","name:right:gl":"Arabia Saud\u00ed","name:left:my":"\u1018\u102c\u101b\u102d\u1014\u103a\u1038\u1014\u102d\u102f\u1004\u103a\u1004\u1036","name:right:gn":"Aravia Saud\u00edta","name:right:pl":"Arabia Saudyjska","name:left:te":"\u0c2c\u0c39\u0c4d\u0c30\u0c2f\u0c3f\u0c28\u0c4d","name:left:tg":"\u0411\u0430\u04b3\u0440\u0430\u0439\u043d","name:left:ms":"Bahrain","name:right:ka":"\u10e1\u10d0\u10e3\u10d3\u10d8\u10e1 \u10d0\u10e0\u10d0\u10d1\u10d4\u10d7\u10d8","name:right:pa":"\u0a38\u0a09\u0a26\u0a40 \u0a05\u0a30\u0a2c","name:right:tr":"Suudi Arabistan","name:left:da":"Bahrain","name:left:de":"Bahrain","name:left:dz":"\u0f56\u0f67\u0f0b\u0f62\u0f7a\u0f53\u0f0b","name:right:ga":"An Araib Sh\u00e1dach","name:left:dv":"\u0784\u07a6\u0799\u07b0\u0783\u07a6\u0787\u07a8\u0782\u07b0","name:right:ug":"\u0633\u06d5\u0626\u06c7\u062f\u0649 \u0626\u06d5\u0631\u06d5\u0628\u0649\u0633\u062a\u0627\u0646","name:left:hi":"\u092c\u0939\u0930\u0940\u0928","name:right:lb":"Saudi-Arabien","name:right:uk":"\u0421\u0430\u0443\u0434\u0456\u0432\u0441\u044c\u043a\u0430 \u0410\u0440\u0430\u0432\u0456\u044f","name:left:he":"\u05d1\u05d7\u05e8\u05d9\u05d9\u05df","name:right:ln":"Saudi Arabia","alt_name:left:it":"Bahrain","name:left:ha":"Baharain","alt_name:left:pt":"Bar\u00e9m;Barein;Bareine","name:right:ur":"\u0633\u0639\u0648\u062f\u06cc \u0639\u0631\u0628","name:right:lv":"Sa\u016bda Ar\u0101bija","name:left:hy":"\u0532\u0561\u0570\u0580\u0565\u0575\u0576","name:left:ta":"\u0baa\u0b95\u0bc1\u0bb0\u0bc8\u0ba9\u0bcd","name:left:ht":"Barayn","name:right:uz":"Saudiya Arabistoni","name:left:hr":"Bahrein","name:right:av":"\u0421\u0430\u0433I\u0443\u0434\u0438\u044f\u0437\u0443\u043b \u0413I\u0430\u0440\u0430\u0431\u0438\u044f","sort_rank":262,"name:right:gd":"Ar\u00e0ibia nan Sabhd","osm_relation":true,"name:right:es":"Arabia Saudita","name:left:ja":"\u30d0\u30fc\u30ec\u30fc\u30f3","name:right:eu":"Saudi Arabia","name:right:et":"Saudi Araabia","name:left:os":"\u0411\u0430\u0445\u0440\u0435\u0439\u043d","name:left:or":"\u0b2c\u0b3e\u0b39\u0b3e\u0b30\u0b3f\u0b28\u0b4d","name:left:om":"Baahireen","name:left:vo":"Bahru\u00e4ns","name:left:oc":"Bahrain","name:right:eo":"Sauda Arabujo","name:right:en":"Saudi Arabia","name:left:vi":"Bahrain","name:left:ff":"Bahreyn","name:left:fa":"\u0628\u062d\u0631\u06cc\u0646","name:left:fo":"Barein","name:right:sk":"Saudsk\u00e1 Ar\u00e1bia","name:left:fi":"Bahrain","name:left:fr":"Bahre\u00efn","name:left:fy":"Bachrein","name:right:ja":"\u30b5\u30a6\u30b8\u30a2\u30e9\u30d3\u30a2","name:right:sq":"Arabia Saudite","name:right:ss":"I-Arabhiya","name:right:sr":"\u0421\u0430\u0443\u0434\u0438\u0458\u0441\u043a\u0430 \u0410\u0440\u0430\u0431\u0438\u0458\u0430","name:right:su":"Saudi Arabia","name:right:sw":"Saudia","name:right:sv":"Saudiarabien","name:right:si":"\u0dc3\u0dc0\u0dd4\u0daf\u0dd2 \u0d85\u0dbb\u0dcf\u0db6\u0dd2\u0dba\u0dcf\u0dc0","name:right:sh":"Saudijska Arabija","name:left:qu":"Bahrayn","name:right:jv":"Arab Saudi","name:right:sl":"Saudova Arabija","name:right:so":"Sacuudi Carabiya","name:right:sa":"\u0938\u090a\u0926\u0940 \u0905\u0930\u092c","name:left:jv":"Bahrain","id":-378734,"name:right:ca":"Ar\u00e0bia Saudita","name:right:se":"Saudi-Ar\u00e1bia","name:right:ce":"\u0421\u0430\u0443\u0434\u0438\u0439\u043d \u0410\u0440\u0430\u0432\u0438","alt_name:left:rw":"Bahrayeni","name:right:cy":"Saudi Arabia","name:right:zh-yue":"\u6c99\u5730\u963f\u62c9\u4f2f","name:right:cs":"Sa\u00fadsk\u00e1 Ar\u00e1bie","name:left:bm":"Bareyini","name:right:cv":"\u0421\u0430\u0443\u0434 \u0410\u0440\u0430\u0432\u0438\u0439\u0115","name:right:it":"Arabia Saudita","name:left:as":"\u09ac\u09be\u09b9\u09f0\u09c7\u0987\u09a8","name:right:is":"S\u00e1d\u00ed-Arab\u00eda","name:left:az":"B\u0259hreyn","name:right:rw":"Arabiya Sawudite","name:left:af":"Bahrein","name:left:an":"Bahrein","name:left:am":"\u1263\u1215\u122c\u1295","name:right:ru":"\u0421\u0430\u0443\u0434\u043e\u0432\u0441\u043a\u0430\u044f \u0410\u0440\u0430\u0432\u0438\u044f","name:left:ak":"Baren","alt_name:left:yo":"Bahrain","name:right:io":"Saudia Arabia","name:left:zh-yue":"\u5df4\u6797","name:left:rw":"Bahirayini","name:left:la":"Baharina","name:left:lb":"Bahrain","name:left:lg":"Baareeni","name:left:su":"Bahrain","name:left:li":"Bahrein","name:right:hr":"Saudijska Arabija","name:left:sv":"Bahrain","name:left:sq":"Bahraini","name:right:hu":"Sza\u00fad-Ar\u00e1bia","name:left:ln":"Bahrein","name:left:lo":"\u0e9a\u0eb2\u0ec0\u0ea5\u0e99","name:left:sm":"Bahrain","name:left:sl":"Bahr\u00e1jn","name:left:so":"Baxrayn","name:left:sn":"Bahrain","name:left:lt":"Bahreinas","name:left:sh":"Bahrein","name:left:lv":"Bahreina","name:left:se":"Bahrain","name:left:sd":"\u0628\u062d\u0631\u064a\u0646","name:left:sg":"Bahr\u00e2ina","name:left:sa":"\u092c\u0939\u0930\u0948\u0928","name:right:he":"\u05e2\u05e8\u05d1 \u05d4\u05e1\u05e2\u05d5\u05d3\u05d9\u05ea","name:right:la":"Arabia Saudiana","name:right:af":"Saoedi-Arabi\u00eb","name:right:id":"Arab Saudi","name:left:ce":"\u0411\u0430\u0445\u044c\u0440\u0430\u0439\u043d","name:right:an":"Arabia Saud\u00ed","name:right:am":"\u1233\u12d1\u12f2 \u12a0\u1228\u1262\u12eb","name:left:ca":"Bahrain","source":"openstreetmap.org","name:left:cy":"Bahrein","name:left:cv":"\u0411\u0430\u0445\u0440\u0435\u0439\u043d","name:right:az":"S\u0259udiyy\u0259 \u018fr\u0259bistan\u0131","name:left:cs":"Bahrajn","name:right:li":"Saoedi-Arabi\u00eb","name:right:rm":"Arabia Saudita","name:right:lt":"Saudo Arabija","name":"\u200f\u0627\u0644\u0628\u062d\u0631\u064a\u0646\u200e - \u0627\u0644\u0633\u0639\u0648\u062f\u064a\u0629","name:left:zu":"i-Bahrain","name:left:zh":"\u5df4\u6797","name:right:zh":"\u6c99\u7279\u963f\u62c9\u4f2f","official_name:left":"\u0645\u0645\u0644\u0643\u0629 \u0627\u0644\u0628\u062d\u0631\u064a\u0646","name:left:uz":"Baxreyn","name:right:fr":"Arabie saoudite","name:left:ps":"\u0628\u062d\u0631\u06cc\u0646","name:left:ur":"\u0628\u062d\u0631\u06cc\u0646","id:right":-307584,"name:left:uk":"\u0411\u0430\u0445\u0440\u0435\u0301\u0439\u043d","name:left:no":"Bahrain","name:left:nl":"Bahrein","alt_name:right:eo":"Sauda Arabio;Saud-Arabujo;Saud-Arabio","name:right:fa":"\u0639\u0631\u0628\u0633\u062a\u0627\u0646 \u0633\u0639\u0648\u062f\u06cc","name:right:fo":"Saudi-Arabia","name:left:ne":"\u092c\u0939\u0930\u093e\u0907\u0928","name:left:ug":"\u0628\u06d5\u06be\u0631\u06d0\u064a\u0649\u0646","name:left:na":"Bahrain","name:left:eo":"Barejno","name:left:en":"Bahrain","name:left:el":"\u039c\u03c0\u03b1\u03c7\u03c1\u03ad\u03b9\u03bd","name:left:ee":"Bahrain nutome","name:right:tt":"\u0421\u043e\u0433\u0443\u0434 \u0413\u0430\u0440\u04d9\u0431\u0441\u0442\u0430\u043d\u044b","name:left:es":"Bar\u00e9in","name:left:ss":"iBhaharayi","name:right:kk":"\u0421\u0430\u0443\u0434 \u0410\u0440\u0430\u0431\u0438\u044f\u0441\u044b","name:left:eu":"Bahrain","name:left:et":"Bahrein","name:right:zh-min-nan":"Saud \u00ea A-la-pek","name:right:oc":"Arabia Saudita","name:right:kl":"Saudi Arabia","name:left:ia":"Bahrain","name:left:sr":"\u0411\u0430\u0445\u0440\u0435\u0438\u043d","name:right:os":"\u0421\u0430\u0443\u0434\u044b \u0410\u0440\u0430\u0432\u0438","name:right:or":"\u0b38\u0b3e\u0b09\u0b26\u0b3f \u0b06\u0b30\u0b2c","name:right:tl":"Arabyang Saudi","name:right:th":"\u0e1b\u0e23\u0e30\u0e40\u0e17\u0e28\u0e0b\u0e32\u0e2d\u0e38\u0e14\u0e35\u0e2d\u0e32\u0e23\u0e30\u0e40\u0e1a\u0e35\u0e22","name:right:kv":"\u0421\u0430\u0443\u0434\u0441\u0430 \u0410\u0440\u0430\u0432\u0438\u044f","min_zoom":8.0,"name:left:hu":"Bahrein","name:right:te":"\u0c38\u0c4c\u0c26\u0c40 \u0c05\u0c30\u0c47\u0c2c\u0c3f\u0c2f\u0c3e","name:left:wo":"Bahrayni","name:left:ga":"Bair\u00e9in","name:right:tg":"\u0410\u0440\u0430\u0431\u0438\u0441\u0442\u043e\u043d\u0438 \u0421\u0430\u0443\u0434\u04e3","name:left:gd":"Bachrain","name:left:gl":"Bahrein","name:left:gn":"Var\u00e9\u0129","name:left:gu":"\u0aac\u0ab9\u0ac7\u0ab0\u0ac0\u0aa8","name:left:gv":"Bahrain","official_name:right":"\u200f\u0627\u0644\u0645\u0645\u0644\u0643\u0629 \u0627\u0644\u0639\u0631\u0628\u064a\u0629 \u0627\u0644\u0633\u0639\u0648\u062f\u064a\u0629\u200e","name:left":"\u200f\u0627\u0644\u0628\u062d\u0631\u064a\u0646\u200e","name:right:mk":"\u0421\u0430\u0443\u0434\u0438\u0441\u043a\u0430 \u0410\u0440\u0430\u0431\u0438\u0458\u0430","name:right:mn":"\u0421\u0430\u0443\u0434\u044b\u043d \u0410\u0440\u0430\u0431","name:right:ml":"\u0d38\u0d57\u0d26\u0d3f \u0d05\u0d31\u0d47\u0d2c\u0d4d\u0d2f","name:right:vo":"Sauda-Larab\u00e4n","name:right:vi":"\u1ea2 R\u1eadp Saudi","name:right:my":"\u1006\u1031\u102c\u103a\u1012\u102e\u1021\u102c\u101b\u1031\u1017\u103b\u1014\u102d\u102f\u1004\u103a\u1004\u1036","name:right:ms":"Arab Saudi","name:right:mr":"\u0938\u094c\u0926\u0940 \u0905\u0930\u0947\u092c\u093f\u092f\u093e","name:right:fy":"Sa\u00fbdy-Araabje","name:right:mt":"Arabja Sawdija","name:left:nn":"Bahrain","kind":"country","name:left:si":"\u0db6\u0dc4\u0dbb\u0dda\u0db1\u0dca","alt_name:left:gd":"Bairean;Bair\u00e8in;Bahrain","alt_name:left:gl":"Bahrain","alt_name:left:gn":"Tet\u00e3 Var\u00e1\u0129","name:left:br":"Bahrein","name:left:bs":"Bahrein","name:left:ba":"\u0411\u0430\u0445\u0440\u0435\u0301\u0439\u043d","name:left:bg":"\u0411\u0430\u0445\u0440\u0435\u0439\u043d","name:left:be":"\u0411\u0430\u0445\u0440\u044d\u0301\u0439\u043d","name:left:bn":"\u09ac\u09be\u09b9\u09b0\u09be\u0987\u09a8","name:left:bo":"\u0f56\u0fb7\u0f67\u0f0b\u0f62\u0f61\u0f72\u0f53\u0f0d","name:right":"\u0627\u0644\u0633\u0639\u0648\u062f\u064a\u0629","name:left:yo":"B\u00e1h\u00e1r\u00e1\u00ecn\u00ec","name:left:yi":"\u05d1\u05d0\u05db\u05e8\u05d9\u05d9\u05df","id:left":-378734,"name:right:fi":"Saudi-Arabia","name:left:io":"Bahrain","name:left:pa":"\u0a2c\u0a39\u0a3f\u0a30\u0a40\u0a28","name:left:pl":"Bahrajn","name:left:ie":"Bahrain","name:left:id":"Bahrain","name:right:km":"\u17a2\u17b6\u179a\u17c9\u17b6\u1794\u17ca\u17b8\u179f\u17b6\u17a2\u17bc\u178c\u17b8\u178f","name:left:pi":"\u092c\u0939\u0930\u0948\u0928","name:right:ko":"\uc0ac\uc6b0\ub514\uc544\ub77c\ube44\uc544","name:right:kn":"\u0cb8\u0ccc\u0ca6\u0cbf \u0c85\u0cb0\u0cc6\u0cac\u0cbf\u0caf","name:left:pt":"Bahrein","name:right:ku":"Erebistana Siy\u00fbd\u00ee","name:right:kw":"Arabi Saoudek","name:right:tk":"Saud Arabystany","name:right:ky":"\u0421\u0430\u0443\u0434 \u0410\u0440\u0430\u0431\u0438\u044f \u041f\u0430\u0434\u044b\u0448\u0430\u043b\u044b\u0433\u044b","name:left:zh-min-nan":"Bahrain","name:left:it":"Bahrein","name:left:is":"Barein","name:right:ta":"\u0b9a\u0bb5\u0bc2\u0ba4\u0bbf \u0b85\u0bb0\u0bc7\u0baa\u0bbf\u0baf\u0bbe","alt_name:left:as":"\u0995\u09bf\u0982\u09a1\u09ae \u0985\u09f1 \u09ac\u09be\u09b9\u09f0\u09c7\u0987\u09a8","name:right:de":"Saudi-Arabien","name:right:da":"Saudi-Arabien","name:left:rn":"Bahareyini","maritime_boundary":true,"name:right:dz":"\u0f66\u0f60\u0f74\u0f0b\u0f51\u0f72\u0f0b\u0f68\u0f7a\u0f0b\u0f62\u0f0b\u0f66\u0fa6\u0f72\u0f0b\u0f61\u0f0b","name:right:dv":"\u0790\u07a6\u0787\u07ab\u078b\u07a9 \u0787\u07a6\u0783\u07a6\u0784\u07a8\u0787\u07b0\u0794\u07a7","name:right:ht":"Arabi Sawoudit"},"arcs":[0]},{"type":"LineString","properties":{"name:kg":"Bahrain","name:ka":"\u10d1\u10d0\u10f0\u10e0\u10d4\u10d8\u10dc\u10d8","name:tr":"Bahreyn","name:kn":"\u0cac\u0cb9\u0cb0\u0cc7\u0ca8\u0ccd","name:km":"\u1794\u17b6\u179a\u17c9\u17c2\u1793","name:kl":"Bahrain","name:kk":"\u0411\u0430\u0445\u0440\u0435\u0439\u043d","name:tt":"\u0411\u04d9\u0445\u0440\u04d9\u0439\u043d","name:kw":"Bahreyn","name:tk":"Bahre\u00fdn","name:th":"\u0e1a\u0e32\u0e2b\u0e4c\u0e40\u0e23\u0e19","name:ti":"\u1263\u1205\u122c\u1295","name:ks":"\u0628\u062d\u0631\u06cc\u0656\u0646","name:to":"Paleini","name:tl":"Bahrain","name:ce":"\u0411\u0430\u0445\u044c\u0440\u0430\u0439\u043d","name:ta":"\u0baa\u0b95\u0bc1\u0bb0\u0bc8\u0ba9\u0bcd","name:tg":"\u0411\u0430\u04b3\u0440\u0430\u0439\u043d","name:ky":"\u0411\u0430\u0445\u0440\u0435\u0301\u0439\u043d","name:te":"\u0c2c\u0c39\u0c4d\u0c30\u0c2f\u0c3f\u0c28\u0c4d","name:cy":"Bahrein","name:hr":"Bahrein","name:da":"Bahrain","name:de":"Bahrain","name:dz":"\u0f56\u0f67\u0f0b\u0f62\u0f7a\u0f53\u0f0b","source":"openstreetmap.org","alt_name:ta":"\u0baa\u0bb9\u0bb0\u0bc8\u0ba9\u0bcd","name:cv":"\u0411\u0430\u0445\u0440\u0435\u0439\u043d","name:dv":"\u0784\u07a6\u0799\u07b0\u0783\u07a6\u0787\u07a8\u0782\u07b0","alt_name:tl":"Bahrein","name:lv":"Bahreina","name:lt":"Bahreinas","alt_name:de":"Bahrein","name:cs":"Bahrajn","name:ur":"\u0628\u062d\u0631\u06cc\u0646","name:lb":"Bahrain","name:la":"Baharina","name:ki":"Bahrain","name:uk":"\u0411\u0430\u0445\u0440\u0435\u0301\u0439\u043d","name:ug":"\u0628\u06d5\u06be\u0631\u06d0\u064a\u0649\u0646","name:li":"Bahrein","name:ln":"Bahrein","name:lo":"\u0e9a\u0eb2\u0ec0\u0ea5\u0e99","name:el":"\u039c\u03c0\u03b1\u03c7\u03c1\u03ad\u03b9\u03bd","name:eo":"Barejno","name:en":"Bahrain","name":"\u200f\u0627\u0644\u0628\u062d\u0631\u064a\u0646\u200e","name:kv":"\u0411\u0430\u0445\u0440\u0435\u0439\u043d","name:ee":"Bahrain nutome","name:ku":"Behreyn","name:eu":"Bahrain","name:et":"Bahrein","name:es":"Bar\u00e9in","name:ia":"Bahrain","name:rm":"Bahrain","name:rn":"Bahareyini","name:az":"B\u0259hreyn","name:ie":"Bahrain","name:id":"Bahrain","name:as":"\u09ac\u09be\u09b9\u09f0\u09c7\u0987\u09a8","name:pa":"\u0a2c\u0a39\u0a3f\u0a30\u0a40\u0a28","name:io":"Bahrain","name:is":"Barein","name:am":"\u1263\u1215\u122c\u1295","name:it":"Bahrein","name:an":"Bahrein","name:ru":"\u0411\u0430\u0445\u0440\u0435\u0301\u0439\u043d","name:rw":"Bahirayini","name:pl":"Bahrajn","name:af":"Bahrein","name:zu":"i-Bahrain","alt_name:rw":"Bahrayeni","alt_name:gn":"Tet\u00e3 Var\u00e1\u0129","kind_detail":"2","name:ca":"Bahrain","name:zh-yue":"\u5df4\u6797","name:zh":"\u5df4\u6797","name:so":"Baxrayn","name:sn":"Bahrain","name:sm":"Bahrain","name:sl":"Bahr\u00e1jn","name:sk":"Bahrajn","name:ja":"\u30d0\u30fc\u30ec\u30fc\u30f3","name:si":"\u0db6\u0dc4\u0dbb\u0dda\u0db1\u0dca","name:sh":"Bahrein","name:sg":"Bahr\u00e2ina","name:se":"Bahrain","name:sd":"\u0628\u062d\u0631\u064a\u0646","name:br":"Bahrein","name:bs":"Bahrein","name:bm":"Bareyini","name:bn":"\u09ac\u09be\u09b9\u09b0\u09be\u0987\u09a8","name:bo":"\u0f56\u0fb7\u0f67\u0f0b\u0f62\u0f61\u0f72\u0f53\u0f0d","name:sa":"\u092c\u0939\u0930\u0948\u0928","name:sw":"Bahrain","name:be":"\u0411\u0430\u0445\u0440\u044d\u0301\u0439\u043d","name:su":"Bahrain","name:bg":"\u0411\u0430\u0445\u0440\u0435\u0439\u043d","name:ss":"iBhaharayi","name:sr":"\u0411\u0430\u0445\u0440\u0435\u0438\u043d","name:sq":"Bahraini","alt_name:sv":"Bahrein","name:jv":"Bahrain","name:pt":"Bahrein","name:ps":"\u0628\u062d\u0631\u06cc\u0646","name:om":"Baahireen","alt_name:gl":"Bahrain","name:oc":"Bahrain","alt_name:gd":"Bairean;Bair\u00e8in;Bahrain","min_zoom":8.0,"name:ro":"Bahrain","name:ko":"\ubc14\ub808\uc778","name:zh-min-nan":"Bahrain","name:os":"\u0411\u0430\u0445\u0440\u0435\u0439\u043d","name:or":"\u0b2c\u0b3e\u0b39\u0b3e\u0b30\u0b3f\u0b28\u0b4d","alt_name:pt":"Bar\u00e9m;Barein;Bareine","name:pi":"\u092c\u0939\u0930\u0948\u0928","sort_rank":262,"name:ba":"\u0411\u0430\u0445\u0440\u0435\u0301\u0439\u043d","osm_relation":true,"alt_name:as":"\u0995\u09bf\u0982\u09a1\u09ae \u0985\u09f1 \u09ac\u09be\u09b9\u09f0\u09c7\u0987\u09a8","name:hi":"\u092c\u0939\u0930\u0940\u0928","name:sv":"Bahrain","name:he":"\u05d1\u05d7\u05e8\u05d9\u05d9\u05df","name:ha":"Baharain","old_name:el":"\u03a4\u03cd\u03bb\u03bf\u03c2","name:ht":"Barayn","name:hu":"Bahrein","name:qu":"Bahrayn","alt_name:yo":"Bahrain","kind":"country","name:ak":"Baren","alt_name:it":"Bahrain","name:yi":"\u05d1\u05d0\u05db\u05e8\u05d9\u05d9\u05df","name:yo":"B\u00e1h\u00e1r\u00e1\u00ecn\u00ec","name:mt":"Ba\u0127rejn","name:ms":"Bahrain","name:mr":"\u092c\u0939\u0930\u0948\u0928","name:my":"\u1018\u102c\u101b\u102d\u1014\u103a\u1038\u1014\u102d\u102f\u1004\u103a\u1004\u1036","official_name":"\u0645\u0645\u0644\u0643\u0629 \u0627\u0644\u0628\u062d\u0631\u064a\u0646","int_name":"al-Ba\u1e25rayn","name:mg":"Baharainy","name:ml":"\u0d2c\u0d39\u0d4d\u200c\u0d31\u0d48\u0d7b","name:vi":"Bahrain","name:mn":"\u0411\u0430\u0445\u0440\u0435\u0439\u043d","id":-378734,"name:mk":"\u0411\u0430\u0445\u0440\u0435\u0438\u043d","name:vo":"Bahru\u00e4ns","name:fa":"\u0628\u062d\u0631\u06cc\u0646","name:ff":"Bahreyn","name:fi":"Bahrain","name:uz":"Baxreyn","name:fo":"Barein","name:fr":"Bahre\u00efn","alt_name:es":"Bahr\u00e9in","name:fy":"Bachrein","name:hy":"\u0532\u0561\u0570\u0580\u0565\u0575\u0576","name:nl":"Bahrein","name:nn":"Bahrain","name:no":"Bahrain","name:na":"Bahrain","name:ne":"\u092c\u0939\u0930\u093e\u0907\u0928","name:wo":"Bahrayni","name:ga":"Bair\u00e9in","name:gd":"Bachrain","name:gn":"Var\u00e9\u0129","name:gl":"Bahrein","maritime_boundary":true,"name:gv":"Bahrain","name:gu":"\u0aac\u0ab9\u0ac7\u0ab0\u0ac0\u0aa8","name:lg":"Baareeni"},"arcs":[1]},{"type":"LineString","properties":{"name:ka":"\u10e1\u10d0\u10e3\u10d3\u10d8\u10e1 \u10d0\u10e0\u10d0\u10d1\u10d4\u10d7\u10d8","name:ko":"\uc0ac\uc6b0\ub514\uc544\ub77c\ube44\uc544","name:cv":"\u0421\u0430\u0443\u0434 \u0410\u0440\u0430\u0432\u0438\u0439\u0115","name:km":"\u17a2\u17b6\u179a\u17c9\u17b6\u1794\u17ca\u17b8\u179f\u17b6\u17a2\u17bc\u178c\u17b8\u178f","name:kl":"Saudi Arabia","name:cs":"Sa\u00fadsk\u00e1 Ar\u00e1bie","name:tt":"\u0421\u043e\u0433\u0443\u0434 \u0413\u0430\u0440\u04d9\u0431\u0441\u0442\u0430\u043d\u044b","name:kw":"Arabi Saoudek","name:kv":"\u0421\u0430\u0443\u0434\u0441\u0430 \u0410\u0440\u0430\u0432\u0438\u044f","name:ku":"Erebistana Siy\u00fbd\u00ee","name:tl":"Arabyang Saudi","name:ce":"\u0421\u0430\u0443\u0434\u0438\u0439\u043d \u0410\u0440\u0430\u0432\u0438","name:ta":"\u0b9a\u0bb5\u0bc2\u0ba4\u0bbf \u0b85\u0bb0\u0bc7\u0baa\u0bbf\u0baf\u0bbe","name:tg":"\u0410\u0440\u0430\u0431\u0438\u0441\u0442\u043e\u043d\u0438 \u0421\u0430\u0443\u0434\u04e3","name:ca":"Ar\u00e0bia Saudita","name:te":"\u0c38\u0c4c\u0c26\u0c40 \u0c05\u0c30\u0c47\u0c2c\u0c3f\u0c2f\u0c3e","name:cy":"Saudi Arabia","name:qu":"Sawud Arabya","name:da":"Saudi-Arabien","name:de":"Saudi-Arabien","name:dz":"\u0f66\u0f60\u0f74\u0f0b\u0f51\u0f72\u0f0b\u0f68\u0f7a\u0f0b\u0f62\u0f0b\u0f66\u0fa6\u0f72\u0f0b\u0f61\u0f0b","source":"openstreetmap.org","name:kn":"\u0cb8\u0ccc\u0ca6\u0cbf \u0c85\u0cb0\u0cc6\u0cac\u0cbf\u0caf","name:dv":"\u0790\u07a6\u0787\u07ab\u078b\u07a9 \u0787\u07a6\u0783\u07a6\u0784\u07a8\u0787\u07b0\u0794\u07a7","name:lv":"Sa\u016bda Ar\u0101bija","name:lt":"Saudo Arabija","name:uz":"Saudiya Arabistoni","name:kk":"\u0421\u0430\u0443\u0434 \u0410\u0440\u0430\u0431\u0438\u044f\u0441\u044b","name:ur":"\u0633\u0639\u0648\u062f\u06cc \u0639\u0631\u0628","name:lb":"Saudi-Arabien","name:la":"Arabia Saudiana","name:uk":"\u0421\u0430\u0443\u0434\u0456\u0432\u0441\u044c\u043a\u0430 \u0410\u0440\u0430\u0432\u0456\u044f","name:ug":"\u0633\u06d5\u0626\u06c7\u062f\u0649 \u0626\u06d5\u0631\u06d5\u0628\u0649\u0633\u062a\u0627\u0646","name:li":"Saoedi-Arabi\u00eb","name:ln":"Saudi Arabia","name:el":"\u03a3\u03b1\u03bf\u03c5\u03b4\u03b9\u03ba\u03ae \u0391\u03c1\u03b1\u03b2\u03af\u03b1","name:eo":"Sauda Arabujo","name:en":"Saudi Arabia","name":"\u0627\u0644\u0633\u0639\u0648\u062f\u064a\u0629","name:tk":"Saud Arabystany","name:th":"\u0e1b\u0e23\u0e30\u0e40\u0e17\u0e28\u0e0b\u0e32\u0e2d\u0e38\u0e14\u0e35\u0e2d\u0e32\u0e23\u0e30\u0e40\u0e1a\u0e35\u0e22","name:eu":"Saudi Arabia","name:et":"Saudi Araabia","name:es":"Arabia Saudita","name:ia":"Arabia Saudita","name:rm":"Arabia Saudita","name:az":"S\u0259udiyy\u0259 \u018fr\u0259bistan\u0131","name:ie":"Saudi Arabia","name:id":"Arab Saudi","name:zh-min-nan":"Saud \u00ea A-la-pek","name:io":"Saudia Arabia","name:av":"\u0421\u0430\u0433I\u0443\u0434\u0438\u044f\u0437\u0443\u043b \u0413I\u0430\u0440\u0430\u0431\u0438\u044f","name:is":"S\u00e1d\u00ed-Arab\u00eda","name:am":"\u1233\u12d1\u12f2 \u12a0\u1228\u1262\u12eb","name:it":"Arabia Saudita","name:an":"Arabia Saud\u00ed","name:ru":"\u0421\u0430\u0443\u0434\u043e\u0432\u0441\u043a\u0430\u044f \u0410\u0440\u0430\u0432\u0438\u044f","name:rw":"Arabiya Sawudite","name:af":"Saoedi-Arabi\u00eb","kind_detail":"2","name:ky":"\u0421\u0430\u0443\u0434 \u0410\u0440\u0430\u0431\u0438\u044f \u041f\u0430\u0434\u044b\u0448\u0430\u043b\u044b\u0433\u044b","name:zh-yue":"\u6c99\u5730\u963f\u62c9\u4f2f","name:zh":"\u6c99\u7279\u963f\u62c9\u4f2f","name:so":"Sacuudi Carabiya","name:sl":"Saudova Arabija","name:sk":"Saudsk\u00e1 Ar\u00e1bia","name:ja":"\u30b5\u30a6\u30b8\u30a2\u30e9\u30d3\u30a2","name:si":"\u0dc3\u0dc0\u0dd4\u0daf\u0dd2 \u0d85\u0dbb\u0dcf\u0db6\u0dd2\u0dba\u0dcf\u0dc0","name:sh":"Saudijska Arabija","name:se":"Saudi-Ar\u00e1bia","name:br":"Arabia Saoudat","name:bs":"Saudijska Arabija","name:bm":"Saudia Arabu ka Faamamara","name:bn":"\u09b8\u09cc\u09a6\u09bf \u0986\u09b0\u09ac","name:bo":"\u0f66\u0f60\u0f74\u0f0b\u0f51\u0f72\u0f0b\u0f68\u0f0b\u0f62\u0f0b\u0f54\u0f72\u0f0b\u0f61\u0f0d","name:sa":"\u0938\u090a\u0926\u0940 \u0905\u0930\u092c","name:sw":"Saudia","name:be":"\u0421\u0430\u0443\u0434\u0430\u045e\u0441\u043a\u0430\u044f \u0410\u0440\u0430\u0432\u0456\u044f","name:su":"Saudi Arabia","name:bg":"\u0421\u0430\u0443\u0434\u0438\u0442\u0441\u043a\u0430 \u0410\u0440\u0430\u0431\u0438\u044f","name:ss":"I-Arabhiya","name:ba":"\u0421\u04d9\u0493\u04af\u0434 \u0492\u04d9\u0440\u04d9\u0431\u0441\u0442\u0430\u043d\u044b","name:sq":"Arabia Saudite","name:jv":"Arab Saudi","name:pt":"Ar\u00e1bia Saudita","name:ps":"\u0633\u0639\u0648\u062f\u064a \u0639\u0631\u0628\u0633\u062a\u0627\u0646","name:oc":"Arabia Saudita","min_zoom":8.0,"name:ro":"Arabia Saudit\u0103","name:pa":"\u0a38\u0a09\u0a26\u0a40 \u0a05\u0a30\u0a2c","name:os":"\u0421\u0430\u0443\u0434\u044b \u0410\u0440\u0430\u0432\u0438","name:or":"\u0b38\u0b3e\u0b09\u0b26\u0b3f \u0b06\u0b30\u0b2c","name:pl":"Arabia Saudyjska","sort_rank":262,"name:sr":"\u0421\u0430\u0443\u0434\u0438\u0458\u0441\u043a\u0430 \u0410\u0440\u0430\u0431\u0438\u0458\u0430","osm_relation":true,"name:tr":"Suudi Arabistan","name:hi":"\u0938\u0909\u0926\u0940 \u0905\u0930\u092c","name:sv":"Saudiarabien","name:he":"\u05e2\u05e8\u05d1 \u05d4\u05e1\u05e2\u05d5\u05d3\u05d9\u05ea","name:hy":"\u054d\u0561\u0578\u0582\u0564\u0575\u0561\u0576 \u0531\u0580\u0561\u0562\u056b\u0561","name:ht":"Arabi Sawoudit","name:hu":"Sza\u00fad-Ar\u00e1bia","name:hr":"Saudijska Arabija","kind":"country","name:yi":"\u05e1\u05d0\u05d5\u05d3\u05d9 \u05d0\u05e8\u05d0\u05d1\u05d9\u05e2","name:yo":"S\u00e1\u00fad\u00ed Ar\u00e1b\u00ed\u00e0","name:mt":"Arabja Sawdija","alt_name:eo":"Sauda Arabio;Saud-Arabujo;Saud-Arabio","name:ms":"Arab Saudi","name:mr":"\u0938\u094c\u0926\u0940 \u0905\u0930\u0947\u092c\u093f\u092f\u093e","name:my":"\u1006\u1031\u102c\u103a\u1012\u102e\u1021\u102c\u101b\u1031\u1017\u103b\u1014\u102d\u102f\u1004\u103a\u1004\u1036","official_name":"\u200f\u0627\u0644\u0645\u0645\u0644\u0643\u0629 \u0627\u0644\u0639\u0631\u0628\u064a\u0629 \u0627\u0644\u0633\u0639\u0648\u062f\u064a\u0629\u200e","name:vi":"\u1ea2 R\u1eadp Saudi","name:ml":"\u0d38\u0d57\u0d26\u0d3f \u0d05\u0d31\u0d47\u0d2c\u0d4d\u0d2f","name:mn":"\u0421\u0430\u0443\u0434\u044b\u043d \u0410\u0440\u0430\u0431","id":-307584,"name:mk":"\u0421\u0430\u0443\u0434\u0438\u0441\u043a\u0430 \u0410\u0440\u0430\u0431\u0438\u0458\u0430","name:vo":"Sauda-Larab\u00e4n","name:fa":"\u0639\u0631\u0628\u0633\u062a\u0627\u0646 \u0633\u0639\u0648\u062f\u06cc","name:fi":"Saudi-Arabia","name:fo":"Saudi-Arabia","alt_name:vi":"\u1ea2 R\u1eadp X\u00ea \u00dat;A-r\u1eadp X\u00ea-\u00fat","name:fr":"Arabie saoudite","name:fy":"Sa\u00fbdy-Araabje","name:nl":"Saoedi-Arabi\u00eb","name:nn":"Saudi-Arabia","name:no":"Saudi-Arabia","name:na":"Taudiarabiya","name:ne":"\u0938\u093e\u0909\u0926\u0940 \u0905\u0930\u092c","name:wo":"Araabi Sawdit","name:nv":"\u00c1s\u00e1\u00ed Bik\u00e9yah Sa\u02bcood\u00ed","name:ga":"An Araib Sh\u00e1dach","name:gd":"Ar\u00e0ibia nan Sabhd","name:gn":"Aravia Saud\u00edta","name:gl":"Arabia Saud\u00ed","maritime_boundary":true,"name:gv":"Yn Araab Saudi","name:gu":"\u0ab8\u0abe\u0a89\u0aa6\u0ac0 \u0a85\u0ab0\u0ac7\u0aac\u0abf\u0aaf\u0abe"},"arcs":[2]},{"type":"LineString","properties":{"kind":"region","name:en":"Eastern Region","name":"\u0627\u0644\u0645\u0646\u0637\u0642\u0629 \u0627\u0644\u0634\u0631\u0642\u064a\u0629","sort_rank":256,"kind_detail":"4","name:cs":"provincie Damm\u00e1m","min_zoom":8.0,"name:de":"\u00d6stliche Provinz","source":"openstreetmap.org","maritime_boundary":true,"name:ru":"\u042d\u0448-\u0428\u0430\u0440\u043a\u0438\u0439\u044f","id":-3667294,"osm_relation":true},"arcs":[3]},{"type":"LineString","properties":{"alt_name:left:en":"Muharraq Governorate","name:right:ru":"\u0421\u0442\u043e\u043b\u0438\u0447\u043d\u0430\u044f \u043f\u0440\u043e\u0432\u0438\u043d\u0446\u0438\u044f","min_zoom":8.0,"name:left:bg":"\u041c\u0443\u0445\u0430\u0440\u0430\u043a","name:left:ru":"\u041c\u0443\u0445\u0430\u0440\u0430\u043a","id:right":-3028094,"id":-3028095,"osm_relation":true,"name:right":"\u0645\u062d\u0627\u0641\u0638\u0629 \u0627\u0644\u0639\u0627\u0635\u0645\u0629","kind":"region","name:left:en":"Muharraq Governorate","sort_rank":256,"kind_detail":"4","name:right:bg":"\u0421\u0442\u043e\u043b\u0438\u0447\u043d\u0430 \u043f\u0440\u043e\u0432\u0438\u043d\u0446\u0438\u044f","name":"\u0645\u062d\u0627\u0641\u0638\u0629 \u0627\u0644\u0645\u062d\u0631\u0642 - \u0645\u062d\u0627\u0641\u0638\u0629 \u0627\u0644\u0639\u0627\u0635\u0645\u0629","source":"openstreetmap.org","name:right:en":"Capital Governorate","id:left":-3028095,"name:left":"\u0645\u062d\u0627\u0641\u0638\u0629 \u0627\u0644\u0645\u062d\u0631\u0642"},"arcs":[4]},{"type":"MultiLineString","properties":{"alt_name:left:en":"Muharraq Governorate","name:right:ru":"\u0421\u0442\u043e\u043b\u0438\u0447\u043d\u0430\u044f \u043f\u0440\u043e\u0432\u0438\u043d\u0446\u0438\u044f","min_zoom":8.0,"name:left:bg":"\u041c\u0443\u0445\u0430\u0440\u0430\u043a","name:left:en":"Muharraq Governorate","name:left:ru":"\u041c\u0443\u0445\u0430\u0440\u0430\u043a","id:right":-3028094,"id":-3028095,"osm_relation":true,"name:right":"\u0645\u062d\u0627\u0641\u0638\u0629 \u0627\u0644\u0639\u0627\u0635\u0645\u0629","kind":"region","name":"\u0645\u062d\u0627\u0641\u0638\u0629 \u0627\u0644\u0645\u062d\u0631\u0642 - \u0645\u062d\u0627\u0641\u0638\u0629 \u0627\u0644\u0639\u0627\u0635\u0645\u0629","sort_rank":256,"kind_detail":"4","name:right:bg":"\u0421\u0442\u043e\u043b\u0438\u0447\u043d\u0430 \u043f\u0440\u043e\u0432\u0438\u043d\u0446\u0438\u044f","name:right:en":"Capital Governorate","source":"openstreetmap.org","maritime_boundary":true,"id:left":-3028095,"name:left":"\u0645\u062d\u0627\u0641\u0638\u0629 \u0627\u0644\u0645\u062d\u0631\u0642"},"arcs":[[5],[6]]},{"type":"LineString","properties":{"kind":"region","name:en":"Muharraq Governorate","name":"\u0645\u062d\u0627\u0641\u0638\u0629 \u0627\u0644\u0645\u062d\u0631\u0642","sort_rank":256,"kind_detail":"4","min_zoom":8.0,"source":"openstreetmap.org","maritime_boundary":true,"alt_name:en":"Muharraq Governorate","name:ru":"\u041c\u0443\u0445\u0430\u0440\u0430\u043a","name:bg":"\u041c\u0443\u0445\u0430\u0440\u0430\u043a","id":-3028095,"osm_relation":true},"arcs":[7]},{"type":"LineString","properties":{"name:right:ru":"\u042e\u0436\u043d\u0430\u044f \u043f\u0440\u043e\u0432\u0438\u043d\u0446\u0438\u044f","min_zoom":8.0,"name:left:bg":"\u0421\u0442\u043e\u043b\u0438\u0447\u043d\u0430 \u043f\u0440\u043e\u0432\u0438\u043d\u0446\u0438\u044f","name:left:ru":"\u0421\u0442\u043e\u043b\u0438\u0447\u043d\u0430\u044f \u043f\u0440\u043e\u0432\u0438\u043d\u0446\u0438\u044f","id:right":-2522430,"id":-3028094,"osm_relation":true,"name:right":"\u0627\u0644\u0645\u062d\u0627\u0641\u0638\u0629 \u0627\u0644\u062c\u0646\u0648\u0628\u064a\u0629","kind":"region","name:left:en":"Capital Governorate","sort_rank":256,"kind_detail":"4","name:right:bg":"\u042e\u0436\u043d\u0430 \u043f\u0440\u043e\u0432\u0438\u043d\u0446\u0438\u044f","name":"\u0645\u062d\u0627\u0641\u0638\u0629 \u0627\u0644\u0639\u0627\u0635\u0645\u0629 - \u0627\u0644\u0645\u062d\u0627\u0641\u0638\u0629 \u0627\u0644\u062c\u0646\u0648\u0628\u064a\u0629","source":"openstreetmap.org","name:right:en":"Southern Governorate","id:left":-3028094,"name:left":"\u0645\u062d\u0627\u0641\u0638\u0629 \u0627\u0644\u0639\u0627\u0635\u0645\u0629"},"arcs":[8]},{"type":"LineString","properties":{"kind":"region","name:en":"Capital Governorate","name":"\u0645\u062d\u0627\u0641\u0638\u0629 \u0627\u0644\u0639\u0627\u0635\u0645\u0629","sort_rank":256,"kind_detail":"4","source":"openstreetmap.org","min_zoom":8.0,"name:ru":"\u0421\u0442\u043e\u043b\u0438\u0447\u043d\u0430\u044f \u043f\u0440\u043e\u0432\u0438\u043d\u0446\u0438\u044f","name:bg":"\u0421\u0442\u043e\u043b\u0438\u0447\u043d\u0430 \u043f\u0440\u043e\u0432\u0438\u043d\u0446\u0438\u044f","id":-3028094,"osm_relation":true},"arcs":[9]},{"type":"LineString","properties":{"kind":"region","name:en":"Capital Governorate","name":"\u0645\u062d\u0627\u0641\u0638\u0629 \u0627\u0644\u0639\u0627\u0635\u0645\u0629","sort_rank":256,"kind_detail":"4","min_zoom":8.0,"source":"openstreetmap.org","maritime_boundary":true,"name:ru":"\u0421\u0442\u043e\u043b\u0438\u0447\u043d\u0430\u044f \u043f\u0440\u043e\u0432\u0438\u043d\u0446\u0438\u044f","name:bg":"\u0421\u0442\u043e\u043b\u0438\u0447\u043d\u0430 \u043f\u0440\u043e\u0432\u0438\u043d\u0446\u0438\u044f","id":-3028094,"osm_relation":true},"arcs":[10]},{"type":"LineString","properties":{"kind":"region","name:en":"Southern Governorate","name":"\u0627\u0644\u0645\u062d\u0627\u0641\u0638\u0629 \u0627\u0644\u062c\u0646\u0648\u0628\u064a\u0629","sort_rank":256,"kind_detail":"4","source":"openstreetmap.org","min_zoom":8.0,"name:ru":"\u042e\u0436\u043d\u0430\u044f \u043f\u0440\u043e\u0432\u0438\u043d\u0446\u0438\u044f","name:bg":"\u042e\u0436\u043d\u0430 \u043f\u0440\u043e\u0432\u0438\u043d\u0446\u0438\u044f","id":-2522430,"osm_relation":true},"arcs":[11]},{"type":"LineString","properties":{"kind":"region","name:en":"Southern Governorate","name":"\u0627\u0644\u0645\u062d\u0627\u0641\u0638\u0629 \u0627\u0644\u062c\u0646\u0648\u0628\u064a\u0629","sort_rank":256,"kind_detail":"4","min_zoom":8.0,"source":"openstreetmap.org","maritime_boundary":true,"name:ru":"\u042e\u0436\u043d\u0430\u044f \u043f\u0440\u043e\u0432\u0438\u043d\u0446\u0438\u044f","name:bg":"\u042e\u0436\u043d\u0430 \u043f\u0440\u043e\u0432\u0438\u043d\u0446\u0438\u044f","id":-2522430,"osm_relation":true},"arcs":[12]}]},"roads":{"type":"GeometryCollection","geometries":[{"type":"MultiLineString","properties":{"source":"openstreetmap.org","kind":"major_road","name:en":"Airport Avenue","sort_rank":380,"kind_detail":"primary","min_zoom":8.0},"arcs":[[23],[24]]},{"type":"LineString","properties":{"source":"openstreetmap.org","kind":"highway","sort_rank":383,"kind_detail":"motorway","ref":"10","min_zoom":8.0},"arcs":[25]},{"type":"MultiLineString","properties":{"kind":"highway","network":null,"sort_rank":383,"landuse_kind":"urban_area","source":"openstreetmap.org","min_zoom":8.0,"all_networks":[null],"kind_detail":"motorway","shield_text":"613","ref":"613","all_shield_texts":["613"]},"arcs":[[26],[27],[28],[29],[30],[31],[32],[33],[34],[35],[36],[37],[38],[39],[40]]},{"type":"MultiLineString","properties":{"source":"openstreetmap.org","kind":"major_road","name:en":"Shaikh Isa Bin Salman Highway","sort_rank":381,"kind_detail":"trunk","ref":"80M","min_zoom":8.0},"arcs":[[41],[42]]},{"type":"LineString","properties":{"kind":"major_road","name:en":"Khalid Bin Alwaleed Street","sort_rank":381,"landuse_kind":"urban_area","source":"openstreetmap.org","min_zoom":8.0,"kind_detail":"trunk","id":221114992},"arcs":[43]},{"type":"MultiLineString","properties":{"source":"openstreetmap.org","kind":"major_road","kind_detail":"trunk","sort_rank":381,"landuse_kind":"urban_area","ref":"1","min_zoom":8.0},"arcs":[[44],[45]]},{"type":"MultiLineString","properties":{"source":"openstreetmap.org","kind":"highway","landuse_kind":"urban_area","sort_rank":383,"kind_detail":"motorway","ref":"40","min_zoom":8.0},"arcs":[[46],[47]]},{"type":"MultiLineString","properties":{"source":"openstreetmap.org","kind":"major_road","name:en":"King Fahad Causeway","sort_rank":381,"kind_detail":"trunk","ref":"80M","min_zoom":8.0},"arcs":[[48],[49]]},{"type":"MultiLineString","properties":{"source":"openstreetmap.org","kind":"major_road","name:en":"Riffa Avenue","landuse_kind":"urban_area","sort_rank":380,"kind_detail":"primary","min_zoom":8.0},"arcs":[[50],[51]]},{"type":"MultiLineString","properties":{"source":"openstreetmap.org","kind":"major_road","name:en":"Estiqlal Highway","landuse_kind":"urban_area","sort_rank":380,"kind_detail":"primary","min_zoom":8.0},"arcs":[[52],[53]]},{"type":"MultiLineString","properties":{"source":"openstreetmap.org","kind":"highway","landuse_kind":"urban_area","sort_rank":383,"kind_detail":"motorway","ref":"95","min_zoom":8.0},"arcs":[[54],[55]]},{"type":"MultiLineString","properties":{"source":"openstreetmap.org","kind":"major_road","name:en":"Isa Town Gate Flyover","landuse_kind":"urban_area","sort_rank":380,"kind_detail":"primary","min_zoom":8.0},"arcs":[[56],[57]]},{"type":"LineString","properties":{"kind":"major_road","name:en":"Al Fatih Highway","sort_rank":380,"kind_detail":"primary","source":"openstreetmap.org","min_zoom":8.0,"alt_name:en":"Sheikh Abdullah Al-Khalifa Avenue","landuse_kind":"urban_area","id":46348373},"arcs":[58]},{"type":"MultiLineString","properties":{"kind":"major_road","name:en":"Shaikh Isa Bin Salman Highway","sort_rank":381,"landuse_kind":"urban_area","source":"openstreetmap.org","min_zoom":8.0,"kind_detail":"trunk","ref":"80M"},"arcs":[[59],[60]]},{"type":"MultiLineString","properties":{"kind":"major_road","network":null,"sort_rank":381,"landuse_kind":"urban_area","source":"openstreetmap.org","min_zoom":8.0,"kind_detail":"trunk","shield_text":"614","ref":"614"},"arcs":[[61],[62]]},{"type":"MultiLineString","properties":{"source":"openstreetmap.org","kind":"major_road","name:en":"Sheikh Khalifa Bin Salman Causeway","sort_rank":381,"kind_detail":"trunk","min_zoom":8.0},"arcs":[[63],[64]]},{"type":"MultiLineString","properties":{"kind":"major_road","name:en":"Sheikh Isa Bin Salman Avenue","sort_rank":381,"landuse_kind":"urban_area","source":"openstreetmap.org","min_zoom":8.0,"kind_detail":"trunk","ref":"34"},"arcs":[[65],[66]]},{"type":"MultiLineString","properties":{"source":"openstreetmap.org","kind":"major_road","name:en":"Sheikh Khalifa Bin Salman Causeway","kind_detail":"trunk","sort_rank":381,"landuse_kind":"urban_area","min_zoom":8.0},"arcs":[[67],[68]]},{"type":"MultiLineString","properties":{"source":"openstreetmap.org","kind":"highway","landuse_kind":"urban_area","sort_rank":383,"kind_detail":"motorway","ref":"7","min_zoom":8.0},"arcs":[[69],[70]]},{"type":"MultiLineString","properties":{"source":"openstreetmap.org","kind":"major_road","name:en":"King Hamad Highway","landuse_kind":"urban_area","sort_rank":380,"kind_detail":"primary","min_zoom":8.0},"arcs":[[71],[72]]},{"type":"MultiLineString","properties":{"source":"openstreetmap.org","kind":"major_road","name:en":"Arad Highway","sort_rank":380,"kind_detail":"primary","min_zoom":8.0},"arcs":[[73],[74]]},{"type":"MultiLineString","properties":{"source":"openstreetmap.org","kind":"major_road","name:en":"Al Ghous Highway","sort_rank":380,"kind_detail":"primary","min_zoom":8.0},"arcs":[[75],[76]]},{"type":"MultiLineString","properties":{"source":"openstreetmap.org","kind":"major_road","name:en":"Road 4607","sort_rank":380,"kind_detail":"primary","loc_name":"4607","min_zoom":8.0},"arcs":[[77],[78]]},{"type":"LineString","properties":{"source":"openstreetmap.org","kind":"major_road","sort_rank":380,"kind_detail":"primary","name:ar":"\u0634\u0627\u0631\u0639 \u0627\u0644\u0631\u064a\u0627\u0636","min_zoom":8.0,"id":47058698},"arcs":[79]},{"type":"MultiLineString","properties":{"source":"openstreetmap.org","kind":"highway","landuse_kind":"urban_area","sort_rank":383,"kind_detail":"motorway","ref":"1","min_zoom":8.0},"arcs":[[80],[81],[82],[83],[84],[85],[86],[87]]},{"type":"MultiLineString","properties":{"source":"openstreetmap.org","kind":"major_road","name:en":"Shaikh Salman Highway","landuse_kind":"urban_area","sort_rank":380,"kind_detail":"primary","min_zoom":8.0},"arcs":[[88],[89],[90],[91],[92],[93],[94],[95],[96],[97],[98],[99],[100],[101]]},{"type":"MultiLineString","properties":{"source":"openstreetmap.org","kind":"major_road","sort_rank":380,"kind_detail":"primary","ref":"617","min_zoom":8.0},"arcs":[[102],[103],[104]]},{"type":"MultiLineString","properties":{"source":"openstreetmap.org","kind":"major_road","landuse_kind":"urban_area","sort_rank":380,"kind_detail":"primary","min_zoom":8.0},"arcs":[[105],[106],[107],[108],[109],[110],[111],[112],[113],[114],[115],[116],[117],[118],[119],[120],[121],[122],[123],[124],[125],[126],[127],[128],[129],[130],[131],[132],[133],[134],[135],[136],[137],[138],[139],[140],[141],[142],[143],[144],[145],[146],[147],[148],[149],[150],[151],[152],[153],[154],[155],[156],[157],[158],[159],[160],[161],[162],[163],[164],[165],[166],[167],[168],[169],[170],[171],[172],[173],[174],[175],[176],[177],[178],[179],[180],[181],[182],[183],[184],[185],[186],[187],[188],[189],[190],[191],[192],[193],[194],[195],[196],[197],[198],[199],[200],[201],[202],[203],[204],[205],[206],[207],[208],[209],[210],[211],[212],[213],[214],[215],[216],[217],[218],[219],[220],[221],[222],[223],[224],[225],[226],[227],[228],[229],[230],[231],[232],[233],[234],[235],[236],[237],[238],[239],[240],[241],[242],[243],[244],[245],[246],[247],[248],[249],[250],[251],[252],[253],[254],[255],[256],[257],[258],[259],[260],[261],[262],[263],[264],[265],[266],[267],[268],[269],[270],[271],[272],[273],[274],[275],[276],[277],[278],[279],[280],[281],[282],[283],[284],[285],[286],[287],[288],[289],[290],[291],[292],[293],[294],[295],[296],[297],[298],[299],[300],[301],[302],[303],[304],[305],[306],[307],[308],[309],[310],[311],[312],[313],[314],[315],[316],[317],[318],[319],[320],[321],[322],[323],[324],[325],[326],[327],[328],[329],[330],[331],[332],[333],[334],[335],[336],[337],[338],[339],[340],[341],[342],[343],[344],[345],[346],[347],[348],[349],[350],[351],[352],[353],[354],[355],[356],[357],[358],[359],[360],[361],[362],[363],[364],[365],[366],[367],[368],[369],[370],[371],[372],[373],[374],[375],[376],[377],[378],[379],[380],[381],[382],[383],[384],[385],[386],[387],[388],[389],[390],[391],[392],[393],[394],[395],[396],[397],[398],[399],[400],[401],[402],[403],[404],[405],[406],[407],[408],[409],[410],[411],[412],[413],[414],[415],[416],[417],[418],[419],[420],[421],[422],[423],[424],[425],[426],[427],[428],[429],[430],[431],[432],[433],[434],[435],[436],[437],[438],[439],[440],[441],[442],[443],[444],[445],[446],[447],[448],[449],[450],[451],[452],[453],[454],[455],[456],[457],[458],[459],[460],[461],[462],[463],[464],[465],[466],[467],[468],[469],[470],[471],[472],[473],[474],[475],[476],[477],[478],[479],[480],[481],[482],[483],[484],[485],[486],[487],[488],[489],[490],[491],[492],[493],[494],[495],[496],[497],[498],[499],[500],[501],[502],[503],[504],[505],[506],[507],[508],[509],[510],[511],[512],[513],[514],[515],[516],[517],[518],[519],[520],[521],[522],[523],[524],[525],[526],[527],[528],[529],[530],[531],[532]]},{"type":"MultiLineString","properties":{"source":"openstreetmap.org","kind":"major_road","name:en":"Zallaq Highway","landuse_kind":"urban_area","sort_rank":380,"kind_detail":"primary","min_zoom":8.0},"arcs":[[533],[534]]},{"type":"MultiLineString","properties":{"source":"openstreetmap.org","kind":"highway","landuse_kind":"urban_area","sort_rank":383,"kind_detail":"motorway","min_zoom":8.0},"arcs":[[535],[536],[537],[538],[539],[540],[541],[542],[543],[544],[545],[546],[547],[548],[549],[550],[551],[552],[553],[554],[555],[556],[557],[558],[559],[560],[561],[562],[563],[564],[565],[566],[567],[568],[569],[570],[571],[572],[573],[574],[575],[576],[577],[578],[579],[580],[581],[582],[583],[584],[585],[586],[587],[588],[589],[590],[591],[592],[593],[594],[595],[596],[597],[598],[599],[600],[601],[602],[603],[604],[605]]},{"type":"LineString","properties":{"kind":"highway","sort_rank":383,"landuse_kind":"urban_area","source":"openstreetmap.org","min_zoom":8.0,"kind_detail":"motorway","ref":"\u0634\u0627\u0631\u0639 \u0627\u0644\u0645\u062f\u064a\u0646\u0629","id":493861571},"arcs":[606]},{"type":"MultiLineString","properties":{"source":"openstreetmap.org","kind":"major_road","name:en":"King Faisal Highway","sort_rank":381,"kind_detail":"trunk","min_zoom":8.0},"arcs":[[607],[608],[609],[610]]},{"type":"MultiLineString","properties":{"source":"openstreetmap.org","kind":"major_road","name:en":"Shaikh Khalifa Bin Salman Highway","kind_detail":"trunk","sort_rank":381,"landuse_kind":"urban_area","min_zoom":8.0},"arcs":[[611],[612],[613],[614],[615],[616],[617],[618],[619],[620],[621],[622]]},{"type":"MultiLineString","properties":{"source":"openstreetmap.org","kind":"major_road","name:en":"Shaik Isa Bin Salman Causeway","sort_rank":381,"kind_detail":"trunk","min_zoom":8.0},"arcs":[[623],[624]]},{"type":"MultiLineString","properties":{"source":"openstreetmap.org","kind":"major_road","sort_rank":380,"kind_detail":"primary","ref":"95","min_zoom":8.0},"arcs":[[625],[626],[627],[628],[629],[630],[631]]},{"type":"MultiLineString","properties":{"sort_rank":380,"kind_detail":"primary","min_zoom":8.0,"kind":"major_road","source":"openstreetmap.org"},"arcs":[[632],[633],[634],[635],[636],[637],[638],[639],[640],[641],[642],[643],[644],[645],[646],[647],[648],[649],[650],[651],[652],[653],[654],[655],[656],[657],[658],[659],[660],[661],[662],[663],[664],[665],[666],[667],[668],[669],[670],[671],[672],[673],[674],[675],[676],[677],[678],[679],[680],[681],[682],[683],[684],[685],[686],[687],[688],[689],[690],[691],[692],[693],[694],[695],[696],[697],[698],[699],[700],[701],[702],[703],[704],[705],[706],[707],[708],[709],[710],[711],[712],[713],[714],[715],[716],[717],[718],[719],[720],[721],[722],[723],[724],[725],[726],[727],[728],[729],[730],[731],[732],[733],[734],[735],[736],[737],[738],[739],[740],[741],[742],[743],[744],[745],[746],[747],[748],[749],[750],[751],[752],[753],[754],[755],[756],[757],[758],[759],[760],[761],[762],[763],[764],[765],[766],[767],[768],[769],[770],[771],[772],[773],[774],[775],[776],[777],[778],[779],[780],[781],[782],[783],[784],[785],[786],[787],[788],[789],[790],[791],[792],[793],[794],[795],[796],[797],[798],[799],[800],[801],[802],[803],[804],[805],[806],[807],[808],[809],[810],[811],[812],[813],[814],[815],[816],[817],[818],[819],[820],[821],[822],[823],[824],[825],[826],[827],[828],[829],[830],[831],[832],[833],[834],[835],[836],[837],[838],[839],[840],[841],[842],[843],[844],[845],[846],[847],[848],[849],[850],[851],[852],[853],[854],[855],[856],[857],[858],[859],[860],[861],[862],[863],[864],[865],[866],[867],[868],[869],[870],[871],[872],[873],[874],[875],[876],[877],[878],[879],[880],[881],[882],[883],[884],[885],[886],[887],[888],[889],[890],[891],[892],[893],[894],[895],[896],[897],[898],[899],[900],[901],[902],[903],[904],[905],[906],[907],[908],[909],[910],[911],[912],[913],[914],[915],[916],[917],[918],[919],[920],[921],[922],[923],[924],[925],[926],[927],[928],[929],[930],[931],[932],[933],[934],[935],[936],[937],[938],[939],[940],[941],[942],[943],[944],[945],[946],[947],[948],[949],[950],[951],[952],[953],[954],[955],[956],[957],[958],[959],[960],[961],[962],[963],[964],[965],[966],[967],[968],[969],[970],[971],[972],[973],[974],[975],[976],[977]]},{"type":"MultiLineString","properties":{"kind":"major_road","alt_name:en":"Al Muaskar Highway","sort_rank":380,"kind_detail":"primary","source":"openstreetmap.org","min_zoom":8.0,"name:en":"Muaskar Highway","landuse_kind":"urban_area"},"arcs":[[978],[979],[980],[981],[982]]},{"type":"MultiLineString","properties":{"source":"openstreetmap.org","kind":"major_road","name:en":"Shaikh Jaber Al Ahmed Al Subah Highway","sort_rank":380,"kind_detail":"primary","alt_name:en":"Sheikh Jabr Al Ahmed Al Subh Avenue","min_zoom":8.0},"arcs":[[983],[984]]},{"type":"LineString","properties":{"source":"openstreetmap.org","kind":"major_road","sort_rank":380,"kind_detail":"primary","ref":"522","min_zoom":8.0},"arcs":[985]},{"type":"MultiLineString","properties":{"source":"openstreetmap.org","kind":"major_road","name:en":"Al Fatih Highway","landuse_kind":"urban_area","sort_rank":380,"kind_detail":"primary","min_zoom":8.0},"arcs":[[986],[987],[988],[989],[990],[991]]},{"type":"MultiLineString","properties":{"source":"openstreetmap.org","kind":"major_road","name:en":"Wali Al-Ahd Highway","landuse_kind":"urban_area","sort_rank":380,"kind_detail":"primary","min_zoom":8.0},"arcs":[[992],[993],[994],[995],[996],[997],[998],[999],[1000],[1001],[1002]]},{"type":"MultiLineString","properties":{"source":"openstreetmap.org","kind":"major_road","kind_detail":"trunk","sort_rank":381,"landuse_kind":"urban_area","min_zoom":8.0},"arcs":[[1003],[1004],[1005],[1006],[1007],[1008],[1009],[1010]]},{"type":"LineString","properties":{"kind":"highway","network":null,"sort_rank":383,"landuse_kind":"urban_area","source":"openstreetmap.org","min_zoom":8.0,"all_networks":[null],"kind_detail":"motorway","shield_text":"613","all_shield_texts":["613"]},"arcs":[1011]},{"type":"MultiLineString","properties":{"kind":"major_road","name:en":"Shaikh Jaber Al Ahmed Al Subah Highway","sort_rank":380,"kind_detail":"primary","source":"openstreetmap.org","min_zoom":8.0,"alt_name:en":"Sheikh Jabr Al Ahmed Al Subh Avenue","landuse_kind":"urban_area"},"arcs":[[1012],[1013],[1014],[1015],[1016],[1017]]},{"type":"MultiLineString","properties":{"source":"openstreetmap.org","kind":"major_road","name:en":"Al-Estiqlal Highway","landuse_kind":"urban_area","sort_rank":380,"kind_detail":"primary","min_zoom":8.0},"arcs":[[1018],[1019],[1020],[1021],[1022]]},{"type":"MultiLineString","properties":{"source":"openstreetmap.org","kind":"major_road","landuse_kind":"aerodrome","sort_rank":380,"kind_detail":"primary","min_zoom":8.0},"arcs":[[1023],[1024],[1025],[1026]]},{"type":"MultiLineString","properties":{"source":"openstreetmap.org","kind":"major_road","sort_rank":380,"kind_detail":"primary","ref":"607","min_zoom":8.0},"arcs":[[1027],[1028],[1029],[1030],[1031],[1032],[1033],[1034],[1035],[1036]]},{"type":"MultiLineString","properties":{"sort_rank":383,"kind_detail":"motorway","min_zoom":8.0,"kind":"highway","source":"openstreetmap.org"},"arcs":[[1037],[1038],[1039],[1040],[1041],[1042],[1043],[1044],[1045],[1046],[1047],[1048],[1049],[1050],[1051],[1052],[1053],[1054],[1055],[1056],[1057],[1058],[1059],[1060],[1061],[1062],[1063],[1064],[1065],[1066],[1067],[1068],[1069],[1070],[1071],[1072],[1073],[1074],[1075],[1076],[1077],[1078],[1079],[1080],[1081],[1082],[1083],[1084],[1085],[1086],[1087],[1088],[1089],[1090],[1091],[1092],[1093],[1094],[1095],[1096],[1097],[1098],[1099],[1100],[1101],[1102],[1103],[1104],[1105],[1106],[1107],[1108],[1109],[1110],[1111],[1112],[1113],[1114],[1115],[1116],[1117],[1118],[1119],[1120]]},{"type":"MultiLineString","properties":{"source":"openstreetmap.org","kind":"highway","sort_rank":383,"kind_detail":"motorway","ref":"615","min_zoom":8.0},"arcs":[[1121],[1122],[1123],[1124],[1125],[1126],[1127],[1128],[1129]]},{"type":"MultiLineString","properties":{"kind":"major_road","network":null,"sort_rank":381,"kind_detail":"trunk","source":"openstreetmap.org","min_zoom":8.0,"shield_text":"614","ref":"614"},"arcs":[[1130],[1131]]},{"type":"MultiLineString","properties":{"source":"openstreetmap.org","kind":"major_road","name:en":"Shaikh Isa Bin Salman Highway","sort_rank":381,"kind_detail":"trunk","min_zoom":8.0},"arcs":[[1132],[1133]]},{"type":"MultiLineString","properties":{"source":"openstreetmap.org","kind":"major_road","name:en":"Shaikh Salman Highway","sort_rank":380,"kind_detail":"primary","min_zoom":8.0},"arcs":[[1134],[1135],[1136],[1137]]},{"type":"LineString","properties":{"kind":"major_road","name:en":"King Hamad Highway","sort_rank":380,"landuse_kind":"aerodrome","source":"openstreetmap.org","min_zoom":8.0,"kind_detail":"primary","id":257386855},"arcs":[1138]},{"type":"MultiLineString","properties":{"source":"openstreetmap.org","kind":"major_road","name:en":"Al Fatih Highway","sort_rank":380,"kind_detail":"primary","min_zoom":8.0},"arcs":[[1139],[1140],[1141],[1142],[1143],[1144],[1145],[1146],[1147],[1148],[1149],[1150]]},{"type":"MultiLineString","properties":{"source":"openstreetmap.org","kind":"major_road","name:en":"King Faisal Highway","kind_detail":"trunk","sort_rank":381,"landuse_kind":"urban_area","min_zoom":8.0},"arcs":[[1151],[1152],[1153],[1154],[1155],[1156],[1157]]},{"type":"MultiLineString","properties":{"source":"openstreetmap.org","kind":"major_road","alt_name:en":"Al Muaskar Highway","name:en":"Muaskar Highway","sort_rank":380,"kind_detail":"primary","min_zoom":8.0},"arcs":[[1158],[1159]]},{"type":"MultiLineString","properties":{"source":"openstreetmap.org","kind":"major_road","name:en":"Janabiyah Highway","kind_detail":"primary","sort_rank":380,"landuse_kind":"urban_area","min_zoom":8.0},"arcs":[[1160],[1161],[1162],[1163]]},{"type":"LineString","properties":{"kind":"major_road","sort_rank":380,"kind_detail":"primary","is_bicycle_related":true,"cycleway":"shared_lane","source":"openstreetmap.org","min_zoom":8.0,"id":441771451},"arcs":[1164]},{"type":"MultiLineString","properties":{"source":"openstreetmap.org","kind":"major_road","name:en":"Shaikh Khalifa Bin Salman Highway","sort_rank":381,"kind_detail":"trunk","min_zoom":8.0},"arcs":[[1165],[1166],[1167],[1168],[1169],[1170],[1171],[1172],[1173],[1174]]},{"type":"MultiLineString","properties":{"source":"openstreetmap.org","kind":"highway","name:en":"King Fahd Causeway","sort_rank":383,"kind_detail":"motorway","ref":"80M","min_zoom":8.0},"arcs":[[1175],[1176]]},{"type":"MultiLineString","properties":{"source":"openstreetmap.org","kind":"major_road","name:en":"Road 4625","sort_rank":380,"kind_detail":"primary","loc_name":"4625","min_zoom":8.0},"arcs":[[1177],[1178]]},{"type":"MultiLineString","properties":{"source":"openstreetmap.org","kind":"highway","sort_rank":383,"kind_detail":"motorway","ref":"80M","min_zoom":8.0},"arcs":[[1179],[1180]]},{"type":"LineString","properties":{"kind":"major_road","name:en":"Muaskar Highway","sort_rank":380,"landuse_kind":"urban_area","source":"openstreetmap.org","min_zoom":8.0,"kind_detail":"primary","id":484125284},"arcs":[1181]},{"type":"MultiLineString","properties":{"source":"openstreetmap.org","kind":"highway","sort_rank":383,"kind_detail":"motorway","ref":"7","min_zoom":8.0},"arcs":[[1182],[1183]]},{"type":"MultiLineString","properties":{"source":"openstreetmap.org","kind":"major_road","name:en":"King Hamad Highway","sort_rank":380,"kind_detail":"primary","min_zoom":8.0},"arcs":[[1184],[1185],[1186],[1187],[1188],[1189],[1190],[1191]]},{"type":"MultiLineString","properties":{"kind":"major_road","name:en":"Road 4625","sort_rank":380,"kind_detail":"primary","source":"openstreetmap.org","min_zoom":8.0,"landuse_kind":"urban_area","loc_name":"4625"},"arcs":[[1192],[1193]]},{"type":"MultiLineString","properties":{"source":"openstreetmap.org","kind":"highway","sort_rank":383,"kind_detail":"motorway","ref":"95","min_zoom":8.0},"arcs":[[1194],[1195],[1196],[1197],[1198],[1199],[1200],[1201]]},{"type":"MultiLineString","properties":{"source":"openstreetmap.org","kind":"highway","sort_rank":383,"kind_detail":"motorway","ref":"40","min_zoom":8.0},"arcs":[[1202],[1203],[1204],[1205],[1206],[1207],[1208],[1209],[1210],[1211],[1212],[1213],[1214],[1215]]},{"type":"MultiLineString","properties":{"source":"openstreetmap.org","kind":"major_road","sort_rank":380,"kind_detail":"primary","ref":"7","min_zoom":8.0},"arcs":[[1216],[1217]]},{"type":"MultiLineString","properties":{"source":"openstreetmap.org","kind":"major_road","name:en":"Shaikh Isa Bin Salman Highway","kind_detail":"trunk","sort_rank":381,"landuse_kind":"urban_area","min_zoom":8.0},"arcs":[[1218],[1219],[1220],[1221]]},{"type":"MultiLineString","properties":{"source":"openstreetmap.org","kind":"major_road","name:en":"Khalifa Al-Kabeer Highway","sort_rank":380,"kind_detail":"primary","min_zoom":8.0},"arcs":[[1222],[1223],[1224],[1225],[1226],[1227],[1228],[1229],[1230],[1231],[1232],[1233],[1234],[1235]]},{"type":"MultiLineString","properties":{"source":"openstreetmap.org","kind":"major_road","name:en":"Zallaq Highway","sort_rank":380,"kind_detail":"primary","min_zoom":8.0},"arcs":[[1236],[1237],[1238],[1239],[1240],[1241],[1242]]},{"type":"MultiLineString","properties":{"source":"openstreetmap.org","kind":"major_road","sort_rank":380,"kind_detail":"primary","is_bicycle_related":true,"min_zoom":8.0},"arcs":[[1243],[1244]]},{"type":"MultiLineString","properties":{"kind":"highway","network":null,"sort_rank":383,"kind_detail":"motorway","source":"openstreetmap.org","min_zoom":8.0,"all_networks":[null],"shield_text":"613","ref":"613","all_shield_texts":["613"]},"arcs":[[1245],[1246],[1247],[1248],[1249],[1250],[1251],[1252],[1253],[1254],[1255]]},{"type":"MultiLineString","properties":{"source":"openstreetmap.org","kind":"major_road","int_name":"King Abdul Aziz street, Jubail, saudi arabia","landuse_kind":"urban_area","sort_rank":380,"kind_detail":"primary","min_zoom":8.0},"arcs":[[1256],[1257]]}]},"earth":{"type":"GeometryCollection","geometries":[{"type":"MultiPolygon","properties":{"sort_rank":10,"source":"naturalearthdata.com","min_zoom":0.0,"kind":"earth","area":86054449387},"arcs":[[[1258]],[[1259]]]}]},"landuse":{"type":"GeometryCollection","geometries":[{"type":"MultiPolygon","properties":{"source":"naturalearthdata.com","kind":"urban_area","name":"","area":1341252296,"sort_rank":11,"min_zoom":4.0},"arcs":[[[1260]],[[1261],[1262]],[[1263]],[[1264]],[[1265]]]},{"type":"MultiPolygon","properties":{"source":"openstreetmap.org","kind":"aerodrome","tier":3,"area":60172244,"sort_rank":60,"min_zoom":8.0},"arcs":[[[1266]],[[1267]]]}]}},"type":"Topology","transform":{"translate":[49.21875,25.7998911821],"scale":[0.0003433228,0.0003074303]},"arcs":[[[3699,2551],[-295,-176],[-31,-399],[-102,-111],[-73,-394],[-16,-263],[-121,-298],[101,-652],[180,-196],[23,-62]],[[4096,2878],[-86,8],[-113,-216],[-198,-119]],[[3699,2551],[-148,1389],[-39,156]],[[2739,0],[-145,267],[-11,112],[28,38],[52,9],[-51,45],[12,66],[-31,49],[-17,22],[-113,8],[-1,43],[-54,8],[-36,55],[15,-49],[-60,-72],[-31,-5],[-22,30],[6,81],[-14,0],[-5,8],[19,-3],[-19,12],[-2,12],[19,-19],[1,182],[18,17],[16,-24],[2,19],[-47,16],[-6,32],[51,-32],[-58,46],[-15,47],[96,249],[35,38],[76,-53],[55,-189],[45,-14],[77,-111],[-3,-112],[67,8],[-9,-52],[25,-5],[-45,7],[0,-38],[71,31],[3,32],[-32,2],[19,11],[9,-8],[2,4],[-17,50],[34,89],[-2,136],[40,8],[-36,13],[19,119],[69,-53],[-27,-42],[107,111],[-20,14],[21,5],[2,97],[-21,40],[25,18],[-12,93],[17,104],[26,27],[-28,113],[30,3],[-36,79],[47,13],[-13,23],[-44,-14],[-4,44],[-26,-10],[-19,37],[55,57],[-15,24],[-74,-42],[-18,33],[37,88],[-6,67],[56,25],[20,55],[-9,2],[7,25],[2,10],[-2,2],[-21,-89],[-45,19],[31,10],[13,63],[-35,-49],[18,75],[-23,16],[-30,-84],[9,114],[18,-1],[-19,2],[-31,-154],[37,-13],[-88,-167],[-92,47],[10,196],[-43,0],[-22,-115],[-22,-15],[-23,82],[24,13],[-19,-1],[-5,-7],[-3,-15],[-23,11],[-7,-42],[-34,-15],[-14,16],[23,13],[-1,6],[-28,-3],[-48,79],[-25,-5],[-7,119],[-48,58],[23,-23],[-1,25],[-26,7],[0,49],[46,-75],[141,-25],[-22,36],[36,66],[-34,97],[-149,-35],[-19,-62],[-21,169],[-22,17],[47,89],[-32,-33],[8,30],[-64,-7],[19,32],[-38,-5],[24,272],[38,-1],[32,-60],[8,-101],[1,27],[48,-106],[84,60],[98,-11],[15,-24],[48,19],[116,-185],[6,42],[-121,156],[-48,29],[-3,35],[-91,57],[-224,315],[-102,62],[-25,42],[-125,5],[-9,25],[-12,-21],[-98,14],[-68,50],[43,81],[-42,-78],[-164,67],[30,7],[-36,-7],[0,1],[-31,24],[-1,4],[16,34],[2,6],[-3,5],[-17,-45],[3,-5],[30,-23],[-56,30],[29,40],[-35,-28],[-101,100],[-94,43],[-4,12],[23,19],[-2,11],[-25,-25],[-30,42],[11,30],[31,-1],[-29,3],[-41,-19],[-26,27],[-4,31],[22,1],[-17,61],[36,8],[3,-18],[5,9],[10,4],[33,33],[6,20],[-48,-56],[15,63],[-32,-32],[-39,1],[-20,21],[16,13],[-1,5],[-48,-39],[-47,110],[-37,-10],[-4,3],[22,13]],[[3940,1558],[141,-167]],[[3553,2464],[314,-791],[73,-115]],[[4081,1391],[15,-18]],[[4096,2878],[-86,8],[-113,-216],[-344,-206]],[[3839,1258],[88,-59],[-15,-22],[55,-68],[41,7],[25,-62],[47,27],[-10,31],[26,43]],[[3774,1534],[2,-86],[-38,8],[1,-22],[38,2],[6,-77],[47,-7],[9,-94]],[[3553,2464],[-125,-75],[343,-751],[3,-104]],[[3839,1258],[1,-116],[-85,2],[29,-299],[-47,-8],[3,52],[-153,-38]],[[3587,851],[-497,-115],[72,-478],[180,-196],[23,-62]],[[2717,0],[-28,53],[-69,168],[-31,153],[58,61],[0,22],[-32,58],[-15,58],[-29,44],[-74,18],[-18,0],[-9,4],[-3,10],[0,20],[-3,25],[-9,3],[-12,-3],[-16,7],[-33,42],[-20,16],[-28,9],[12,-54],[-21,-49],[-42,-25],[-49,17],[21,50],[-3,47],[-11,46],[-7,48],[10,24],[20,14],[20,7],[10,8],[-5,31],[-27,47],[-6,24],[-17,16],[-31,42],[-15,44],[32,20],[24,21],[76,148],[33,11],[39,-21],[35,-36],[23,-32],[11,-25],[6,-22],[6,-90],[9,-8],[13,0],[16,-12],[24,-25],[27,-21],[27,-26],[20,-39],[4,-48],[-1,-52],[13,-46],[45,-34],[27,89],[23,127],[7,126],[-18,82],[26,35],[31,12],[22,-17],[2,-50],[57,36],[30,65],[11,77],[1,355],[-21,148],[-51,111],[-86,76],[-250,87],[-53,33],[-48,47],[-32,53],[-79,247],[-4,55],[12,199],[-8,16],[-29,31],[-21,31],[-9,36],[-1,39],[2,41],[14,52],[26,55],[26,21],[22,-120],[29,-37],[41,-14],[159,-20],[70,-44],[132,-118],[-10,84],[-48,53],[-212,154],[-50,89],[-146,198],[-84,83],[-90,52],[-72,10],[-68,-4],[-65,7],[-113,83],[-181,84],[-30,23],[-43,44],[-26,21],[-83,37],[-26,20],[-85,106],[-142,222],[2923,0],[0,-2517],[-68,-21],[-6,-52],[37,-70],[25,10],[12,-2],[0,-229],[-15,39],[-44,-35],[-29,-47],[-126,111],[41,15],[83,-12],[27,8],[17,34],[0,1],[-7,13],[-6,13],[-21,30],[-12,42],[-20,13],[-120,-48],[-38,17],[-46,22],[-37,7],[-62,2],[-3,0],[-38,-19],[-21,-37],[-34,-154],[-2,-53],[12,-40],[49,-87],[45,-121],[16,-122],[-15,-47],[-16,-48],[-57,-109],[21,-90],[127,-145],[58,-90],[46,-105],[34,-108],[12,-65],[-1198,0]],[[3465,1209],[-31,10],[-44,-49],[-6,-66],[16,-52],[56,3],[53,-14],[-6,49],[-7,45],[0,56],[-31,18]],[[3943,0],[64,107],[26,71],[44,358],[6,287],[-17,189],[30,8],[0,-1020],[-153,0]],[[2717,0],[-28,53],[-69,168],[-31,153],[58,61],[0,22],[-32,58],[-15,58],[-29,44],[-74,18],[-18,0],[-9,4],[-3,10],[0,20],[-3,25],[-9,3],[-12,-3],[-16,7],[-33,42],[-20,16],[-28,9],[12,-54],[-21,-49],[-42,-25],[-49,17],[21,50],[-3,47],[-11,46],[-7,48],[10,24],[20,14],[20,7],[10,8],[-5,31],[-27,47],[-6,24],[-17,16],[-31,42],[-15,44],[32,20],[24,21],[76,148],[33,11],[39,-21],[35,-36],[23,-32],[11,-25],[6,-22],[6,-90],[9,-8],[13,0],[16,-12],[24,-25],[27,-21],[27,-26],[20,-39],[4,-48],[-1,-52],[13,-46],[45,-34],[27,89],[23,127],[7,126],[-18,82],[26,35],[31,12],[22,-17],[2,-50],[57,36],[30,65],[11,77],[1,355],[-21,148],[-51,111],[-86,76],[-250,87],[-53,33],[-48,47],[-32,53],[-79,247],[-4,55],[12,199],[-8,16],[-29,31],[-21,31],[-9,36],[-1,39],[2,41],[14,52],[26,55],[26,21],[22,-120],[29,-37],[41,-14],[159,-20],[70,-44],[132,-118],[-10,84],[-48,53],[-212,154],[-50,89],[-146,198],[-84,83],[-90,52],[-72,10],[-68,-4],[-65,7],[-113,83],[-181,84],[-30,23],[-43,44],[-26,21],[-83,37],[-26,20],[-85,106],[-142,222]],[[3882,1283],[41,15],[83,-12],[27,8],[17,34],[0,1],[-7,13],[-6,13],[-21,30],[-12,42],[-20,13],[-120,-48],[-38,17],[-46,22],[-37,7],[-62,2],[-3,0],[-38,-19],[-21,-37],[-34,-154],[-2,-53],[12,-40],[49,-87],[45,-121],[16,-122],[-15,-47],[-16,-48],[-57,-109],[21,-90],[127,-145],[58,-90],[46,-105],[34,-108],[12,-65]],[[3943,0],[64,107],[26,71],[44,358],[6,287],[-17,189],[30,8]],[[4096,1215],[-15,39],[-44,-35],[-29,-47],[-126,111]],[[3434,1219],[31,-10],[31,-18],[0,-56],[7,-45],[6,-49],[-53,14],[-56,-3],[-16,52],[6,66],[44,49]],[[4028,1558],[-6,-52],[37,-70],[25,10],[12,-2]],[[4096,1579],[-68,-21]],[[4033,1499],[56,25]],[[4089,1526],[-56,-27]],[[2247,1410],[1,1]],[[1148,3871],[-95,11]],[[1054,3881],[91,-11]],[[1174,3852],[14,-14],[7,-7],[7,-8],[10,-11]],[[1212,3812],[14,-16],[14,-16]],[[1455,3628],[-26,30],[-2,2]],[[1427,3660],[-117,74],[-48,28],[-19,17],[-18,20],[-13,13]],[[1212,3812],[-36,36]],[[1329,3723],[86,-50],[4,-4],[8,-9]],[[1427,3660],[2,-3],[24,-28]],[[2129,2497],[18,-90]],[[2149,2406],[-19,95]],[[2178,2343],[55,-84],[206,-211],[33,-62],[65,-111]],[[2537,1875],[-99,175],[-260,294]],[[2595,1732],[6,-16]],[[2601,1716],[-5,17]],[[3537,1203],[52,5]],[[3589,1209],[-52,-5]],[[2824,1819],[50,25]],[[1206,3892],[0,-1]],[[1207,3891],[0,1]],[[2566,1908],[-50,7],[-52,-37]],[[2467,1878],[49,36],[50,-7]],[[3537,1204],[-175,35],[-126,8]],[[3239,1246],[14,-2],[109,-6],[148,-39],[27,4]],[[3843,1085],[132,-50]],[[3975,1035],[-132,51]],[[3912,1178],[35,-35]],[[3947,1144],[-35,34]],[[2338,1901],[1,-1]],[[2340,1899],[-1,2]],[[3872,1194],[-24,34]],[[3849,1225],[22,-31]],[[4030,1311],[-8,10]],[[3589,1208],[56,5]],[[3645,1213],[-56,-4]],[[2410,2987],[-37,48],[-71,24]],[[2302,3059],[71,-25],[37,-47]],[[4042,1312],[54,45]],[[4096,1358],[-54,-45]],[[3612,1212],[-4,-1]],[[3606,1211],[8,1]],[[4042,1313],[-14,-3]],[[4028,1310],[14,2]],[[1053,3882],[-41,-2]],[[1013,3879],[41,2]],[[3998,1049],[67,-161]],[[4065,888],[1,3],[-66,159]],[[4096,1492],[-6,-5]],[[4091,1487],[5,4]],[[4033,1499],[3,-28]],[[4036,1471],[-3,28]],[[3985,1462],[-6,5],[-18,6],[-12,-34]],[[3949,1440],[35,22]],[[2480,2462],[37,14]],[[1138,4096],[8,-9],[7,-7]],[[1153,4080],[50,-51],[1,-10]],[[1204,4019],[7,-47],[-5,-25],[0,-55]],[[1207,3892],[0,55],[4,24],[1,38],[-8,10]],[[1204,4019],[-51,61]],[[1153,4080],[-6,7],[-8,9]],[[1206,3891],[5,-76]],[[1214,3820],[-7,71]],[[3830,1306],[27,-105]],[[3857,1201],[-27,105]],[[3835,1055],[2,-9]],[[3837,1059],[-2,-3]],[[3837,1046],[-2,9]],[[3836,1055],[2,4]],[[3837,1045],[7,-32]],[[3840,1068],[-3,-8]],[[3845,1013],[-7,32]],[[3838,1059],[3,9]],[[3842,1085],[-2,-16]],[[3841,1069],[2,16]],[[3857,1199],[-15,-113]],[[3843,1086],[15,113]],[[2371,1310],[-85,-103],[1,-76],[-46,-76],[-3,-69]],[[2240,983],[15,-19],[-13,20]],[[2241,987],[3,71],[43,70],[-1,77],[85,104]],[[1126,4096],[-160,-148]],[[966,3947],[161,149]],[[1234,370],[37,11],[-7,95]],[[1264,475],[7,-93],[-37,-12]],[[1426,3654],[1,0]],[[1433,3659],[0,1]],[[1434,3666],[-11,-15],[13,14]],[[2289,2498],[-158,-30]],[[2131,2468],[158,29]],[[2265,2490],[11,-29]],[[2276,2461],[14,-34]],[[2290,2427],[0,-1]],[[2290,2426],[4,-9],[0,-1]],[[2294,2416],[47,-81]],[[2340,2337],[-43,76],[-3,3]],[[2294,2416],[-3,3],[-2,6]],[[2289,2425],[-1,1]],[[2288,2426],[-12,35]],[[2276,2461],[-11,30]],[[2309,2436],[-18,-9],[-1,0]],[[2290,2427],[-2,-1]],[[2288,2426],[-18,-6]],[[2270,2420],[15,4],[4,1]],[[2289,2425],[1,1]],[[2290,2426],[1,0],[18,9]],[[2302,2002],[14,4],[77,43]],[[2393,2049],[1,0]],[[2394,2049],[1,1]],[[2395,2050],[-2,-1]],[[2393,2049]],[[2393,2049],[-78,-43],[-13,-4]],[[2312,2154],[1,1]],[[2313,2155],[49,38]],[[2362,2193],[1,1],[9,4]],[[2372,2198],[2,1]],[[2374,2199],[11,5]],[[2385,2204],[11,6],[7,2]],[[2395,2047],[-1,2]],[[2394,2049],[-1,0]],[[2393,2049],[-1,2]],[[2392,2051],[-15,20]],[[2377,2071],[-37,48],[-27,36]],[[2313,2155]],[[2371,2198],[1,0]],[[2372,2198]],[[2372,2198],[1,0]],[[2372,2201],[0,-2]],[[2373,2198],[1,1]],[[2374,2199]],[[2374,2199],[0,1]],[[2377,2071]],[[2377,2071],[-2,1]],[[2450,1973],[-1,0]],[[2449,1973],[-50,-29],[-15,-9]],[[2392,2047],[2,0]],[[2656,2072]],[[2656,2072],[-37,17]],[[2619,2089],[0,1]],[[2619,2090],[-29,0],[-8,-1]],[[2582,2089],[-67,-3]],[[2515,2086],[-1,0]],[[2514,2086],[-13,-1]],[[2501,2085],[-31,-1]],[[2470,2084],[-5,0]],[[2465,2084],[-1,0]],[[2464,2084]],[[2464,2084],[-29,-2],[-12,-6],[-7,-7],[-24,-18]],[[2392,2051]],[[2395,2047],[0,3]],[[2451,1975],[0,1]],[[2451,1976],[-6,6],[-41,54],[-9,11]],[[2395,2050],[28,25],[42,6]],[[2465,2081]],[[2465,2081]],[[2465,2081],[6,1]],[[2471,2082],[30,3]],[[2501,2085],[13,2]],[[2514,2087],[1,0]],[[2515,2087],[42,6]],[[2400,2211],[-2,0],[-13,-7]],[[2385,2204],[-11,-5]],[[2374,2199],[-2,-1]],[[2372,2198],[-10,-5]],[[2362,2193],[-6,-2],[-44,-37],[27,-35],[54,-70]],[[2393,2049]],[[2393,2049],[10,-14],[15,-20],[27,-34],[5,-6]],[[2450,1975],[0,-1]],[[2401,1943],[50,28]],[[2425,2009],[-5,6]],[[2628,2078],[-5,0]],[[2623,2078],[-7,0]],[[2616,2078]],[[2616,2078],[-67,-1],[-24,-13]],[[2525,2064],[-3,-2]],[[2522,2062]],[[2522,2062],[-2,-1]],[[2520,2061],[-28,-16],[-7,-3]],[[2485,2042],[-2,-1]],[[2483,2041],[-3,-1]],[[2480,2040],[-1,0]],[[2479,2040],[-26,-11],[-7,11]],[[2449,1970],[-1,2]],[[2450,1975]],[[2450,1975],[-1,-2]],[[2449,1973],[0,-1]],[[2454,1975]],[[2454,1975],[-3,1]],[[2451,1976],[-1,0]],[[2457,1977],[-3,-2]],[[2454,1975],[-2,0]],[[2454,1973],[9,5]],[[2454,1975],[1,-1]],[[2455,2141],[4,-26]],[[2455,2156],[-1,-11],[6,-34],[2,-12]],[[2462,2099],[2,-14],[0,-1]],[[2464,2084],[0,-1]],[[2464,2083],[1,-1]],[[2465,2082],[0,-1]],[[2465,2081],[18,-40]],[[2483,2041],[1,-3]],[[2484,2038],[12,-28]],[[2496,2010],[1,-2],[0,1]],[[2497,2009],[-1,2]],[[2496,2011],[-10,29]],[[2486,2040],[-1,2]],[[2485,2042],[-14,40]],[[2471,2082],[-1,2]],[[2470,2084],[-9,27],[-5,45]],[[2460,2115],[-4,26]],[[2457,2018],[24,18]],[[2481,2036],[1,0]],[[2482,2036],[2,2]],[[2484,2038],[2,2]],[[2486,2040],[7,5],[27,16]],[[2520,2061],[2,1]],[[2522,2062],[28,15],[65,0]],[[2615,2077],[1,0]],[[2616,2077],[2,0]],[[2618,2077],[2,0]],[[2620,2077],[7,0]],[[2627,2077],[3,0]],[[2462,2099]],[[2462,2099],[1,-6],[1,-9]],[[2464,2084],[0,-1]],[[2464,2083],[1,-2]],[[2465,2081],[0,-2],[1,-7]],[[2467,2072],[-2,7],[0,2]],[[2465,2081],[0,1]],[[2465,2082],[0,2]],[[2465,2084],[-2,9],[-1,6]],[[2487,1993],[-14,0]],[[2487,2028],[-4,5],[-1,3]],[[2482,2036],[-2,4]],[[2480,2040],[-2,4],[-5,7]],[[2474,2048],[3,-5],[2,-3]],[[2479,2040],[2,-4]],[[2481,2036],[2,-3],[3,-5]],[[2480,1981],[1,7]],[[2485,1979],[-2,11],[18,10]],[[2501,2000],[0,1]],[[2501,2001],[1,0]],[[2502,2001]],[[2502,2001],[10,6],[21,11],[3,2],[1,1]],[[2537,2021],[1,0]],[[2538,2021],[24,14],[14,8],[23,-3]],[[2498,1999],[-11,-6]],[[2491,1995],[-4,-2]],[[2489,1994],[9,5]],[[2495,2012],[1,-2]],[[2496,2010],[1,-1]],[[2497,2009],[3,-5],[1,-3]],[[2501,2001],[1,-2]],[[2502,1999],[5,-9]],[[2507,1990],[1,-1]],[[2508,1990],[-5,9],[-1,1]],[[2502,2000],[0,1]],[[2502,2001],[-2,3],[-4,7]],[[2496,2011],[-1,1]],[[2500,2003],[1,-3]],[[2501,2000],[1,-1]],[[2500,2002],[0,-2]],[[2500,2000],[2,-1]],[[2502,2000],[0,1]],[[2502,2001],[-2,2]],[[2502,2002],[-1,0]],[[2502,2000]],[[2502,2000],[0,-1]],[[2502,1999]],[[2502,1999],[5,-9]],[[2507,1990],[9,-16],[23,-40],[11,-20],[24,-37]],[[2502,2000],[1,1]],[[2575,1877],[-73,123]],[[2600,2040],[-13,5],[-11,-2],[-38,-21],[0,-1]],[[2538,2021],[-1,0]],[[2537,2021],[-1,0],[-3,-2],[-2,-1],[-11,-6],[-15,-9]],[[2505,2003],[8,5]],[[2509,2135],[1,-19]],[[2510,2115],[0,-9],[3,-17],[1,-2]],[[2514,2087],[0,-1]],[[2514,2086],[2,-3],[4,-22]],[[2520,2061]],[[2520,2061],[4,-18],[0,-2]],[[2524,2041],[0,-5]],[[2524,2036],[0,-21]],[[2525,2038],[0,1]],[[2525,2039],[0,1]],[[2525,2040],[0,3],[-3,19]],[[2522,2062]],[[2522,2062],[0,1]],[[2522,2063],[-1,6],[-6,17]],[[2515,2086],[0,1]],[[2515,2087],[-1,2],[-3,25]],[[2511,2116],[2,17]],[[2523,2064],[-1,-1]],[[2522,2063],[0,-1]],[[2522,2062]],[[2523,2062],[1,-1]],[[2525,2064]],[[2525,2064],[-2,0]],[[2524,2015],[-1,-1]],[[2525,2038],[-1,-2]],[[2524,2036]],[[2524,2041]],[[2524,2041],[1,-2]],[[2525,2039],[13,-18]],[[2538,2021]],[[2538,2021],[14,-20],[22,-33]],[[2574,1968],[6,-9],[0,-1],[-1,-45]],[[2579,1913],[-1,-11]],[[2578,1902],[0,-2]],[[2578,1900],[0,-4],[0,-3]],[[2578,1893],[1,-15]],[[2524,2062],[0,1]],[[2524,2015],[1,20]],[[2525,2035],[0,2]],[[2525,2035]],[[2525,2035],[1,0]],[[2527,2039],[-2,1]],[[2525,2040]],[[2581,1878],[0,81],[-7,9]],[[2574,1968],[-37,53]],[[2537,2021]],[[2537,2021],[-12,17]],[[2538,1875],[-8,14]],[[2545,2008],[-2,-1]],[[2578,1896],[0,-3]],[[2578,1893],[0,-1]],[[2579,1900],[-1,0]],[[2578,1900]],[[2578,1902]],[[2578,1902],[1,0]],[[2579,1914],[0,-1]],[[2579,1913],[0,-2]],[[2579,1890],[0,3]],[[2579,1920],[0,-38]],[[2579,1882],[0,-4]],[[2579,1878],[0,4]],[[2579,1882],[1,30]],[[2580,1912],[0,10]],[[2579,1911],[1,1]],[[2580,1912],[0,2]],[[2580,2090],[2,-1]],[[2582,2089],[34,-9]],[[2616,2080],[1,0]],[[2617,2080],[6,-2]],[[2623,2078],[4,-1]],[[2627,2077],[6,-2]],[[2633,2075],[2,0]],[[2635,2075],[20,-6]],[[2613,1954],[-19,46],[22,77]],[[2616,2077],[0,1]],[[2616,2078],[1,2]],[[2617,2080],[2,9]],[[2619,2089],[1,2]],[[2619,2091],[0,-1]],[[2619,2090],[-3,-10]],[[2616,2080],[0,-2]],[[2616,2078],[-1,-1]],[[2615,2077],[-21,-78],[20,-48]],[[2618,2077]],[[2618,2077]],[[2620,2083],[11,-6]],[[2631,2077],[4,-2]],[[2635,2075],[19,-10]],[[2654,2065],[2,-2]],[[2656,2063],[82,-43],[3,-1],[5,-3]],[[2746,2016]],[[2746,2016],[41,-28],[87,-145],[17,-88]],[[2648,2065],[-15,10]],[[2633,2075],[-2,2]],[[2631,2077],[-11,8]],[[2620,2077]],[[2620,2077]],[[2621,2084],[-1,0]],[[2665,1562],[-39,-15]],[[2626,1546],[39,15]],[[2646,2065],[0,-2]],[[2646,2063],[2,1]],[[2656,2070],[0,-1]],[[2656,2069],[-2,-4]],[[2654,2065],[-1,-4],[-5,3]],[[2648,2064],[-1,1]],[[2648,2064]],[[2648,2064],[1,1]],[[2657,2058],[-2,2]],[[2655,2071],[1,-1]],[[2656,2070],[-1,1]],[[2655,2069],[1,0]],[[2656,2069],[0,-1]],[[2656,2061],[3,-5]],[[2656,2070]],[[2656,2076],[0,-4]],[[2656,2072],[0,-2]],[[2656,2063]],[[2656,2063],[1,7]],[[2657,2070],[0,5]],[[2656,2070],[1,6]],[[2899,1757],[-24,86],[-88,145],[-41,28]],[[2746,2016]],[[2746,2016],[-4,3],[-4,1],[-81,50]],[[2657,2070],[-1,0]],[[2691,1564],[-25,-2]],[[2666,1561],[25,2]],[[2666,1561],[0,1]],[[2666,1562],[-1,0],[0,-1],[1,0]],[[2890,1754],[-200,-32]],[[2690,1722],[78,0],[28,7]],[[2796,1729],[1,0]],[[2797,1729],[1,0]],[[2798,1729],[93,23]],[[2692,1540],[0,3]],[[2692,1543],[2,43]],[[2694,1586],[0,1],[45,21]],[[2739,1608],[7,3],[25,19],[12,16]],[[2783,1646],[1,1]],[[2784,1647],[3,5],[2,2],[10,25]],[[2798,1681],[-11,-29],[-5,-4]],[[2782,1648],[-1,-1]],[[2781,1647],[-42,-39]],[[2739,1608],[-6,-6],[-39,-16]],[[2694,1586],[-1,0],[-1,-43]],[[2692,1543],[0,-3]],[[2726,1972],[20,44]],[[2746,2016]],[[2746,2016],[1,1],[8,17]],[[2755,2034],[-9,-16],[0,-2]],[[2746,2016]],[[2746,2016],[-20,-42]],[[2905,1632],[-2,0]],[[2903,1632],[-33,4]],[[2870,1636],[-86,11]],[[2784,1647],[-2,1]],[[2782,1648],[-31,3],[-12,-5]],[[2739,1646],[11,4],[31,-3]],[[2781,1647],[2,-1]],[[2783,1646],[87,-10]],[[2870,1636],[28,-3],[5,-1]],[[2903,1632],[2,0]],[[2884,1622],[-18,-51],[-55,17],[-5,2]],[[2806,1590],[-7,2],[-6,3]],[[2796,1730],[0,-1]],[[2796,1729],[2,-33]],[[2797,1736],[0,-7]],[[2797,1729],[0,-3],[0,-6]],[[2799,1696],[-1,22],[0,8],[0,3]],[[2798,1729],[0,7]],[[2801,1573],[48,-131]],[[2802,1962],[0,-2]],[[2802,1960],[1,0]],[[2803,1960],[0,-1]],[[2803,1959],[1,0]],[[2803,1961],[0,-1]],[[2803,1960],[-1,-11]],[[2802,1949],[1,10]],[[2803,1959],[0,2]],[[2811,1587],[54,-18]],[[2827,1581],[55,-18]],[[2850,1440],[-66,160],[22,-10]],[[2806,1590],[6,-3],[53,-17]],[[2898,1417],[-38,-3]],[[2861,1414],[37,3]],[[2867,1571],[9,6]],[[2879,1570],[5,52]],[[2902,1702],[-20,-6]],[[2904,1561],[-22,3]],[[2884,1563],[20,-4]],[[2885,1556],[15,-128]],[[2902,1432],[-16,124]],[[2892,1752],[11,-49]],[[2904,1703],[-11,49]],[[2894,1754],[5,1]],[[2900,1427],[0,-4]],[[2900,1423],[-4,-98]],[[2897,1323],[4,102]],[[2901,1425],[0,1]],[[2903,1535],[-5,-26]],[[2899,1422],[1,1]],[[2900,1423],[1,2]],[[2901,1425],[1,1]],[[2899,1499],[4,21]],[[2902,1431],[-1,2]],[[2902,1428],[0,-2]],[[2903,1701],[3,-34]],[[2904,1701],[0,2],[-1,0]],[[2903,1703],[0,-2],[1,0]],[[2906,1682],[-2,19]],[[2905,1701],[1,-3]],[[2906,1699],[-1,3]],[[3731,836],[-29,-6]],[[1287,3919],[1,0],[0,1],[-1,0],[0,-1]],[[1437,3667],[-2,1],[-1,-1],[1,-2],[2,2]],[[2453,1972],[-1,3]],[[2452,1975],[-2,-1]],[[2450,1974],[1,-3]],[[2451,1971],[2,1]],[[2510,2116],[0,-1],[1,0],[0,1]],[[2511,2116],[-1,0]],[[2891,1755],[0,-3],[3,1],[-1,2],[-2,0]],[[3712,1120],[-1,0],[-1,-1],[2,0],[0,1]],[[3730,1115],[1,-1],[1,0],[-1,2],[-1,-1]],[[3761,1106],[2,-3],[2,2],[-1,2],[-3,-1]],[[3835,1056],[-1,-1],[1,0],[1,0],[-1,1]],[[3838,1046],[-1,0],[0,-1],[1,1]],[[3838,1059],[0,1],[-1,-1],[1,0]],[[3841,1068],[-1,1],[0,-1],[1,0]],[[3841,1086],[1,-1],[1,0],[0,1],[-2,0]],[[4000,1052],[0,3],[-4,-1],[2,-5],[2,3]],[[4024,1075],[4,1],[3,4],[-5,-1],[-2,-4]],[[3702,829],[65,12]],[[3767,842],[-36,-6]],[[1248,3891],[1,-4]],[[2161,2249],[110,-65]],[[2271,2184],[9,-5],[1,-4]],[[2281,2175],[16,-78]],[[2311,2096],[-23,72],[-7,7]],[[2281,2175],[-10,9]],[[2271,2184],[-39,36],[-70,35]],[[2310,2036],[26,-126],[0,-1],[1,-2]],[[2337,1907],[1,-4]],[[2338,1903],[0,-2]],[[2311,2096],[0,3]],[[2339,1901],[0,2]],[[2339,1903],[-2,4]],[[2337,1907],[0,2],[0,1],[-26,186]],[[2329,1903],[8,4]],[[2337,1907]],[[2337,1907],[37,21]],[[2482,1991],[-83,-48],[-7,-4]],[[2392,1939],[-53,-36]],[[2339,1903],[-1,0]],[[2338,1903],[-3,-2]],[[2375,1929],[17,10]],[[2392,1939],[7,4],[3,1],[81,46]],[[2421,2066],[9,-5]],[[2601,1716],[4,-13]],[[2606,1702],[-5,14]],[[2632,1887],[-14,52],[-5,15]],[[2614,1951],[18,-64]],[[2735,1916],[-16,16],[-1,1]],[[2718,1933]],[[2718,1933],[-1,1],[-66,65],[-10,10],[-7,7]],[[2634,2016],[-5,5],[-5,5]],[[2625,2024],[4,-4],[22,-22],[66,-65],[1,0]],[[2718,1933],[0,-1]],[[2718,1932],[16,-16]],[[2659,1991],[-8,8],[-10,10],[-7,7]],[[2634,2016],[-2,2]],[[2638,1748],[61,-60]],[[2699,1688],[41,-40],[7,-15]],[[2727,1674],[-3,3]],[[2724,1677],[-18,15]],[[2706,1692],[-61,54],[-5,3]],[[2683,1681],[16,7]],[[2699,1688],[1,0],[6,4]],[[2706,1692],[5,4],[2,1],[6,2]],[[2719,1699],[3,2],[1,0],[-1,3]],[[2722,1704],[-1,4]],[[2721,1708],[-15,37]],[[2728,1716],[-6,-12]],[[2722,1704],[-1,-1],[-1,-1]],[[2720,1702],[-7,-5],[-2,-2]],[[2726,1974],[-6,-24],[-2,-15],[0,-2]],[[2718,1933]],[[2718,1933],[-1,-2],[-5,-27]],[[2713,1905],[4,25],[1,2]],[[2718,1932],[0,1]],[[2718,1933],[1,2],[2,15],[5,22]],[[2719,1744],[7,-10],[-5,-26]],[[2721,1708],[-1,-6]],[[2720,1702],[-1,-3]],[[2719,1699],[-1,-9],[-1,-3],[7,-10]],[[2724,1677],[4,-5]],[[2749,1631],[-21,92]],[[2802,1845],[63,-115]],[[2887,1684],[-30,64],[-55,98]],[[2865,1730],[3,-6]],[[2865,1730],[19,-108]],[[2901,1365],[-20,-2]],[[2881,1363],[20,2]],[[2884,1622],[6,30],[-3,32]],[[2890,1680],[-3,4]],[[1207,3894],[-14,14]],[[3993,1454],[-33,-24]],[[3972,1435],[8,5]],[[3972,1435],[8,5]],[[3980,1440],[15,13]],[[3749,1196],[4,-149]],[[3753,1047],[-3,149]],[[3754,1044],[11,-74],[1,-3],[2,-9]],[[3768,958],[8,-39],[2,-25]],[[3777,893],[-9,65]],[[3768,958],[-2,10],[-11,77]],[[3794,1362],[-14,-29]],[[3781,1333],[13,24],[1,5]],[[3840,1403],[-4,-1]],[[3836,1401],[5,1]],[[3896,1404],[16,1]],[[3912,1406],[-15,-1]],[[4033,1499],[-8,0],[-20,-19],[-12,-26]],[[3995,1453],[38,46]],[[2238,985],[23,-426],[2,-5]],[[2263,554],[12,-36]],[[2275,518],[65,-197],[118,-321]],[[2459,0],[-118,321],[-66,197]],[[2275,518],[-12,35],[0,1]],[[2263,554],[-24,429]],[[2248,1410],[84,-59]],[[871,4096],[-375,-355]],[[496,3741],[289,268],[87,87]],[[603,3939],[-14,88],[63,67]],[[637,1123],[-25,33],[23,-32]],[[652,4094],[3,2]],[[654,4096],[-2,-2]],[[966,3948],[-271,-239]],[[696,3708],[243,214],[27,25]],[[1234,370],[-92,-26]],[[1142,344],[92,26]],[[1946,1093],[-355,-132],[-140,-141],[-47,-192],[-152,-111]],[[1262,486],[2,-11]],[[1264,476],[0,8],[-1,3]],[[1666,2266],[-1,-2]],[[1665,2264],[-5,-6]],[[1660,2258],[5,3]],[[1665,2261],[2,1]],[[1662,2253],[8,-9]],[[1670,2244],[0,-1]],[[1672,2244],[3,47]],[[2106,2577],[-68,-89],[-247,-173],[-117,-23],[-9,-28]],[[1665,2264],[0,-2],[0,-1]],[[1665,2261],[5,-17]],[[1670,2244],[7,-30]],[[1678,2224],[1,69],[111,18],[251,178],[65,87]],[[1727,2044],[-26,85]],[[1701,2125],[32,-108]],[[1970,1123],[18,-18]],[[1988,1105],[-18,19]],[[2302,2002],[-87,-21]],[[2215,1980],[87,22]],[[2238,1042],[1,0]],[[2246,1411],[1,-1]],[[2247,1410],[2,0]],[[2248,1410],[-1,0]],[[2247,1410],[-1,1]],[[2432,2519],[-95,-14]],[[2337,2505],[-1,0]],[[2336,2505],[-28,-4],[-19,-3]],[[2289,2497],[15,3],[32,5]],[[2336,2505],[1,0]],[[2337,2505],[95,14]],[[2339,2452],[-30,-16]],[[2309,2435],[31,16]],[[2323,1247],[1,0]],[[2336,2506],[0,-1]],[[2336,2505]],[[2336,2505],[3,-52]],[[2340,2454],[-3,51]],[[2337,2505]],[[2337,2505],[0,1]],[[2340,2451],[2,0],[-1,3],[-2,-1]],[[2339,2453],[1,-2]],[[2340,2451],[25,-68]],[[2408,2214],[-50,92],[-18,31]],[[2341,2335],[67,-121]],[[2366,2381]],[[2366,2381],[0,1]],[[2366,2382],[-25,69]],[[2364,2380],[29,-101],[26,-45]],[[2365,2383],[-1,-2],[1,-1],[1,1]],[[2366,2381],[0,1]],[[2366,2382],[-1,1]],[[2421,2236],[-55,144]],[[2370,2266],[-1,0]],[[2804,1238],[-36,-2],[-18,-15],[-21,-263],[-46,-30],[-60,27]],[[2623,955],[-51,101]],[[2572,1056],[-22,45],[-48,13],[-18,93],[-42,62],[-71,41]],[[2371,1309],[71,-41],[59,-155],[51,-16],[20,-41]],[[2572,1056],[51,-101]],[[2623,955],[3,-5],[59,-23],[45,31],[2,10]],[[2732,968],[36,267],[35,1]],[[2517,2476],[-132,-15]],[[2385,2460],[95,2]],[[2390,1309],[0,-1]],[[2403,2212],[3,1]],[[2406,2213],[21,7]],[[2427,2220],[2,1]],[[2429,2221],[3,1]],[[2406,2213]],[[2406,2213],[2,-3]],[[2415,2240],[5,-5]],[[2420,2235],[2,-2]],[[2422,2233],[2,-1]],[[2424,2232],[4,-4]],[[2421,2232],[6,-12]],[[2427,2220],[17,-31],[40,-33]],[[2484,2160],[-40,29],[-15,32]],[[2429,2221],[-5,11]],[[2424,2232],[-1,2]],[[2426,2518],[7,-51]],[[2426,2518],[6,-41]],[[2448,2526],[-16,-7]],[[2432,2476],[1,0]],[[2433,2476],[-1,1]],[[2432,2477],[0,-1]],[[2433,2467],[-1,9]],[[2432,2476],[5,-8]],[[2437,2468],[-4,8]],[[2437,1272],[-1,-1]],[[2450,2527],[-2,-1]],[[2448,2526],[2,0]],[[2450,2527],[0,-1]],[[2450,2526]],[[2450,2526],[0,1]],[[2450,2526],[0,-1]],[[2450,2525],[0,1]],[[2463,2509],[-13,16]],[[2455,2162],[0,-2]],[[2455,2161],[0,-5]],[[2455,2157],[1,4]],[[2456,2156],[0,3]],[[2456,2159],[0,2]],[[2456,2159]],[[2456,2159],[2,0]],[[2463,2509],[1,-4]],[[2465,2505],[-2,4]],[[2467,2505],[-1,0]],[[2466,2504],[1,1]],[[2466,2504],[-1,1]],[[2465,2505],[-1,0]],[[2464,2505],[1,-1],[1,0]],[[2514,2519],[-47,-14]],[[2483,2466],[-1,-3]],[[2482,2463],[3,-2]],[[2524,1488],[-14,-13]],[[2510,1475],[-27,-26]],[[2484,1448],[27,27]],[[2511,1475],[13,12]],[[2487,2465],[-3,1]],[[2486,2461],[1,3]],[[2487,2154],[70,-11]],[[2490,1508],[20,-33]],[[2510,1475],[1,0]],[[2511,1475]],[[2558,2144],[-67,13]],[[2509,2145],[0,-10]],[[2510,1519]],[[2512,2143],[-1,0]],[[2513,2133],[2,11]],[[2514,2519],[2,1]],[[2516,2520],[-2,-1]],[[2516,2520]],[[2516,2520],[0,1],[0,-1]],[[2516,2520],[4,-12]],[[2520,2508],[-4,12]],[[2520,2508],[-3,-32]],[[2574,1877],[-36,-2]],[[2540,1867],[4,-7]],[[2579,1878],[0,-4]],[[2579,1874],[0,-2]],[[2579,1872],[-1,0]],[[2578,1872],[-33,-14]],[[2545,1858],[-2,-1]],[[2543,1856],[2,1]],[[2545,1857],[5,2]],[[2550,1859],[28,12]],[[2578,1871],[1,0],[0,1]],[[2579,1872],[0,1]],[[2579,1873],[0,5]],[[2544,1860],[2,1]],[[2544,1860],[1,-2]],[[2545,1858],[0,-1]],[[2545,1857]],[[2545,1857],[2,-1]],[[2549,1856]],[[2549,1856],[-2,0]],[[2547,1856],[18,-37]],[[2549,1859],[-1,0]],[[2549,1858],[1,1]],[[2550,1859]],[[2554,1860],[2,0]],[[2556,1862],[-2,-2]],[[2561,1087],[-2,0]],[[2559,1839],[-10,17]],[[2549,1856],[30,14]],[[2560,1084],[1,3]],[[2561,2142],[38,-8]],[[2561,1087],[67,137],[1,87]],[[2599,2136],[-38,8]],[[2578,1873],[-3,4]],[[2578,1868],[5,3]],[[2583,1871],[1,0]],[[2579,1878],[0,-4]],[[2581,1873],[0,5]],[[2581,1870],[2,1]],[[2583,1871],[5,0]],[[2588,1871],[10,0],[44,-14]],[[2642,1857],[56,-19]],[[2701,1841],[-59,16]],[[2642,1857],[-54,14]],[[2588,1871],[-7,2]],[[2624,2135],[-21,1]],[[2604,2134],[20,0]],[[2625,2130],[-6,-39]],[[2620,2091],[6,42]],[[2621,1545],[6,-181]],[[2626,1547],[-4,-1]],[[2622,1546],[-1,0],[0,-1]],[[2621,1545],[1,0],[0,1]],[[2625,2133],[-3,-6]],[[2628,1342]],[[2628,1342],[-2,-1]],[[2627,1364],[-1,182]],[[2627,1364],[0,-3],[1,-19]],[[2628,1342],[1,-31]],[[2627,1364]],[[2627,1361],[1,0]],[[2628,1361]],[[2627,2133],[30,1]],[[2657,2134],[3,0],[0,-4]],[[2660,2130],[-1,-9]],[[2659,2121],[0,-3]],[[2659,2118],[0,-1]],[[2660,2114],[0,20],[-33,1]],[[2629,1311],[-1,50]],[[2628,1361],[-1,3]],[[2637,1866],[-1,0]],[[2636,1865],[1,-1]],[[2641,1865],[-3,2]],[[2639,1862],[3,2]],[[2656,2119],[0,-43]],[[2656,2134],[1,0]],[[2657,2134],[3,-4]],[[2660,2130]],[[2657,2076],[2,42]],[[2659,2118],[0,1]],[[2660,2121],[-1,0]],[[2659,2121],[-2,-1]],[[2706,1839],[3,15]],[[2731,968],[1,0]],[[2732,968]],[[2736,1015],[1,0]],[[2861,2294],[-22,-102],[-84,-158]],[[2755,2034],[87,161],[19,99]],[[2802,1949],[-8,-91],[3,-122]],[[2798,1736],[4,213]],[[2849,1442],[-1,-29]],[[2848,1413],[0,-1]],[[2848,1412],[-1,-51],[1,-8],[-43,-114]],[[2805,1239],[-2,-2],[2,-2],[2,2],[-2,2]],[[2807,1236],[40,-19],[47,51]],[[2860,1414],[-11,-1]],[[2849,1413],[-1,0]],[[2848,1413],[-5,-1]],[[2843,1412],[5,0]],[[2848,1412],[1,1]],[[2849,1413],[12,1]],[[2894,1268],[-47,-50],[-40,20],[42,115],[-1,8],[1,52]],[[2849,1413]],[[2849,1413],[1,27]],[[2862,2293],[-2,-2]],[[2860,2290],[2,3]],[[2862,2301],[-1,-7]],[[2863,2293],[-1,0]],[[2896,1325],[-2,-56]],[[2894,1269],[1,0],[0,-1],[-1,0],[0,1]],[[2895,1269],[2,54]],[[2909,1760],[-10,-3]],[[2899,1755],[10,2]],[[2902,1426],[1,2]],[[2903,1428],[-1,0]],[[2902,1428]],[[2902,1426],[0,2]],[[2902,1428],[1,0]],[[2903,1428],[0,2]],[[2903,1430],[15,27],[-10,75]],[[2908,1532],[-1,9]],[[2907,1541],[-1,7]],[[2906,1548],[-2,11]],[[2904,1559],[0,1]],[[2907,1426],[-4,4]],[[2903,1430]],[[2903,1430],[-1,1]],[[2902,1431]],[[2902,1428],[0,3]],[[2902,1431],[0,1]],[[2902,1426],[5,-1]],[[2904,1559]],[[2904,1559],[4,0]],[[2908,1559],[2,-1],[-1,-4]],[[2909,1554],[-1,-22]],[[2908,1532],[-5,-102]],[[2903,1430],[0,-2]],[[2903,1428]],[[2903,1520],[4,21]],[[2907,1541],[2,13]],[[2909,1554],[13,71]],[[2922,1625],[1,4]],[[2923,1629],[0,1]],[[2923,1630],[5,25],[-22,44]],[[2906,1698],[22,-42],[-6,-26]],[[2922,1630],[0,-1]],[[2922,1629],[-14,-69]],[[2908,1560],[0,-1]],[[2908,1559],[-2,-11]],[[2906,1548],[-3,-13]],[[2910,1560],[-2,0]],[[2908,1560],[-4,1]],[[2905,1632],[5,-1],[5,-1]],[[2915,1630],[7,0]],[[2922,1630],[1,0]],[[2923,1630],[9,0]],[[2932,1630],[4,-1],[7,55],[-31,75]],[[2911,1757],[32,-72],[-11,-55]],[[2932,1630],[0,-2]],[[2932,1628],[-9,1]],[[2923,1629],[-1,0]],[[2922,1629],[-7,1]],[[2915,1630],[-5,1]],[[2910,1631],[-5,1]],[[2906,1667],[3,-30]],[[2910,1631]],[[2910,1631],[-4,51]],[[2909,1757],[3,0],[-1,3],[-2,0]],[[2909,1760],[0,-3]],[[2922,1625]],[[2922,1625],[5,2]],[[2932,1628],[0,-2]],[[2936,1635],[-1,0]],[[3702,830],[-9,-3]],[[3693,827],[2,0]],[[2239,987],[3,-1],[-1,-3],[-3,1],[1,3]],[[2423,2234],[-2,2]],[[2421,2236],[-1,-1]],[[2420,2235],[-1,-2],[3,-1],[0,1]],[[2422,2233],[1,1]],[[2491,2161],[-6,1],[-1,-6],[5,-1],[2,6]],[[2541,1858],[-1,-3],[2,-1],[1,3],[-2,1]],[[2561,2145],[-3,0],[0,-3],[3,0]],[[2561,2142],[0,3]],[[2578,1870],[1,0],[2,3],[-2,1]],[[2579,1874],[0,-1]],[[2579,1873],[-1,-1]],[[2578,1872],[0,-1]],[[2578,1871],[0,-1]],[[2601,2132],[3,2],[-2,3],[-3,-2],[2,-3]],[[2625,2136],[-1,-2]],[[2624,2134],[3,-1],[0,2]],[[2627,2135],[-2,1]],[[2699,1833],[2,-1],[4,9],[-2,1],[-4,-9]],[[3814,888],[-2,0],[0,-1],[1,0],[1,1]],[[3847,1004],[-1,-1],[1,-1],[0,1],[0,1]],[[3848,907],[1,1],[-1,1],[-1,-1],[1,-1]],[[3863,968],[-1,0],[1,-1],[1,0],[-1,1]],[[4089,1526],[0,-2],[2,0],[0,1],[-2,1]],[[3996,1053],[-28,-24]],[[3968,1029],[-29,-26]],[[3940,1002],[14,14]],[[3957,1020],[11,9]],[[3968,1029],[28,22]],[[3994,1291],[-4,-11],[18,-55],[62,-112],[-31,-25]],[[4039,1087],[33,26],[-77,178]],[[1142,344],[-18,-6],[18,6]],[[4022,1321],[-7,35],[0,3]],[[4015,1359],[-15,71]],[[4001,1429],[29,-118]],[[4014,1361],[1,-2]],[[4015,1359],[0,-3]],[[4015,1351],[0,5]],[[3656,1176],[15,-15]],[[3671,1161],[24,-25]],[[3695,1136],[11,-12]],[[3706,1124],[4,-4]],[[3711,1120],[-5,4]],[[3712,1119],[18,-4]],[[3730,1116],[-18,4]],[[3731,1114],[30,-10]],[[3761,1106],[-29,9]],[[3765,1104],[76,-19]],[[3842,1086],[-77,20]],[[2410,2987]],[[2755,1622],[72,-41]],[[2798,1599],[-42,23]],[[2849,1744]],[[2887,1684],[1,-4]],[[2889,1648],[1,4]],[[3753,1047],[1,-3]],[[3755,1045],[-2,2]],[[1240,3780],[89,-57]],[[3996,1298],[-2,-7]],[[3995,1291],[2,7]],[[4024,1075],[-25,-20]],[[4001,1054],[23,20]],[[4039,1088],[-9,-7]],[[4031,1080],[8,7]],[[3871,1194],[41,-16]],[[3912,1178],[-40,16]],[[3947,1143],[49,-89]],[[3967,1110],[-20,34]],[[3998,1055],[-31,56]],[[1677,2214],[5,-22]],[[1688,2194],[-10,30]],[[1682,2192],[19,-67]],[[1701,2129],[-19,63]],[[635,1124],[117,-109],[92,-47]],[[844,968],[8,-4]],[[852,964],[103,-169],[86,-84],[73,-30]],[[1114,681],[77,-30],[0,-1]],[[1191,650],[71,-164]],[[1263,487],[-70,162],[-2,1]],[[1191,650],[-77,31]],[[1114,681],[-73,31],[-84,82],[-103,169],[-2,1]],[[852,964],[-8,4]],[[844,968],[-92,48],[-115,107]],[[715,3577],[154,-138],[434,-279],[166,-71]],[[1469,3089],[10,-4],[120,-164]],[[1599,2921],[101,-138],[1,-2]],[[1702,2782],[-57,100],[-46,39]],[[1599,2921],[-36,30],[-94,138]],[[1469,3089],[-8,12],[-167,66],[-81,74],[-343,199],[-154,137]],[[2335,1901],[-3,-2]],[[2332,1899],[-20,-6]],[[2312,1893],[-116,-30],[-82,23],[-2,1],[-18,5]],[[2094,1892],[-343,104],[-9,18]],[[1742,2014],[-15,30]],[[1733,2017],[9,-3]],[[1742,2014],[352,-122]],[[2094,1892],[18,-6],[2,-1],[82,-23],[60,0],[56,31]],[[2312,1893],[17,10]],[[1946,2435],[165,-156],[50,-30]],[[2162,2255],[-215,180]],[[2248,1411],[-1,-1]],[[2297,2097],[13,-61]],[[2331,1899],[1,0]],[[2332,1899],[0,-2]],[[2398,1632],[60,65],[126,47]],[[2584,1744],[6,2],[2,1],[9,6]],[[2561,1737],[-105,-40],[-49,-51]],[[2407,1646],[-1,-1]],[[2406,1645]],[[2406,1646],[0,-1]],[[2406,1645],[1,-1]],[[2407,1645],[0,1]],[[2407,1646],[-1,1]],[[2408,1830],[4,4]],[[2448,1864],[-5,-4]],[[2445,1861],[6,3]],[[2456,1569],[100,-120],[3,-7]],[[2559,1442],[21,-62]],[[2580,1380],[3,-8],[10,-1]],[[2593,1371],[119,-16]],[[2712,1355],[64,-8],[105,16]],[[2881,1363],[-95,-15],[-74,7]],[[2712,1355],[-112,11],[-7,5]],[[2593,1371],[-13,9]],[[2580,1380],[-10,9],[-11,53]],[[2559,1442],[-2,7],[-100,120]],[[2712,1904],[-12,-69]],[[2700,1835],[-1,-2],[-30,-27]],[[2669,1806]],[[2669,1806]],[[2669,1806],[-22,-20],[-21,-10],[-1,-2],[-17,-14]],[[2608,1760],[-8,-7],[-10,-6],[-6,-2]],[[2584,1745],[-1,0],[-22,-8]],[[2603,1759],[-16,-5],[-2,-2],[-1,0]],[[2584,1752],[-1,-1],[-22,-14]],[[2601,1758],[-19,14]],[[2584,1765],[0,-13]],[[2584,1752],[0,-7]],[[2584,1745],[0,-1]],[[2584,1744],[0,-3],[8,-2],[31,18]],[[2616,1767],[-9,-7]],[[2607,1760],[-12,-10]],[[2601,1753],[22,4]],[[2601,1753],[9,7]],[[2610,1760],[10,9],[5,5],[2,1],[20,10],[22,21]],[[2669,1806]],[[2669,1806]],[[2669,1806],[31,29]],[[2700,1835],[2,2],[11,68]],[[2640,1749],[-21,11],[-7,0],[-2,0]],[[2610,1760],[-2,0]],[[2608,1760],[-1,0]],[[2607,1760],[-4,-1]],[[2624,1774],[-21,-15]],[[2623,1757],[15,-9]],[[2632,1887],[8,-30],[24,-46],[5,-5]],[[2669,1806]],[[2669,1806],[3,-4],[19,-21],[2,-3]],[[2693,1778],[26,-34]],[[2706,1745],[-13,33]],[[2693,1778],[-1,4],[-17,18],[-2,3],[-4,3]],[[2669,1806]],[[2669,1806],[-4,5],[-25,46],[-8,30]],[[2734,1916],[68,-71]],[[2802,1846],[-4,7],[-63,63]],[[2901,1365],[19,1]],[[2920,1366],[-19,-1]],[[2247,1410],[-126,-151],[-410,-391],[-392,-320]],[[1319,548],[-166,-136],[-16,-182],[-93,-92],[-35,-73],[-3,-65]],[[1007,0],[3,64],[34,72],[93,92],[19,187],[163,132]],[[1319,547],[396,324],[406,386],[126,153]],[[1325,555],[-6,-7]],[[1319,548],[0,-1]],[[1319,547],[-6,-6]],[[2406,1645],[-158,-234]],[[2248,1411],[150,221]],[[2302,3059],[-44,15],[-56,-149],[-69,-99],[-76,-29]],[[2057,2797],[76,29],[68,96],[57,152],[44,-15]],[[3693,1232],[129,54]],[[3823,1289],[-14,-3],[-42,-16],[-74,-37]],[[3844,1013],[2,-10]],[[3847,1004],[-2,9]],[[3847,1002],[15,-34]],[[3864,968],[-17,35]],[[3938,424],[3,4]],[[3984,1462],[10,-14]],[[3994,1448],[2,-3]],[[3996,1445],[17,-22]],[[4011,1429],[-15,19]],[[3996,1448],[-11,14]],[[3985,1461],[8,-10],[1,-3]],[[3994,1448],[5,-12]],[[3999,1436],[2,-7]],[[4000,1430],[-1,6]],[[3999,1436],[-3,9]],[[3996,1445],[0,3]],[[3996,1448],[-1,5],[-10,8]],[[3836,1402],[-6,-1],[-22,-14],[-14,-25]],[[3795,1362],[41,39]],[[3960,1430],[-48,-24]],[[3912,1405],[30,10]],[[3942,1415],[1,0],[29,20]],[[3940,1414],[2,1]],[[3942,1415],[1,1],[1,0],[28,19]],[[3939,1003],[-75,-35]],[[3864,967],[76,35]],[[3631,1219],[18,-36]],[[3649,1183],[-17,36]],[[3651,1181],[-2,2]],[[3651,1181],[2,-2],[3,-3],[-3,3],[-2,2]],[[2511,1475],[-20,33]],[[3780,1333],[-39,-78],[8,-59]],[[3750,1196],[-8,59],[39,78]],[[3784,848],[-5,37]],[[3779,885],[-2,8]],[[3778,894],[1,-9]],[[3779,885],[2,-27],[2,-10]],[[3897,1405],[-40,0],[-17,-2]],[[3841,1402],[15,2]],[[3856,1404],[40,0]],[[3856,1404],[16,-1]],[[3209,1256],[-10,6],[-226,103]],[[3176,1273],[33,-19]],[[3949,1439],[5,-11]],[[3955,1428],[-6,12]],[[2973,1365],[-26,3],[-27,-2]],[[2920,1366],[53,-1],[203,-92]],[[3954,1016],[3,4]],[[786,4010],[227,-131]],[[1012,3880],[-224,130]],[[3980,151],[-42,273]],[[3941,428],[78,112]],[[4019,540],[4,6]],[[4023,546],[1,1],[41,341]],[[4065,888],[-22,-64],[-20,-278]],[[4023,546],[-4,-6]],[[4019,540],[-88,-124],[26,-149],[22,-116]],[[3979,150],[1,-2],[2,2],[-2,1],[-1,-1]],[[3954,1428],[-1,-4]],[[3956,1426],[-1,2]],[[129,4096],[586,-519]],[[716,3577],[-586,519]],[[1701,2781],[101,-219],[144,-127]],[[1947,2435],[-144,127],[-39,93],[-62,127]],[[2339,1900],[67,-254]],[[2406,1647],[-66,252]],[[2407,1644],[49,-75]],[[2457,1569],[-50,76]],[[0,833],[212,55],[159,59]],[[371,947],[24,10]],[[395,957],[9,3],[382,331],[179,116],[274,92],[22,5]],[[1261,1504],[492,110]],[[1753,1614],[12,3],[13,4]],[[1778,1621],[330,111]],[[2108,1732],[24,9],[209,53],[24,12],[102,72]],[[2464,1878],[-125,-84],[-205,-52],[-26,-10]],[[2108,1732],[-190,-71],[-140,-40]],[[1778,1621],[-25,-7]],[[1753,1614],[-216,-61],[-276,-49]],[[1261,1504],[-21,-4],[-276,-92],[-180,-119],[-389,-332]],[[395,957],[-3,-3],[-21,-7]],[[371,947],[-371,-108]],[[685,4096],[101,-86]],[[788,4010],[-102,86]],[[3645,1213],[48,19]],[[3693,1233],[-48,-20]],[[3822,1286],[103,30],[103,-6]],[[4028,1310],[-103,6],[-102,-27]],[[4036,1471],[5,-8],[1,-1]],[[4042,1462],[20,-16]],[[4062,1446],[6,-5],[2,2]],[[4070,1443],[12,27]],[[4082,1470],[9,17],[0,37]],[[4085,1476],[-3,-6]],[[4082,1470],[-11,-27],[-1,0]],[[4070,1443],[-8,3]],[[4062,1446],[-11,2],[-3,5],[-6,9]],[[4042,1462],[-1,1],[-5,8]],[[4090,1487],[-5,-11]],[[4086,1502],[-1,-26]],[[4089,1524],[-3,-22]],[[4086,1502],[4,-16]],[[3695,827],[7,2]],[[3767,841],[16,3],[9,6],[20,37]],[[3812,888],[-45,-46]],[[3847,908],[-34,-20]],[[3814,887],[34,20]],[[3862,968],[-1,-1],[-14,-58]],[[3849,909],[14,58]],[[2385,2461],[-43,-8]],[[2342,2452],[43,8]],[[1145,3870],[24,-15]],[[1169,3855],[5,-3]],[[1176,3848],[-7,7]],[[1169,3855],[-8,9],[-13,7]],[[1453,3629],[270,-327],[114,-108],[54,-103],[169,-293],[23,-172],[46,-129]],[[2130,2501],[-46,125],[-23,173],[-225,398],[-381,431]],[[2147,2407],[2,-17],[29,-47]],[[2178,2344],[-29,62]],[[2537,1875],[58,-143]],[[2588,1756],[-51,119]],[[2596,1733]],[[1287,3919],[48,-154],[99,-98]],[[1436,3668],[-100,96],[-48,155]],[[0,4096],[1173,0],[142,-222],[85,-106],[26,-20],[83,-37],[26,-21],[43,-44],[30,-23],[181,-84],[113,-83],[65,-7],[68,4],[72,-10],[64,-37],[26,-15],[84,-83],[146,-198],[50,-89],[212,-154],[48,-53],[10,-84],[-132,118],[-70,44],[-159,20],[-41,14],[-29,37],[-22,120],[-26,-21],[-26,-55],[-14,-52],[-2,-41],[1,-39],[9,-36],[21,-31],[29,-31],[8,-16],[-12,-199],[4,-55],[79,-247],[32,-53],[48,-47],[53,-33],[250,-87],[86,-76],[51,-111],[21,-148],[-1,-355],[-11,-77],[-30,-65],[-57,-36],[-2,50],[-22,17],[-31,-12],[-26,-35],[18,-82],[-7,-126],[-23,-127],[-27,-89],[-45,34],[-13,46],[1,52],[-4,48],[-20,39],[-27,26],[-27,21],[-24,25],[-16,12],[-13,0],[-9,8],[-6,90],[-6,22],[-11,25],[-23,32],[-35,36],[-39,21],[-33,-11],[-76,-148],[-24,-21],[-32,-20],[15,-44],[31,-42],[17,-16],[6,-24],[27,-47],[5,-31],[-10,-8],[-20,-7],[-20,-14],[-10,-24],[7,-48],[11,-46],[3,-47],[-21,-50],[49,-17],[42,25],[21,49],[-12,54],[28,-9],[20,-16],[33,-42],[16,-7],[12,3],[9,-3],[3,-25],[0,-20],[3,-10],[9,-4],[18,0],[74,-18],[29,-44],[15,-58],[32,-58],[0,-22],[-58,-61],[31,-153],[69,-168],[28,-53],[-2717,0],[0,4096]],[[4096,1215],[0,-195],[-30,-8],[17,-189],[-6,-287],[-44,-358],[-26,-71],[-64,-107],[-28,0],[-12,65],[-34,108],[-46,105],[-58,90],[-127,145],[-21,90],[57,109],[16,48],[15,47],[-16,122],[-45,121],[-49,87],[-12,40],[2,53],[34,154],[21,37],[38,19],[3,0],[62,-2],[37,-7],[46,-22],[38,-17],[120,48],[20,-13],[12,-42],[21,-30],[6,-13],[7,-13],[0,-1],[-17,-34],[-27,-8],[-83,12],[-41,-15],[126,-111],[29,47],[44,35],[15,-39]],[[1287,326],[-40,0],[-15,32],[19,103],[65,72],[36,0],[90,-63],[-11,-35],[-86,-37],[-58,-72]],[[3678,1440],[102,-9],[84,-39],[120,48],[20,-13],[46,-98],[-17,-35],[-151,-11],[126,-111],[58,-160],[12,-136],[-155,141],[-87,-5],[-40,-30],[-39,-190],[-48,-57],[-27,2],[23,70],[-16,122],[-106,248],[36,207],[59,56]],[[3761,1331],[-52,-32],[-35,-142],[111,57],[33,54],[18,69],[-75,-6]],[[1173,4096],[227,-328],[208,-145],[148,-69],[-10,-26],[-75,-25],[-165,75],[-15,31],[-239,124],[-47,46],[-40,96],[-90,-24],[-54,17],[-57,81],[-26,97],[-59,50],[294,0]],[[2281,3308],[196,-287],[146,-106],[-31,-53],[-47,30],[-200,34],[-51,157],[-13,-10],[-63,144],[-71,15],[30,89],[-39,104],[143,-117]],[[2834,1964],[51,-111],[21,-148],[-6,-389],[-67,166],[-51,6],[-111,-42],[-65,145],[-97,72],[52,57],[85,31],[155,-15],[25,21],[-25,87],[32,36],[-32,72],[-101,-54],[-144,-24],[-151,6],[-122,36],[32,145],[-30,60],[-81,11],[-51,73],[33,181],[-65,36],[1,37],[31,180],[33,36],[-15,57],[-50,15],[12,60],[94,136],[9,-104],[58,-78],[-8,-254],[79,-247],[80,-100],[303,-120],[86,-76]],[[3936,424],[58,58],[66,1],[-25,-206],[-69,0],[0,147],[-30,0]],[[1591,2264],[45,18],[40,-82],[7,82],[45,8],[49,-191],[-17,29],[-2,-36],[-38,4],[-21,57],[5,-60],[-56,-28],[-57,199]]]}