{"objects":{"water":{"type":"GeometryCollection","geometries":[{"type":"MultiPolygon","properties":{"kind":"lake","name":"Samara Reservoir","reservoir":true,"area":17229146112,"sort_rank":200,"source":"naturalearthdata.com","min_zoom":0.0,"id":1183},"arcs":[[[34]]]},{"type":"LineString","properties":{"source":"naturalearthdata.com","kind":"lake","reservoir":true,"sort_rank":367,"boundary":true,"min_zoom":0.0,"id":1183},"arcs":[35]}]},"buildings":{"type":"GeometryCollection","geometries":[]},"places":{"type":"GeometryCollection","geometries":[{"type":"Point","properties":{"int_name":"Samara Oblast","name:sk":"Samarsk\u00e1 oblas\u0165","name:ja":"\u30b5\u30de\u30fc\u30e9\u5dde","name:lt":"Samaros sritis","name:cs":"Samarsk\u00e1 oblast","kind":"region","name:tt":"\u0421\u0430\u043c\u0430\u0440\u0430 \u04e9\u043b\u043a\u04d9\u0441\u0435","min_zoom":4.0,"name:uk":"\u0421\u0430\u043c\u0430\u0440\u0441\u044c\u043a\u0430 \u043e\u0431\u043b\u0430\u0441\u0442\u044c","name:be":"\u0421\u0430\u043c\u0430\u0440\u0441\u043a\u0430\u044f \u0432\u043e\u0431\u043b\u0430\u0441\u0446\u044c","name:pl":"Obw\u00f3d samarski","name:hu":"Szamarai ter\u00fclet","name:hr":"Samarska oblast","id":533719181,"name:eo":"Samara Provinco","name:en":"Samara Oblast","name":"\u0421\u0430\u043c\u0430\u0440\u0441\u043a\u0430\u044f \u043e\u0431\u043b\u0430\u0441\u0442\u044c","kind_detail":"state","name:de":"Oblast Samara","source":"openstreetmap.org","name:fr":"Oblast de Samara","name:es":"\u00d3blast de Samara"},"coordinates":[3669,3876]},{"type":"Point","properties":{"name:ro":"Samara","name:ka":"\u10e1\u10d0\u10db\u10d0\u10e0\u10d0","name:ko":"\uc0ac\ub9c8\ub77c","name:kn":"\u0cb8\u0cae\u0cbe\u0cb0","name:hy":"\u054d\u0561\u0574\u0561\u0580\u0561","name:cs":"Samara","min_zoom":8.0,"int_name":"Samara","name:it":"Samara","name:pl":"Samara","name:de":"Samara","id":27503945,"name:ca":"Samara","kind_detail":"city","name:da":"Samara","old_name:de":"Kuibyschew","source":"openstreetmap.org","name:fr":"Samara","name:cv":"\u0421\u0430\u043c\u0430\u0440","name:zh":"\u85a9\u99ac\u62c9","admin_level":"4","name:sl":"Samara","name:sk":"Samara","name:ja":"\u30b5\u30de\u30fc\u30e9","name:lt":"Samara","name:hi":"\u0938\u092e\u093e\u0930\u093e","old_name":"\u041a\u0443\u0439\u0431\u044b\u0448\u0435\u0432","name:hu":"Szamara","name:hr":"Samara","name:ba":"\u04ba\u0430\u043c\u0430\u0440","population":1170910,"kind":"locality","name:en":"Samara","name":"\u0421\u0430\u043c\u0430\u0440\u0430","alt_name:sl":"Kujbi\u0161ev","alt_name:sk":"Kujby\u0161ev","name:es":"Samara"},"coordinates":[2608,3457]},{"type":"Point","properties":{"name:sr":"\u041d\u043e\u0432\u043e\u043a\u0443\u0458\u0431\u0438\u0448\u0435\u0432\u0441\u043a","name:ja":"\u30ce\u30dc\u30af\u30a4\u30d3\u30b7\u30a7\u30d5\u30b9\u30af","name:lt":"Novokuiby\u0161evskas","name:tt":"\u042f\u04a3\u0430 \u041a\u0443\u0439\u0431\u044b\u0448\u0435\u0432","min_zoom":8.0,"name:it":"Novokujby\u0161evsk","name:uk":"\u041d\u043e\u0432\u043e\u043a\u0443\u0439\u0431\u0438\u0448\u0435\u0432\u0441\u044c\u043a","name:be":"\u041d\u0430\u0432\u0430\u043a\u0443\u0439\u0431\u044b\u0448\u044d\u045e\u0441\u043a","name:pl":"Nowokujbyszewsk","name:hr":"Novokujbi\u0161evsk","id":191896570,"population":105007,"name:fa":"\u0646\u0648\u0648\u06a9\u0648\u06cc\u0628\u06cc\u0634\u0641\u0633\u06a9","kind":"locality","name:en":"Novokuybyshevsk","name":"\u041d\u043e\u0432\u043e\u043a\u0443\u0439\u0431\u044b\u0448\u0435\u0432\u0441\u043a","kind_detail":"city","name:de":"Nowokuibyschewsk","source":"openstreetmap.org","name:fr":"Novokou\u00efbychevsk","name:zh":"\u65b0\u53e4\u6bd4\u96ea\u592b\u65af\u514b"},"coordinates":[2125,2977]},{"type":"Point","properties":{"kind":"locality","name:en":"Chapaevsk","name":"\u0427\u0430\u043f\u0430\u0435\u0432\u0441\u043a","kind_detail":"town","name:de":"Tschapajewsk","source":"openstreetmap.org","min_zoom":8.0,"name:it":"\u010capaevsk","population":72945,"id":277531139,"name:ja":"\u30c1\u30e3\u30d1\u30a4\u30a7\u30d5\u30b9\u30af"},"coordinates":[1434,2408]},{"type":"Point","properties":{"kind":"locality","name:en":"Bezenchuk","name":"\u0411\u0435\u0437\u0435\u043d\u0447\u0443\u043a","kind_detail":"town","name:de":"Besentschuk","source":"openstreetmap.org","min_zoom":8.0,"name:it":"Bezen\u010duk","population":22499,"id":336526294,"name:ja":"\u30d9\u30bc\u30f3\u30c1\u30e5\u30fc\u30af"},"coordinates":[622,2427]},{"type":"Point","properties":{"kind":"locality","name:en":"Alekseyevka","name":"\u0410\u043b\u0435\u043a\u0441\u0435\u0435\u0432\u043a\u0430","kind_detail":"town","name:de":"Alexejewka","source":"openstreetmap.org","min_zoom":8.0,"name:it":"Alekseevka","name:fi":"Aleksejevka","population":10915,"id":336526429,"name:ja":"\u30a2\u30ec\u30af\u30bb\u30fc\u30a8\u30d5\u30ab"},"coordinates":[3703,3697]},{"type":"Point","properties":{"kind":"locality","name:en":"Krasnoarmeyskoe","name":"\u041a\u0440\u0430\u0441\u043d\u043e\u0430\u0440\u043c\u0435\u0439\u0441\u043a\u043e\u0435","kind_detail":"town","name:de":"Krasnoarmeiskoje","source":"openstreetmap.org","min_zoom":8.0,"name:ro":"Crasnoarmeiscoe","name:it":"Krasnoarmejskoe","name:hy":"\u053f\u0580\u0561\u057d\u0576\u0578\u0561\u0580\u0574\u0565\u0575\u057d\u056f\u0578\u0565","population":5344,"id":4501917665,"name:ja":"\u30af\u30e9\u30b9\u30ce\u30a2\u30eb\u30e1\u30a4\u30b9\u30b3\u30a8"},"coordinates":[2373,1103]}]},"transit":{"type":"GeometryCollection","geometries":[{"type":"LineString","properties":{"kind":"subway","name":"\u0410\u043b\u0430\u0431\u0438\u043d\u0441\u043a\u0430\u044f \u2014 \u042e\u043d\u0433\u043e\u0440\u043e\u0434\u043e\u043a","sort_rank":275,"colour":"red","source":"openstreetmap.org","min_zoom":8.0,"operator":"\u0421\u0430\u043c\u0430\u0440\u0441\u043a\u0438\u0439 \u043c\u0435\u0442\u0440\u043e\u043f\u043e\u043b\u0438\u0442\u0435\u043d","ref":"1","id":-173940,"osm_relation":true,"colour_name":"red"},"arcs":[1]},{"type":"MultiLineString","properties":{"source":"openstreetmap.org","kind":"train","name":"\u0416\u0438\u0433\u0443\u043b\u0451\u0432\u0441\u043a\u043e\u0435 \u043c\u043e\u0440\u0435 - \u0421\u0430\u043c\u0430\u0440\u0430","sort_rank":275,"min_zoom":6.0,"osm_relation":true},"arcs":[[2],[3],[4],[5],[6],[7],[8],[9],[10],[11]]},{"type":"LineString","properties":{"kind":"train","name":"\u041f\u043e\u0435\u0437\u0434 \u2116399: \u0422\u043e\u043c\u0441\u043a \u2014 \u0410\u043d\u0430\u043f\u0430","sort_rank":275,"source":"openstreetmap.org","min_zoom":6.0,"operator":"\u0420\u0416\u0414","ref":"399","osm_relation":true},"arcs":[12]},{"type":"MultiLineString","properties":{"kind":"train","network":"\u0420\u0416\u0414","sort_rank":275,"name:de":"373 Machatschkala<=>Tjumen","source":"openstreetmap.org","min_zoom":6.0,"operator":"\u0424\u041f\u041a","ref":"373","osm_relation":true,"name":"\u041f\u043e\u0435\u0437\u0434 373. \u041c\u0430\u0445\u0430\u0447\u043a\u0430\u043b\u0430 \u2014 \u0422\u044e\u043c\u0435\u043d\u044c"},"arcs":[[13],[14],[15],[16],[17],[18],[19]]},{"type":"LineString","properties":{"kind":"subway","name":"\u042e\u043d\u0433\u043e\u0440\u043e\u0434\u043e\u043a \u2014 \u0410\u043b\u0430\u0431\u0438\u043d\u0441\u043a\u0430\u044f","sort_rank":275,"colour":"red","source":"openstreetmap.org","min_zoom":8.0,"operator":"\u0421\u0430\u043c\u0430\u0440\u0441\u043a\u0438\u0439 \u043c\u0435\u0442\u0440\u043e\u043f\u043e\u043b\u0438\u0442\u0435\u043d","ref":"1","id":-173532,"osm_relation":true,"colour_name":"red"},"arcs":[20]},{"type":"LineString","properties":{"kind":"train","name":"5\/6 \u0422\u0430\u0448\u043a\u0435\u043d\u0442<=>\u041c\u043e\u0441\u043a\u0432\u0430","sort_rank":275,"name:de":"5\/6 Taschkent<=>Moskau","source":"openstreetmap.org","min_zoom":6.0,"network":"\u0423\u0422\u0419","ref":"5\/6","osm_relation":true,"description":"5 \u0422\u0430\u0448\u043a\u0435\u043d\u0442 -> \u041c\u043e\u0441\u043a\u0432\u0430 \/ 6 \u041c\u043e\u0441\u043a\u0432\u0430 -> \u0422\u0430\u0448\u043a\u0435\u043d\u0442"},"arcs":[21]},{"type":"MultiLineString","properties":{"source":"openstreetmap.org","kind":"train","name":"\u0421\u0430\u043c\u0430\u0440\u0430 - \u0416\u0438\u0433\u0443\u043b\u0451\u0432\u0441\u043a\u043e\u0435 \u043c\u043e\u0440\u0435","sort_rank":275,"min_zoom":6.0,"osm_relation":true},"arcs":[[22],[23],[24],[25],[26],[27],[28],[29],[30],[31],[32],[33]]}]},"pois":{"type":"GeometryCollection","geometries":[{"type":"Point","properties":{"kind":"protected_area","name:en":"Sokoly Gory","protect_class":"3","area":11192200,"source":"openstreetmap.org","min_zoom":8.0,"tier":2,"id":-3178789,"osm_relation":true,"name":"\u0421\u043e\u043a\u043e\u043b\u044c\u0438 \u0433\u043e\u0440\u044b \u0438 \u0431\u0435\u0440\u0435\u0433 \u043c\u0435\u0436\u0434\u0443 \u0421\u0442\u0443\u0434\u0435\u043d\u044b\u043c \u0438 \u041a\u043e\u043f\u0442\u0435\u0432\u044b\u043c \u043e\u0432\u0440\u0430\u0433\u043e\u043c"},"coordinates":[2868,4052]},{"type":"Point","properties":{"kind":"military","name":"\u041f\u0440\u0438\u0432\u043e\u043b\u0436\u0441\u043a\u0438\u0439 \u0433\u043e\u0441\u0443\u0434\u0430\u0440\u0441\u0442\u0432\u0435\u043d\u043d\u044b\u0439 \u0431\u043e\u0435\u043f\u0440\u0438\u043f\u0430\u0441\u043d\u044b\u0439 \u0438\u0441\u043f\u044b\u0442\u0430\u0442\u0435\u043b\u044c\u043d\u044b\u0439 \u043f\u043e\u043b\u0438\u0433\u043e\u043d","area":156644000,"official_name":"\u0424\u0435\u0434\u0435\u0440\u0430\u043b\u044c\u043d\u043e\u0435 \u043a\u0430\u0437\u0435\u043d\u043d\u043e\u0435 \u043f\u0440\u0435\u0434\u043f\u0440\u0438\u044f\u0442\u0438\u0435 \u00ab\u041f\u0440\u0438\u0432\u043e\u043b\u0436\u0441\u043a\u0438\u0439 \u0433\u043e\u0441\u0443\u0434\u0430\u0440\u0441\u0442\u0432\u0435\u043d\u043d\u044b\u0439 \u0431\u043e\u0435\u043f\u0440\u0438\u043f\u0430\u0441\u043d\u044b\u0439 \u0438\u0441\u043f\u044b\u0442\u0430\u0442\u0435\u043b\u044c\u043d\u044b\u0439 \u043f\u043e\u043b\u0438\u0433\u043e\u043d\u00bb","source":"openstreetmap.org","min_zoom":8.0,"tier":3,"id":-2995841,"osm_relation":true},"coordinates":[1860,2182]}]},"boundaries":{"type":"GeometryCollection","geometries":[{"type":"LineString","properties":{"name:nl":"Oblast Samara","name:ja":"\u30b5\u30de\u30fc\u30e9\u5dde","name:lt":"Samaros sritis","name:cv":"\u0421\u0430\u043c\u0430\u0440 \u043e\u0431\u043b\u0430\u00e7\u0115","name:cs":"Samarsk\u00e1 oblast","name:tt":"\u0421\u0430\u043c\u0430\u0440\u0430 \u04e9\u043b\u043a\u04d9\u0441\u0435","min_zoom":8.0,"name:it":"Oblast' di Samara","name:uk":"\u0421\u0430\u043c\u0430\u0440\u0441\u044c\u043a\u0430 \u043e\u0431\u043b\u0430\u0441\u0442\u044c","name:os":"\u0421\u0430\u043c\u0430\u0440\u00e6\u0439\u044b \u043e\u0431\u043b\u00e6\u0441\u0442","name:be":"\u0421\u0430\u043c\u0430\u0440\u0441\u043a\u0430\u044f \u0432\u043e\u0431\u043b\u0430\u0441\u0446\u044c","name:pl":"Obw\u00f3d samarski","name:ba":"\u04ba\u0430\u043c\u0430\u0440 \u04e9\u043b\u043a\u04d9\u04bb\u0435","name:ca":"Prov\u00edncia de Samara","kind":"region","name:en":"Samara Oblast","name":"\u0421\u0430\u043c\u0430\u0440\u0441\u043a\u0430\u044f \u043e\u0431\u043b\u0430\u0441\u0442\u044c","sort_rank":256,"kind_detail":"4","id":-72194,"name:de":"Oblast Samara","source":"openstreetmap.org","name:fr":"Oblast de Samara","osm_relation":true,"name:es":"\u00d3blast de Samara"},"arcs":[0]}]},"roads":{"type":"GeometryCollection","geometries":[{"type":"MultiLineString","properties":{"bus_network":null,"name:en":"Pobedy Street","sort_rank":380,"kind_detail":"primary","kind":"major_road","source":"openstreetmap.org","min_zoom":8.0,"bus_shield_text":"7","landuse_kind":"urban_area"},"arcs":[[36],[37]]},{"type":"LineString","properties":{"kind":"major_road","network":"ru:national","sort_rank":380,"kind_detail":"primary","source":"openstreetmap.org","min_zoom":8.0,"landuse_kind":"urban_area","shield_text":"5","ref":"\u041c-5"},"arcs":[38]},{"type":"MultiLineString","properties":{"bus_network":null,"name:en":"prospekt Kirova","sort_rank":380,"kind_detail":"primary","kind":"major_road","source":"openstreetmap.org","min_zoom":8.0,"bus_shield_text":"8","landuse_kind":"urban_area"},"arcs":[[39],[40],[41],[42]]},{"type":"MultiLineString","properties":{"bus_network":null,"name:en":"Moskovskoe shosse","network":"ru:national","sort_rank":380,"kind_detail":"primary","kind":"major_road","source":"openstreetmap.org","min_zoom":8.0,"bus_shield_text":"56","shield_text":"5","landuse_kind":"urban_area","ref":"36\u041a-887"},"arcs":[[43],[44]]},{"type":"MultiLineString","properties":{"bus_network":null,"name:en":"Demokraticheskaya Street","network":"ru:regional","sort_rank":380,"kind_detail":"primary","kind":"major_road","source":"openstreetmap.org","min_zoom":8.0,"bus_shield_text":"50","shield_text":"36\u041a","landuse_kind":"urban_area","ref":"36\u041a-918"},"arcs":[[45],[46],[47],[48],[49],[50],[51],[52]]},{"type":"LineString","properties":{"source":"openstreetmap.org","kind":"ferry","name":"\u0412\u043e\u0434\u043d\u044b\u0439 \u043c\u0430\u0440\u0448\u0440\u0443\u0442 \u0434\u043b\u044f \u043a\u0430\u0442\u0435\u0440\u043e\u0432 \u043d\u0430 \u0431\u0430\u0437\u0443 (\u043f\u0430\u043b\u0430\u0442\u043e\u0447\u043d\u044b\u0439 \u0433\u043e\u0440\u043e\u0434\u043e\u043a)","sort_rank":355,"is_bicycle_related":true,"min_zoom":8.0,"id":246966175},"arcs":[53]},{"type":"MultiLineString","properties":{"bus_network":null,"sort_rank":380,"kind_detail":"primary","kind":"major_road","source":"openstreetmap.org","min_zoom":8.0,"bus_shield_text":"140\u0410","landuse_kind":"urban_area"},"arcs":[[54],[55],[56],[57],[58]]},{"type":"MultiLineString","properties":{"kind":"major_road","network":"ru:national","sort_rank":381,"kind_detail":"trunk","source":"openstreetmap.org","min_zoom":8.0,"shield_text":"300","ref":"\u0410-300"},"arcs":[[59],[60],[61],[62],[63]]},{"type":"MultiLineString","properties":{"bus_network":null,"network":"ru:regional","sort_rank":380,"kind_detail":"primary","kind":"major_road","source":"openstreetmap.org","min_zoom":8.0,"bus_shield_text":"534","shield_text":null,"ref":"36\u0420-069"},"arcs":[[64],[65],[66]]},{"type":"MultiLineString","properties":{"bus_network":null,"network":"ru:regional","sort_rank":380,"landuse_kind":"urban_area","kind":"major_road","source":"openstreetmap.org","min_zoom":8.0,"bus_shield_text":"410\u0430","shield_text":"36\u041a","kind_detail":"primary","ref":"36\u041a-887"},"arcs":[[67],[68]]},{"type":"MultiLineString","properties":{"bus_network":null,"name:en":"Novo-Sadovaya Street","network":"ru:regional","sort_rank":380,"kind_detail":"primary","kind":"major_road","source":"openstreetmap.org","min_zoom":8.0,"bus_shield_text":"1","shield_text":"36\u041a","landuse_kind":"urban_area","ref":"36\u041a-888"},"arcs":[[69],[70],[71],[72]]},{"type":"MultiLineString","properties":{"bus_network":null,"network":"ru:national","sort_rank":380,"kind_detail":"primary","kind":"major_road","source":"openstreetmap.org","min_zoom":8.0,"bus_shield_text":"140\u0410","shield_text":"5","landuse_kind":"urban_area","ref":"\u041c-5"},"arcs":[[73],[74],[75],[76],[77],[78],[79]]},{"type":"LineString","properties":{"bus_network":null,"name:en":"Avrory Street","network":"ru:national","sort_rank":380,"kind_detail":"primary","kind":"major_road","source":"openstreetmap.org","min_zoom":8.0,"bus_shield_text":"140\u0410","shield_text":"5","landuse_kind":"urban_area"},"arcs":[80]},{"type":"LineString","properties":{"bus_network":null,"name:en":"Michurina Street","sort_rank":380,"kind_detail":"primary","kind":"major_road","source":"openstreetmap.org","min_zoom":8.0,"bus_shield_text":"410\u0430","landuse_kind":"urban_area"},"arcs":[81]},{"type":"MultiLineString","properties":{"sort_rank":355,"landuse_kind":"urban_area","min_zoom":8.0,"kind":"ferry","source":"openstreetmap.org"},"arcs":[[82],[83],[84],[85],[86]]},{"type":"LineString","properties":{"source":"openstreetmap.org","kind":"ferry","name":"\u0421\u0430\u043c\u0430\u0440\u0430 - \u041f\u043e\u043b\u044f\u043d\u0430 \u0438\u043c. \u0424\u0440\u0443\u043d\u0437\u0435 - \u0428\u0438\u0440\u044f\u0435\u0432\u043e","sort_rank":355,"landuse_kind":"park","min_zoom":8.0,"id":382710918},"arcs":[87]},{"type":"LineString","properties":{"kind":"major_road","network":"ru:national","sort_rank":380,"kind_detail":"primary","bus_network":null,"source":"openstreetmap.org","min_zoom":8.0,"bus_shield_text":"140\u0410","shield_text":"5","landuse_kind":"urban_area","id":144314851},"arcs":[88]},{"type":"LineString","properties":{"kind":"major_road","network":"ru:regional","sort_rank":380,"kind_detail":"primary","bus_network":null,"source":"openstreetmap.org","min_zoom":8.0,"bus_shield_text":"1","shield_text":"36\u041a","landuse_kind":"urban_area","ref":"36\u041a-888","id":107433940},"arcs":[89]},{"type":"LineString","properties":{"source":"openstreetmap.org","kind":"ferry","name":"\u043f\u0440. \u041e\u0441\u0438\u043f\u0435\u043d\u043a\u043e - \u0417\u0435\u043b\u0435\u043d\u0430\u044f \u0420\u043e\u0449\u0430","sort_rank":355,"landuse_kind":"urban_area","min_zoom":8.0,"id":169979766},"arcs":[90]},{"type":"MultiLineString","properties":{"source":"openstreetmap.org","kind":"major_road","name:en":"Revolyutsii Square","landuse_kind":"urban_area","sort_rank":380,"kind_detail":"primary","min_zoom":8.0},"arcs":[[91],[92]]},{"type":"LineString","properties":{"kind":"major_road","name:en":"Moskovskoe shosse","network":"ru:regional","sort_rank":380,"kind_detail":"primary","bus_network":null,"source":"openstreetmap.org","min_zoom":8.0,"bus_shield_text":"24","shield_text":"36\u041a","landuse_kind":"urban_area","ref":"36\u041a-887","id":107680415},"arcs":[93]},{"type":"MultiLineString","properties":{"bus_network":null,"sort_rank":380,"kind_detail":"primary","kind":"major_road","source":"openstreetmap.org","min_zoom":8.0,"bus_shield_text":"56","landuse_kind":"urban_area"},"arcs":[[94],[95]]},{"type":"LineString","properties":{"kind":"major_road","sort_rank":380,"kind_detail":"primary","bus_network":null,"source":"openstreetmap.org","min_zoom":8.0,"bus_shield_text":"534","landuse_kind":"urban_area","ref":"36\u0420-069","id":17319285},"arcs":[96]},{"type":"LineString","properties":{"bus_network":null,"name:en":"Gagarina Street","sort_rank":380,"kind_detail":"primary","kind":"major_road","source":"openstreetmap.org","min_zoom":8.0,"bus_shield_text":"67","landuse_kind":"urban_area"},"arcs":[97]},{"type":"LineString","properties":{"kind":"major_road","sort_rank":380,"kind_detail":"primary","bus_network":null,"source":"openstreetmap.org","min_zoom":8.0,"bus_shield_text":"24","landuse_kind":"urban_area","id":136714660},"arcs":[98]},{"type":"LineString","properties":{"source":"openstreetmap.org","kind":"ferry","name":"\u0421\u0430\u043c\u0430\u0440\u0430 - \u041f\u043e\u043b\u044f\u043d\u0430 \u0438\u043c. \u0424\u0440\u0443\u043d\u0437\u0435 - \u0428\u0438\u0440\u044f\u0435\u0432\u043e","sort_rank":355,"landuse_kind":"urban_area","min_zoom":8.0,"id":382710918},"arcs":[99]},{"type":"LineString","properties":{"bus_network":null,"network":"ru:regional","sort_rank":380,"kind_detail":"primary","kind":"major_road","source":"openstreetmap.org","min_zoom":8.0,"bus_shield_text":"3\u044d","shield_text":null,"ref":"36\u0420-069"},"arcs":[100]},{"type":"LineString","properties":{"kind":"major_road","network":"ru:regional","sort_rank":380,"kind_detail":"primary","source":"openstreetmap.org","min_zoom":8.0,"shield_text":null,"ref":"36\u0420-069"},"arcs":[101]},{"type":"MultiLineString","properties":{"kind":"major_road","network":"ru:regional","sort_rank":380,"kind_detail":"primary","source":"openstreetmap.org","min_zoom":8.0,"landuse_kind":"urban_area","shield_text":"36\u041a","ref":"36\u041a-851"},"arcs":[[102],[103],[104],[105],[106]]},{"type":"LineString","properties":{"bus_network":null,"name:en":"prospekt Kirova","sort_rank":380,"landuse_kind":"urban_area","kind":"major_road","source":"openstreetmap.org","min_zoom":8.0,"bus_shield_text":"1","kind_detail":"primary"},"arcs":[107]},{"type":"MultiLineString","properties":{"bus_network":null,"network":"ru:national","sort_rank":380,"kind_detail":"primary","kind":"major_road","source":"openstreetmap.org","min_zoom":8.0,"bus_shield_text":"534","shield_text":"300","landuse_kind":"urban_area","ref":"\u0410-300"},"arcs":[[108],[109],[110]]},{"type":"MultiLineString","properties":{"source":"openstreetmap.org","kind":"major_road","name:en":"Gagarina Street","landuse_kind":"urban_area","sort_rank":380,"kind_detail":"primary","min_zoom":8.0},"arcs":[[111],[112],[113],[114]]},{"type":"LineString","properties":{"kind":"major_road","sort_rank":380,"kind_detail":"primary","bus_network":null,"source":"openstreetmap.org","min_zoom":8.0,"bus_shield_text":"534","landuse_kind":"urban_area","ref":"\u0410-300","id":542127339},"arcs":[115]},{"type":"MultiLineString","properties":{"source":"openstreetmap.org","kind":"major_road","name:en":"Pobedy Street","landuse_kind":"urban_area","sort_rank":380,"kind_detail":"primary","min_zoom":8.0},"arcs":[[116],[117],[118]]},{"type":"LineString","properties":{"source":"openstreetmap.org","bus_network":null,"bus_shield_text":"534","sort_rank":380,"kind_detail":"primary","min_zoom":8.0,"kind":"major_road"},"arcs":[119]},{"type":"LineString","properties":{"source":"openstreetmap.org","kind":"ferry","name":"\u0423\u043b\u044c\u044f\u043d\u043e\u0432\u0441\u043a\u0438\u0439 \u0441\u043f\u0443\u0441\u043a \u2014 \u0420\u043e\u0436\u0434\u0435\u0441\u0442\u0432\u0435\u043d\u043e","sort_rank":355,"landuse_kind":"urban_area","min_zoom":8.0,"id":219973255},"arcs":[120]},{"type":"MultiLineString","properties":{"bus_network":null,"name:en":"Kuybysheva Street","sort_rank":380,"kind_detail":"primary","kind":"major_road","source":"openstreetmap.org","min_zoom":8.0,"bus_shield_text":"24","landuse_kind":"urban_area"},"arcs":[[121],[122]]},{"type":"MultiLineString","properties":{"bus_network":null,"network":"ru:regional","sort_rank":380,"kind_detail":"primary","kind":"major_road","source":"openstreetmap.org","min_zoom":8.0,"bus_shield_text":"140\u0410","shield_text":null,"landuse_kind":"urban_area","ref":"36\u0420-069"},"arcs":[[123],[124],[125],[126],[127],[128],[129]]},{"type":"MultiLineString","properties":{"source":"openstreetmap.org","kind":"major_road","landuse_kind":"urban_area","sort_rank":380,"kind_detail":"primary","min_zoom":8.0},"arcs":[[130],[131],[132],[133],[134],[135],[136],[137],[138],[139],[140],[141],[142],[143],[144],[145],[146],[147],[148],[149],[150],[151],[152],[153],[154],[155],[156],[157],[158],[159],[160],[161],[162],[163],[164],[165],[166],[167],[168],[169],[170],[171],[172],[173],[174],[175],[176],[177],[178],[179],[180],[181],[182],[183]]},{"type":"MultiLineString","properties":{"kind":"major_road","network":"ru:regional","sort_rank":381,"kind_detail":"trunk","source":"openstreetmap.org","min_zoom":8.0,"shield_text":"36\u0410","ref":"36\u0410-144"},"arcs":[[184],[185],[186],[187]]},{"type":"MultiLineString","properties":{"source":"openstreetmap.org","kind":"major_road","landuse_kind":"urban_area","sort_rank":380,"kind_detail":"primary","ref":"36\u041a-887","min_zoom":8.0},"arcs":[[188],[189],[190],[191]]},{"type":"LineString","properties":{"kind":"major_road","sort_rank":380,"kind_detail":"primary","bus_network":null,"source":"openstreetmap.org","min_zoom":8.0,"bus_shield_text":"17","landuse_kind":"urban_area","id":144284081},"arcs":[192]},{"type":"MultiLineString","properties":{"bus_network":null,"name:en":"Kuybysheva Street","sort_rank":380,"kind_detail":"primary","kind":"major_road","source":"openstreetmap.org","min_zoom":8.0,"bus_shield_text":"6","landuse_kind":"urban_area"},"arcs":[[193],[194]]},{"type":"LineString","properties":{"kind":"major_road","name:en":"Volzhskoe shosse","sort_rank":380,"kind_detail":"primary","bus_network":null,"source":"openstreetmap.org","min_zoom":8.0,"bus_shield_text":"50","id":354667112},"arcs":[195]},{"type":"MultiLineString","properties":{"bus_network":null,"network":"ru:regional","sort_rank":380,"kind_detail":"primary","kind":"major_road","source":"openstreetmap.org","min_zoom":8.0,"bus_shield_text":"50","shield_text":"36\u041a","landuse_kind":"urban_area","ref":"36\u041a-888"},"arcs":[[196],[197],[198],[199]]},{"type":"LineString","properties":{"bus_network":null,"name:en":"Polevaya Street","sort_rank":380,"kind_detail":"primary","kind":"major_road","source":"openstreetmap.org","min_zoom":8.0,"bus_shield_text":"24","landuse_kind":"urban_area"},"arcs":[200]},{"type":"MultiLineString","properties":{"bus_network":null,"name:en":"Avrory Street","network":"ru:national","sort_rank":380,"kind_detail":"primary","kind":"major_road","source":"openstreetmap.org","min_zoom":8.0,"bus_shield_text":"140\u0410","shield_text":"5","landuse_kind":"urban_area","ref":"\u041c-5"},"arcs":[[201],[202],[203],[204],[205],[206],[207],[208]]},{"type":"MultiLineString","properties":{"bus_network":null,"name:en":"Volzhskoe shosse","network":"ru:regional","sort_rank":380,"kind_detail":"primary","kind":"major_road","source":"openstreetmap.org","min_zoom":8.0,"bus_shield_text":"50","shield_text":"36\u041a","ref":"36\u041a-919"},"arcs":[[209],[210]]},{"type":"LineString","properties":{"bus_network":null,"name:en":"Kutyakova Street","sort_rank":380,"kind_detail":"primary","kind":"major_road","source":"openstreetmap.org","min_zoom":8.0,"bus_shield_text":"140","landuse_kind":"urban_area"},"arcs":[211]},{"type":"LineString","properties":{"kind":"major_road","name:en":"Moskovskoe shosse","network":"ru:regional","sort_rank":380,"kind_detail":"primary","bus_network":null,"source":"openstreetmap.org","min_zoom":8.0,"bus_shield_text":"1","shield_text":"36\u041a","landuse_kind":"urban_area","ref":"36\u041a-887","id":431194958},"arcs":[212]},{"type":"MultiLineString","properties":{"bus_network":null,"name:en":"Demokraticheskaya Street","network":"ru:regional","sort_rank":380,"kind_detail":"primary","kind":"major_road","source":"openstreetmap.org","min_zoom":8.0,"bus_shield_text":"50","shield_text":"36\u041a","ref":"36\u041a-918"},"arcs":[[213],[214],[215]]},{"type":"LineString","properties":{"kind":"major_road","name:en":"Demokraticheskaya Street","network":"ru:regional","sort_rank":380,"kind_detail":"primary","source":"openstreetmap.org","min_zoom":8.0,"landuse_kind":"urban_area","shield_text":"36\u041a","ref":"36\u041a-918","id":513823684},"arcs":[216]},{"type":"MultiLineString","properties":{"sort_rank":355,"source":"openstreetmap.org","min_zoom":8.0,"kind":"ferry"},"arcs":[[217],[218],[219]]},{"type":"LineString","properties":{"source":"openstreetmap.org","kind":"ferry","sort_rank":355,"landuse_kind":"park","min_zoom":8.0,"id":230957738},"arcs":[220]},{"type":"LineString","properties":{"bus_network":null,"name:en":"Pobedy Street","sort_rank":380,"landuse_kind":"urban_area","kind":"major_road","source":"openstreetmap.org","min_zoom":8.0,"bus_shield_text":"20","kind_detail":"primary"},"arcs":[221]},{"type":"MultiLineString","properties":{"bus_network":null,"name:en":"Moskovskoe shosse","network":"ru:national","sort_rank":380,"kind_detail":"primary","kind":"major_road","source":"openstreetmap.org","min_zoom":8.0,"bus_shield_text":"410\u0430","shield_text":"5","landuse_kind":"urban_area","ref":"36\u041a-887"},"arcs":[[222],[223],[224],[225],[226],[227],[228],[229],[230],[231],[232],[233],[234]]},{"type":"LineString","properties":{"kind":"major_road","name:en":"Moskovskoe shosse","network":"ru:regional","sort_rank":380,"kind_detail":"primary","bus_network":null,"source":"openstreetmap.org","min_zoom":8.0,"bus_shield_text":"140\u0410","shield_text":"36\u041a","landuse_kind":"urban_area","ref":"36\u041a-887","id":431194957},"arcs":[235]},{"type":"LineString","properties":{"bus_network":null,"name:en":"Samarskaya Street","sort_rank":380,"landuse_kind":"urban_area","kind":"major_road","source":"openstreetmap.org","min_zoom":8.0,"bus_shield_text":"50","kind_detail":"primary"},"arcs":[236]},{"type":"MultiLineString","properties":{"kind":"major_road","network":"ru:national","sort_rank":380,"kind_detail":"primary","source":"openstreetmap.org","min_zoom":8.0,"shield_text":"5","ref":"\u041c-5"},"arcs":[[237],[238],[239]]},{"type":"LineString","properties":{"kind":"major_road","network":"ru:national","sort_rank":380,"kind_detail":"primary","source":"openstreetmap.org","min_zoom":8.0,"landuse_kind":"urban_area","shield_text":"5","ref":"36\u041a-887"},"arcs":[240]},{"type":"MultiLineString","properties":{"sort_rank":380,"kind_detail":"primary","min_zoom":8.0,"kind":"major_road","source":"openstreetmap.org"},"arcs":[[241],[242],[243],[244],[245],[246],[247]]},{"type":"LineString","properties":{"kind":"major_road","network":"ru:national","sort_rank":380,"kind_detail":"primary","bus_network":null,"source":"openstreetmap.org","min_zoom":8.0,"bus_shield_text":"15","shield_text":"5","landuse_kind":"urban_area","ref":"36\u041a-887","id":381681542},"arcs":[248]},{"type":"MultiLineString","properties":{"kind":"major_road","network":"ru:national","sort_rank":380,"kind_detail":"primary","source":"openstreetmap.org","min_zoom":8.0,"shield_text":"300","ref":"\u0410-300"},"arcs":[[249],[250],[251]]},{"type":"MultiLineString","properties":{"bus_network":null,"sort_rank":380,"kind_detail":"primary","kind":"major_road","source":"openstreetmap.org","min_zoom":8.0,"bus_shield_text":"534","landuse_kind":"urban_area"},"arcs":[[252],[253],[254],[255],[256],[257]]},{"type":"MultiLineString","properties":{"source":"openstreetmap.org","kind":"major_road","network":"AsianHighway","sort_rank":381,"kind_detail":"trunk","min_zoom":8.0,"shield_text":"63"},"arcs":[[258],[259],[260],[261]]},{"type":"MultiLineString","properties":{"bus_network":null,"network":"ru:regional","sort_rank":380,"kind_detail":"primary","kind":"major_road","source":"openstreetmap.org","min_zoom":8.0,"bus_shield_text":"534","shield_text":null,"landuse_kind":"urban_area","ref":"36\u0420-069"},"arcs":[[262],[263],[264],[265]]},{"type":"MultiLineString","properties":{"bus_network":null,"name:en":"Novo-Sadovaya Street","sort_rank":380,"landuse_kind":"urban_area","kind":"major_road","source":"openstreetmap.org","min_zoom":8.0,"bus_shield_text":"50","kind_detail":"primary"},"arcs":[[266],[267],[268],[269]]},{"type":"LineString","properties":{"kind":"major_road","sort_rank":380,"kind_detail":"primary","bus_network":null,"source":"openstreetmap.org","min_zoom":8.0,"bus_shield_text":"15","landuse_kind":"urban_area","id":15240342},"arcs":[270]},{"type":"LineString","properties":{"bus_network":null,"name:en":"Hlebnaya Square","sort_rank":380,"kind_detail":"primary","kind":"major_road","source":"openstreetmap.org","min_zoom":8.0,"bus_shield_text":"140","landuse_kind":"urban_area"},"arcs":[271]},{"type":"MultiLineString","properties":{"source":"openstreetmap.org","kind":"major_road","name:en":"Novo-Vokzalnaya St","landuse_kind":"urban_area","sort_rank":380,"kind_detail":"primary","min_zoom":8.0},"arcs":[[272],[273]]},{"type":"LineString","properties":{"bus_network":null,"name:en":"Gagarina Street","sort_rank":380,"kind_detail":"primary","kind":"major_road","source":"openstreetmap.org","min_zoom":8.0,"bus_shield_text":"24","landuse_kind":"urban_area"},"arcs":[274]},{"type":"LineString","properties":{"bus_network":null,"sort_rank":380,"kind_detail":"primary","old_name":"\u0443\u043b\u0438\u0446\u0430 \u041a\u0430\u0440\u0431\u044e\u0440\u0430\u0442\u043e\u0440\u043d\u0430\u044f","kind":"major_road","source":"openstreetmap.org","min_zoom":8.0,"bus_shield_text":"140","landuse_kind":"urban_area"},"arcs":[275]},{"type":"MultiLineString","properties":{"source":"openstreetmap.org","kind":"major_road","name:en":"prospekt Kirova","landuse_kind":"urban_area","sort_rank":380,"kind_detail":"primary","min_zoom":8.0},"arcs":[[276],[277],[278]]},{"type":"LineString","properties":{"kind":"major_road","network":"ru:regional","sort_rank":380,"kind_detail":"primary","bus_network":null,"source":"openstreetmap.org","min_zoom":8.0,"bus_shield_text":"17","shield_text":null,"landuse_kind":"urban_area","ref":"36\u0420-069","id":438874654},"arcs":[279]},{"type":"MultiLineString","properties":{"kind":"major_road","network":"ru:regional","sort_rank":380,"kind_detail":"primary","source":"openstreetmap.org","min_zoom":8.0,"shield_text":"36\u041a","ref":"36\u041a-851"},"arcs":[[280],[281]]},{"type":"LineString","properties":{"kind":"major_road","name:en":"Avrory Street","network":"ru:national","sort_rank":380,"kind_detail":"primary","bus_network":null,"source":"openstreetmap.org","min_zoom":8.0,"bus_shield_text":"15","shield_text":"5","landuse_kind":"urban_area","id":514236700},"arcs":[282]},{"type":"MultiLineString","properties":{"bus_network":null,"name:en":"Lenina Avenue","sort_rank":380,"kind_detail":"primary","kind":"major_road","source":"openstreetmap.org","min_zoom":8.0,"bus_shield_text":"50","landuse_kind":"urban_area"},"arcs":[[283],[284]]},{"type":"LineString","properties":{"source":"openstreetmap.org","kind":"major_road","name:en":"Samarskaya Street","landuse_kind":"urban_area","sort_rank":380,"kind_detail":"primary","min_zoom":8.0},"arcs":[285]},{"type":"LineString","properties":{"source":"openstreetmap.org","kind":"ferry","name":"\u041e\u043a\u0442\u044f\u0431\u0440\u044c\u0441\u043a\u0438\u0439 \u0441\u043f\u0443\u0441\u043a \u2014 \u0420\u043e\u0436\u0434\u0435\u0441\u0442\u0432\u0435\u043d\u043e","sort_rank":355,"landuse_kind":"urban_area","min_zoom":8.0,"id":219933128},"arcs":[286]},{"type":"MultiLineString","properties":{"bus_network":null,"sort_rank":380,"kind_detail":"primary","kind":"major_road","source":"openstreetmap.org","min_zoom":8.0,"bus_shield_text":"4","landuse_kind":"urban_area"},"arcs":[[287],[288],[289],[290]]},{"type":"MultiLineString","properties":{"kind":"major_road","network":"ru:national","sort_rank":381,"kind_detail":"trunk","source":"openstreetmap.org","min_zoom":8.0,"landuse_kind":"park","shield_text":"5","ref":"\u041c-5"},"arcs":[[291],[292],[293],[294]]},{"type":"LineString","properties":{"bus_network":null,"sort_rank":380,"kind_detail":"primary","kind":"major_road","source":"openstreetmap.org","min_zoom":8.0,"bus_shield_text":"3\u044d","ref":"36\u0420-069"},"arcs":[295]},{"type":"LineString","properties":{"bus_network":null,"name:en":"Lva Tolstogo Street","sort_rank":380,"kind_detail":"primary","kind":"major_road","source":"openstreetmap.org","min_zoom":8.0,"bus_shield_text":"37","landuse_kind":"urban_area"},"arcs":[296]},{"type":"MultiLineString","properties":{"bus_network":null,"name:en":"prospekt Kirova","sort_rank":380,"kind_detail":"primary","kind":"major_road","source":"openstreetmap.org","min_zoom":8.0,"bus_shield_text":"4","landuse_kind":"urban_area"},"arcs":[[297],[298],[299],[300]]},{"type":"LineString","properties":{"kind":"major_road","name:en":"Demokraticheskaya Street","sort_rank":380,"kind_detail":"primary","bus_network":null,"source":"openstreetmap.org","min_zoom":8.0,"bus_shield_text":"50","landuse_kind":"urban_area","id":127212482},"arcs":[301]},{"type":"LineString","properties":{"kind":"major_road","name:en":"Moskovskoe shosse","network":"ru:national","sort_rank":380,"kind_detail":"primary","bus_network":null,"source":"openstreetmap.org","min_zoom":8.0,"bus_shield_text":"140\u0410","shield_text":"5","landuse_kind":"urban_area","ref":"36\u041a-887","id":544146911},"arcs":[302]},{"type":"LineString","properties":{"kind":"major_road","network":"ru:regional","sort_rank":380,"kind_detail":"primary","source":"openstreetmap.org","min_zoom":8.0,"landuse_kind":"urban_area","shield_text":null,"ref":"36\u0420-069","id":17319297},"arcs":[303]},{"type":"MultiLineString","properties":{"bus_network":null,"network":"ru:regional","sort_rank":380,"kind_detail":"primary","kind":"major_road","source":"openstreetmap.org","min_zoom":8.0,"bus_shield_text":"140\u0410","shield_text":null,"ref":"36\u0420-069"},"arcs":[[304],[305],[306],[307],[308],[309],[310]]},{"type":"LineString","properties":{"kind":"major_road","network":"ru:national","sort_rank":380,"kind_detail":"primary","bus_network":null,"source":"openstreetmap.org","min_zoom":8.0,"bus_shield_text":"534","shield_text":"5","landuse_kind":"urban_area","ref":"\u041c-5","id":17156914},"arcs":[311]},{"type":"LineString","properties":{"bus_network":null,"name:en":"prospekt Kirova","sort_rank":380,"kind_detail":"primary","kind":"major_road","source":"openstreetmap.org","min_zoom":8.0,"bus_shield_text":"56","landuse_kind":"urban_area"},"arcs":[312]},{"type":"MultiLineString","properties":{"kind":"major_road","name:en":"Moskovskoe shosse","sort_rank":380,"kind_detail":"primary","source":"openstreetmap.org","min_zoom":8.0,"landuse_kind":"urban_area","ref":"36\u041a-887"},"arcs":[[313],[314]]},{"type":"MultiLineString","properties":{"kind":"major_road","network":"ru:national","sort_rank":381,"kind_detail":"trunk","source":"openstreetmap.org","min_zoom":8.0,"shield_text":"5","ref":"\u041c-5"},"arcs":[[315],[316],[317]]},{"type":"MultiLineString","properties":{"source":"openstreetmap.org","kind":"major_road","name:en":"Volzhskoe shosse","sort_rank":380,"kind_detail":"primary","min_zoom":8.0},"arcs":[[318],[319],[320]]},{"type":"MultiLineString","properties":{"bus_network":null,"name:en":"Moskovskoe shosse","network":"ru:national","sort_rank":380,"kind_detail":"primary","kind":"major_road","source":"openstreetmap.org","min_zoom":8.0,"bus_shield_text":"410\u0430","shield_text":"5","landuse_kind":"urban_area","ref":"\u041c-5"},"arcs":[[321],[322]]},{"type":"LineString","properties":{"kind":"major_road","name:en":"Lenina Avenue","sort_rank":380,"landuse_kind":"urban_area","source":"openstreetmap.org","min_zoom":8.0,"kind_detail":"primary","id":102812270},"arcs":[323]},{"type":"LineString","properties":{"kind":"major_road","network":"ru:national","sort_rank":380,"kind_detail":"primary","bus_network":null,"source":"openstreetmap.org","min_zoom":8.0,"bus_shield_text":"56","shield_text":"5","landuse_kind":"urban_area","ref":"\u041c-5","id":107680506},"arcs":[324]},{"type":"MultiLineString","properties":{"bus_network":null,"sort_rank":380,"kind_detail":"primary","kind":"major_road","source":"openstreetmap.org","min_zoom":8.0,"bus_shield_text":"1","landuse_kind":"urban_area"},"arcs":[[325],[326]]},{"type":"LineString","properties":{"kind":"major_road","name:en":"Moskovskoe shosse","network":"ru:regional","sort_rank":380,"kind_detail":"primary","source":"openstreetmap.org","min_zoom":8.0,"landuse_kind":"urban_area","shield_text":"36\u041a","ref":"36\u041a-887","id":15242568},"arcs":[327]},{"type":"MultiLineString","properties":{"kind":"major_road","network":"ru:national","sort_rank":380,"kind_detail":"primary","source":"openstreetmap.org","min_zoom":8.0,"landuse_kind":"urban_area","shield_text":"300","ref":"\u0410-300"},"arcs":[[328],[329],[330],[331]]},{"type":"LineString","properties":{"kind":"major_road","sort_rank":380,"landuse_kind":"urban_area","source":"openstreetmap.org","min_zoom":8.0,"kind_detail":"primary","ref":"36\u0420-069","id":542127347},"arcs":[332]},{"type":"MultiLineString","properties":{"bus_network":null,"sort_rank":380,"kind_detail":"primary","kind":"major_road","source":"openstreetmap.org","min_zoom":8.0,"bus_shield_text":"50","landuse_kind":"urban_area"},"arcs":[[333],[334],[335]]},{"type":"MultiLineString","properties":{"bus_network":null,"name:en":"Revolyutsii Square","sort_rank":380,"kind_detail":"primary","kind":"major_road","source":"openstreetmap.org","min_zoom":8.0,"bus_shield_text":"6","landuse_kind":"urban_area"},"arcs":[[336],[337]]},{"type":"MultiLineString","properties":{"kind":"major_road","network":"ru:regional","sort_rank":380,"kind_detail":"primary","source":"openstreetmap.org","min_zoom":8.0,"shield_text":"36\u0410","ref":"36\u0410-144"},"arcs":[[338],[339]]},{"type":"MultiLineString","properties":{"bus_network":null,"name:en":"Volzhskoe shosse","network":"ru:regional","sort_rank":380,"kind_detail":"primary","kind":"major_road","source":"openstreetmap.org","min_zoom":8.0,"bus_shield_text":"50","shield_text":"36\u041a","landuse_kind":"urban_area","ref":"36\u041a-919"},"arcs":[[340],[341]]},{"type":"MultiLineString","properties":{"bus_network":null,"network":"ru:national","sort_rank":380,"kind_detail":"primary","kind":"major_road","source":"openstreetmap.org","min_zoom":8.0,"bus_shield_text":"410\u0430","shield_text":"5","landuse_kind":"urban_area","ref":"36\u041a-887"},"arcs":[[342],[343],[344],[345],[346],[347],[348],[349],[350],[351],[352]]},{"type":"MultiLineString","properties":{"source":"openstreetmap.org","kind":"major_road","name:en":"Rakitovskoe shosse","landuse_kind":"urban_area","sort_rank":380,"kind_detail":"primary","min_zoom":8.0},"arcs":[[353],[354],[355]]},{"type":"MultiLineString","properties":{"source":"openstreetmap.org","bus_network":null,"bus_shield_text":"50","sort_rank":380,"kind_detail":"primary","min_zoom":8.0,"kind":"major_road"},"arcs":[[356],[357]]},{"type":"LineString","properties":{"kind":"major_road","name:en":"Novo-Sadovaya Street","sort_rank":380,"kind_detail":"primary","bus_network":null,"source":"openstreetmap.org","min_zoom":8.0,"bus_shield_text":"1","landuse_kind":"urban_area","id":102812305},"arcs":[358]},{"type":"LineString","properties":{"kind":"major_road","name:en":"Moskovskoe shosse","network":"ru:national","sort_rank":380,"kind_detail":"primary","bus_network":null,"source":"openstreetmap.org","min_zoom":8.0,"bus_shield_text":"410\u0430","shield_text":"5","landuse_kind":"urban_area","id":107680453},"arcs":[359]},{"type":"LineString","properties":{"kind":"major_road","sort_rank":380,"landuse_kind":"urban_area","source":"openstreetmap.org","min_zoom":8.0,"kind_detail":"primary","ref":"\u0410-300","id":17319281},"arcs":[360]},{"type":"LineString","properties":{"source":"openstreetmap.org","kind":"ferry","name":"\u0421\u0430\u043c\u0430\u0440\u0430 - \u041f\u043e\u043b\u044f\u043d\u0430 \u0438\u043c. \u0424\u0440\u0443\u043d\u0437\u0435 - \u0428\u0438\u0440\u044f\u0435\u0432\u043e","sort_rank":355,"min_zoom":8.0,"id":382710918},"arcs":[361]},{"type":"MultiLineString","properties":{"bus_network":null,"sort_rank":380,"kind_detail":"primary","kind":"major_road","source":"openstreetmap.org","min_zoom":8.0,"bus_shield_text":"8","landuse_kind":"urban_area"},"arcs":[[362],[363]]},{"type":"LineString","properties":{"kind":"major_road","network":"ru:national","sort_rank":380,"kind_detail":"primary","bus_network":null,"source":"openstreetmap.org","min_zoom":8.0,"bus_shield_text":"410\u0430","shield_text":"5","landuse_kind":"urban_area","ref":"\u041c-5","id":327133657},"arcs":[364]},{"type":"MultiLineString","properties":{"bus_network":null,"name:en":"Novo-Sadovaya Street","network":"ru:regional","sort_rank":380,"kind_detail":"primary","kind":"major_road","source":"openstreetmap.org","min_zoom":8.0,"bus_shield_text":"50","shield_text":"36\u041a","landuse_kind":"urban_area","ref":"36\u041a-888"},"arcs":[[365],[366],[367],[368],[369],[370],[371],[372],[373],[374],[375],[376]]},{"type":"LineString","properties":{"kind":"major_road","name:en":"Moskovskoe shosse","sort_rank":380,"kind_detail":"primary","bus_network":null,"source":"openstreetmap.org","min_zoom":8.0,"bus_shield_text":"1","landuse_kind":"urban_area","ref":"36\u041a-887","id":353610035},"arcs":[377]},{"type":"LineString","properties":{"kind":"major_road","sort_rank":380,"kind_detail":"primary","bus_network":null,"source":"openstreetmap.org","min_zoom":8.0,"bus_shield_text":"140","landuse_kind":"urban_area","id":145018309},"arcs":[378]},{"type":"LineString","properties":{"kind":"major_road","name:en":"Moskovskoe shosse","sort_rank":380,"landuse_kind":"urban_area","source":"openstreetmap.org","min_zoom":8.0,"kind_detail":"primary","id":379734668},"arcs":[379]},{"type":"MultiLineString","properties":{"bus_network":null,"name:en":"Moskovskoe shosse","sort_rank":380,"kind_detail":"primary","kind":"major_road","source":"openstreetmap.org","min_zoom":8.0,"bus_shield_text":"4","landuse_kind":"urban_area"},"arcs":[[380],[381]]},{"type":"MultiLineString","properties":{"bus_network":null,"name:en":"Moskovskoe shosse","network":"ru:regional","sort_rank":380,"landuse_kind":"urban_area","kind":"major_road","source":"openstreetmap.org","min_zoom":8.0,"bus_shield_text":"410\u0430","shield_text":"36\u041a","kind_detail":"primary","ref":"36\u041a-887"},"arcs":[[382],[383],[384],[385]]},{"type":"LineString","properties":{"kind":"major_road","network":"ru:regional","sort_rank":380,"kind_detail":"primary","bus_network":null,"source":"openstreetmap.org","min_zoom":8.0,"bus_shield_text":"50","shield_text":"36\u041a","ref":"36\u041a-919","id":15501784},"arcs":[386]},{"type":"LineString","properties":{"source":"openstreetmap.org","kind":"major_road","name:en":"Volzhskoe shosse","landuse_kind":"urban_area","sort_rank":380,"kind_detail":"primary","min_zoom":8.0},"arcs":[387]},{"type":"MultiLineString","properties":{"bus_network":null,"name:en":"Moskovskoe shosse","network":"ru:national","sort_rank":380,"landuse_kind":"urban_area","kind":"major_road","source":"openstreetmap.org","min_zoom":8.0,"bus_shield_text":"15","shield_text":"5","kind_detail":"primary","ref":"36\u041a-887"},"arcs":[[388],[389]]},{"type":"MultiLineString","properties":{"kind":"major_road","name:en":"Moskovskoe shosse","network":"ru:national","sort_rank":380,"kind_detail":"primary","source":"openstreetmap.org","min_zoom":8.0,"landuse_kind":"urban_area","shield_text":"5","ref":"36\u041a-887"},"arcs":[[390],[391],[392]]},{"type":"LineString","properties":{"kind":"major_road","sort_rank":380,"kind_detail":"primary","bus_network":null,"source":"openstreetmap.org","min_zoom":8.0,"bus_shield_text":"18","landuse_kind":"urban_area","id":144652952},"arcs":[393]},{"type":"MultiLineString","properties":{"bus_network":null,"sort_rank":380,"kind_detail":"primary","kind":"major_road","source":"openstreetmap.org","min_zoom":8.0,"bus_shield_text":"6","landuse_kind":"urban_area"},"arcs":[[394],[395],[396],[397]]}]},"earth":{"type":"GeometryCollection","geometries":[{"type":"Polygon","properties":{"sort_rank":10,"source":"naturalearthdata.com","min_zoom":0.0,"kind":"earth","area":98022885885},"arcs":[[398]]}]},"landuse":{"type":"GeometryCollection","geometries":[{"type":"MultiPolygon","properties":{"source":"openstreetmap.org","kind":"nature_reserve","tier":2,"area":806184268,"sort_rank":23,"min_zoom":6.0,"osm_relation":true},"arcs":[[[399]],[[400]]]},{"type":"Polygon","properties":{"kind":"protected_area","protect_class":"3","area":11192200,"sort_rank":17,"source":"openstreetmap.org","min_zoom":8.0,"tier":2,"id":-3178789,"osm_relation":true},"arcs":[[401]]},{"type":"Polygon","properties":{"kind":"park","area":3720250112,"sort_rank":24,"source":"openstreetmap.org","min_zoom":4.0,"tier":2,"id":-3094866,"osm_relation":true},"arcs":[[402]]},{"type":"MultiPolygon","properties":{"source":"naturalearthdata.com","kind":"urban_area","name":"","area":4113451848,"sort_rank":11,"min_zoom":4.0},"arcs":[[[403]],[[404]],[[405]],[[406]],[[407]]]},{"type":"Polygon","properties":{"kind":"nature_reserve","natural":"wood","area":36201400,"sort_rank":23,"source":"openstreetmap.org","min_zoom":8.0,"tier":2,"id":23769745},"arcs":[[408]]},{"type":"MultiPolygon","properties":{"source":"openstreetmap.org","kind":"nature_reserve","tier":2,"area":100558848,"sort_rank":23,"min_zoom":8.0},"arcs":[[[409]]]},{"type":"MultiPolygon","properties":{"source":"openstreetmap.org","kind":"nature_reserve","tier":2,"area":405426732,"sort_rank":23,"min_zoom":8.0,"osm_relation":true},"arcs":[[[410]],[[411]],[[412]],[[413]]]},{"type":"Polygon","properties":{"kind":"military","area":156644000,"sort_rank":45,"source":"openstreetmap.org","min_zoom":8.0,"tier":3,"id":-2995841,"osm_relation":true},"arcs":[[414],[415]]}]}},"type":"Topology","transform":{"translate":[49.21875,52.4827802221],"scale":[0.0003433228,0.0002070539]},"arcs":[[[0,73],[115,-7],[46,-66]],[[2637,3489],[59,39],[61,-65],[167,9],[88,62],[63,-24],[26,15]],[[3204,4096],[-13,-96],[-30,-31],[-4,-5],[-1,-2],[-1,-2],[0,-2],[-1,-3],[0,-4],[0,-4],[7,-32],[40,-101],[-100,-229],[18,-35],[-334,-230],[-122,65],[-16,5],[-14,0]],[[2628,3390],[11,0],[-11,0]],[[2818,3336],[8,4],[-8,-4]],[[2900,3388],[7,7],[-3,-4],[-4,-3]],[[2968,3461],[5,3],[-9,-7],[4,4]],[[3053,3520],[0,-1],[-8,-5],[-1,0],[9,6]],[[3114,3624],[4,8],[-3,-8],[-1,0]],[[3156,3961],[-2,-4],[0,-4],[2,8]],[[3171,3893],[5,-9],[-2,3],[-3,6]],[[3196,4022],[2,8],[0,1],[-2,-9]],[[4096,3620],[-267,82],[-202,-80],[-109,50],[-37,65],[-58,34],[-633,-448],[-112,66],[-74,3],[-74,-285],[-203,-163],[-279,145],[-133,-71],[-39,-107],[-85,-104],[-227,-175],[-187,-293],[-118,-89],[-157,62],[-795,127],[-307,128]],[[0,2567],[307,-128],[333,-49]],[[640,2390],[474,-90],[136,-50],[41,11],[16,8],[8,6],[64,67],[186,290],[197,146],[110,125],[8,15],[24,84],[7,11],[120,74],[40,-6]],[[2071,3081],[-13,5],[-10,3],[-4,0],[-5,0],[-4,0],[-4,-2],[-3,-2],[-60,-35],[-53,-32],[-3,-3],[-3,-3],[-3,-5],[-2,-5],[-25,-84],[-8,-14],[-109,-126],[-191,-140],[-7,-6],[-5,-6],[-178,-282],[-77,-76],[-54,-18],[-148,62],[-462,78]],[[2071,3081],[192,-122],[77,-11],[195,165],[41,211]],[[2576,3324],[34,70],[69,-6],[94,-68],[101,44],[129,126],[410,277]],[[3413,3767],[-408,-275],[-31,-25],[-9,-9],[-91,-94],[-101,-44],[-92,68],[-12,4],[-13,2],[-44,1],[-4,-1],[-4,-2],[-4,-2],[-3,-2],[-10,-11],[-3,-6],[-2,-6],[-2,-9],[-4,-32]],[[3413,3767],[64,-27],[43,-70],[107,-48],[204,80],[265,-82]],[[3100,3526],[-25,-14],[-64,22],[-87,-62],[-167,-8],[-61,65],[-59,-39]],[[0,2567],[307,-128],[733,-124],[210,-65],[59,20],[67,67],[189,295],[226,175],[85,103],[40,107],[132,72],[279,-145],[203,163],[74,285],[75,-3],[111,-66],[633,448],[58,-34],[37,-66],[109,-49],[204,80],[265,-82]],[[2633,3390],[152,-70],[334,230],[-18,35],[34,94],[66,135],[-46,144],[36,42],[13,96]],[[2628,3390],[11,0],[-11,0]],[[2818,3336],[8,4],[-8,-4]],[[2900,3388],[7,7],[-3,-4],[-4,-3]],[[2968,3461],[5,3],[-9,-7],[4,4]],[[3053,3520],[0,-1],[-8,-5],[-1,0],[9,6]],[[3114,3624],[4,8],[-3,-8],[-1,0]],[[3156,3961],[-2,-4],[0,-4],[0,3],[1,2],[1,2],[0,1]],[[3169,3741],[-5,-9],[5,9]],[[3172,3893],[5,-8],[0,-1],[-5,9]],[[3197,4022],[2,8],[-1,0],[-2,-8],[1,0]],[[3200,3809],[1,0],[-2,-9],[1,9]],[[0,3869],[0,227],[76,0],[0,-20],[47,-46],[10,-22],[-15,-47],[-27,-45],[-29,-22],[-35,-8],[-27,-17]],[[76,4096],[0,-20],[47,-46],[10,-22],[-15,-47],[-27,-45],[-29,-22],[-35,-8],[-27,-17]],[[3021,3543],[-72,-55]],[[2949,3487],[67,50]],[[2829,3101],[-57,11]],[[3017,3589],[24,-31]],[[3041,3558],[40,-58]],[[3083,3502],[-41,55],[-1,1]],[[3082,3498],[50,-70],[-48,71]],[[3144,4054],[-18,-45]],[[3144,4056],[0,-1]],[[2903,3758],[16,32]],[[2926,3805],[-5,-11]],[[2923,3799],[3,6]],[[2926,3805],[9,74]],[[2928,3906],[0,2]],[[2928,3906],[0,-1],[0,1]],[[2935,3879],[-7,27]],[[2941,3863],[-6,16]],[[583,3014],[-237,168],[-18,36]],[[2674,3136],[-97,18]],[[2674,3136],[7,-1]],[[2681,3135],[85,-24]],[[2771,3111],[-5,0]],[[2766,3111],[4,-2]],[[2956,2583],[11,-16]],[[2967,2567],[-2,3]],[[2969,2564],[11,-17]],[[2980,2547],[-11,17]],[[2980,2547],[116,-208],[302,-266],[334,-416],[-36,-1258],[160,-357],[-12,-42]],[[1216,1934],[-31,-34],[-8,-93]],[[1508,2278],[-115,-201]],[[1569,2411],[-30,-65]],[[2756,3488],[19,13]],[[2779,3505],[3,2]],[[2866,3687],[13,25]],[[2879,3712],[2,4]],[[2881,3716],[15,29]],[[2896,3745],[7,13]],[[2770,3109],[4,7]],[[2774,3116],[-3,-5]],[[2780,3139],[-6,-23]],[[2780,3139],[24,54]],[[2804,3193],[39,132]],[[2829,3519],[0,3]],[[2829,3477]],[[2819,3540],[3,-3]],[[2657,3462],[22,17]],[[2472,3506],[21,-10]],[[2600,3602],[-15,-23],[43,-34]],[[2628,3545],[14,-11]],[[2639,3532],[-11,13]],[[2628,3545],[-25,29]],[[2724,4096],[65,-176]],[[2829,3519]],[[2881,3716]],[[2581,3574],[64,-38]],[[2529,3392],[1,0]],[[2532,3397],[-1,0]],[[2680,3479],[2,0]],[[2925,3709],[2,1]],[[2934,3720],[13,13]],[[2457,2914],[-2,1]],[[2753,3463],[42,2]],[[2752,3464]],[[2668,3627],[-106,-151]],[[1393,2077],[-53,-70],[-124,-73]],[[1177,1807],[-41,-581],[-45,-123],[-94,-80],[-6,-100],[-142,-204],[-78,-185],[-13,-140],[-260,-207],[-60,-132],[-56,-55]],[[3520,3748],[-65,37],[-46,-4],[-42,-37],[-3,-4]],[[3365,3739],[90,45],[64,-38]],[[3804,3760],[150,-15],[29,-22],[54,-15],[48,-2]],[[4085,3706],[-130,39],[-151,16]],[[4085,3706],[11,0]],[[2914,3734],[-11,24]],[[2770,3109],[-58,-168]],[[2715,2938],[1,0]],[[2720,2940],[34,81],[19,86]],[[2740,3480],[12,-16]],[[2753,3465],[-10,15]],[[2929,3473],[-134,-7]],[[2795,3465],[134,7]],[[2716,2938],[4,2]],[[2949,3488],[-20,-15]],[[2929,3472],[20,15]],[[3016,3537],[25,20]],[[2690,2912],[-103,-17]],[[2493,3496],[69,-20]],[[2518,3361],[8,22]],[[2540,3417],[5,11]],[[1604,2485],[-5,0]],[[1599,2484],[5,0]],[[2304,2748],[44,78]],[[2348,2826],[12,20],[92,62],[10,17]],[[2462,2925],[-103,-79],[-11,-20]],[[2348,2826],[-42,-79]],[[2579,3155],[-38,-38],[-79,-192]],[[2188,2964],[-98,98],[143,123]],[[2188,2964],[2,-2]],[[2191,2964],[-3,0]],[[2192,2960],[3,0]],[[2195,2960],[-1,1]],[[2266,2917],[-71,43]],[[2233,3185],[2,0]],[[2234,3186],[-1,-1]],[[2238,3188],[-2,-1]],[[2237,3187],[1,1]],[[2498,3296],[-29,-73],[-70,-35],[-161,0]],[[2356,2839],[-89,17],[4,56]],[[2579,3155],[132,-206]],[[2644,3478],[0,3]],[[2677,3137],[1,-2]],[[2679,3135],[1,1]],[[2711,2949],[2,-6]],[[2716,2946],[-5,3]],[[2752,3464],[1,-1]],[[2781,3146],[2,0]],[[2790,3167],[2,-1]],[[2797,3178],[-1,2]],[[2829,3522],[-2,-1]],[[2853,3468],[0,1]],[[2854,3469],[0,-1]],[[2885,3669],[5,-1]],[[2897,3471],[0,-1]],[[2921,3718],[2,-5]],[[2927,3710],[-4,3]],[[2923,3713],[2,-4]],[[2971,3758],[-43,-43]],[[2929,3715],[5,5]],[[2988,3773],[-1,0]],[[2993,3521],[1,0]],[[3041,3557],[1,0]],[[3045,3826],[-3,2]],[[3047,3823],[3,-1]],[[3048,3824],[-1,2],[-3,-1],[2,-2],[2,1]],[[3050,3822],[-2,2]],[[3055,3819],[-5,3]],[[3084,3499],[0,1]],[[3108,3915],[-1,0]],[[3107,3916],[1,0]],[[3183,3344],[-20,37],[-9,14],[28,-51]],[[3183,3722],[141,-12],[23,16],[18,13]],[[3364,3740],[-40,-28]],[[3983,3723],[8,-12],[0,-11],[-3,-11]],[[4094,3513],[-125,128],[29,71],[-14,11]],[[2190,2963],[0,-3],[3,1],[0,3],[-3,-1]],[[2237,3186],[-1,1]],[[2236,3187],[-2,-1]],[[2234,3186],[1,-1],[2,1]],[[2270,2916],[-1,1],[-1,-1],[1,-1],[1,1]],[[3179,3725],[-2,-2],[2,-2],[2,2],[-2,2]],[[3370,2796],[-60,-99],[-79,-17],[-67,-65],[-209,-36]],[[3370,2796],[5,11]],[[3780,3394],[-17,-175],[-184,-28],[-50,-31],[-154,-353]],[[3596,4096],[26,-247],[157,-452]],[[2743,3482],[-8,0]],[[2738,3482],[5,0]],[[2748,3483],[-5,-1]],[[2921,3708],[8,7]],[[2949,3675],[2,1]],[[2526,3383],[3,8]],[[2532,3398],[7,17]],[[2962,3989],[-1,1]],[[2701,3537],[0,1]],[[2728,3558],[0,1]],[[2730,3559],[0,1]],[[2825,3635],[3,4]],[[2636,3489],[21,-27]],[[2827,3525],[-3,9]],[[2827,3525],[0,-10]],[[2829,3522],[-2,3]],[[2827,3515],[2,4]],[[2829,3477],[-2,38]],[[2834,3371],[-5,106]],[[2835,3363],[-1,8]],[[2843,3325],[-8,38]],[[2949,4067],[9,-73]],[[2961,3990],[-1,63]],[[2509,3351],[-15,6]],[[2816,3540],[0,1]],[[2928,3908],[28,77]],[[2956,3985],[4,2]],[[2959,3989],[-3,-4]],[[2921,3794],[2,5]],[[2432,3525],[40,-19]],[[2460,3575],[-28,-49]],[[2607,3612],[-7,-10]],[[2432,3526],[0,-1]],[[3041,3558],[-20,-15]],[[2819,3540],[10,30]],[[2832,3577],[75,117]],[[2987,3772],[-16,-14]],[[2972,3758],[55,49]],[[3039,3818],[-51,-44]],[[3054,3831],[27,19],[13,14],[8,18],[5,28]],[[3070,3844],[-15,-11]],[[3126,4007],[-47,-157]],[[3108,3915],[1,4]],[[3110,3924],[19,89]],[[3131,4017],[6,14]],[[3141,4040],[2,8]],[[3144,4052],[4,23]],[[2815,3539],[1,1]],[[2590,3447],[46,42]],[[2829,3101],[55,-8],[191,-136],[202,-56],[90,-98]],[[3367,2803],[3,-3]],[[3371,2802],[-4,1]],[[3150,4096],[-3,-20]],[[1925,2418],[0,-2]],[[1926,2416],[0,2]],[[2959,3989],[1,-2]],[[2961,3990],[-2,0]],[[3182,3344],[56,-76],[86,-44],[99,-10],[100,-63]],[[3524,3150],[-27,27],[-71,38],[-100,10],[-87,44],[-56,75]],[[4096,3511],[-2,2]],[[2816,3541]],[[2763,2872],[169,-253]],[[2932,2619],[24,-36]],[[2965,2570],[-33,49]],[[2456,2911],[5,0]],[[2461,2911],[-4,3]],[[2587,2895],[-76,-8],[-50,24]],[[2710,2934],[-20,-22]],[[2710,2934],[5,4]],[[2712,2941],[-2,-7]],[[2965,2570],[5,17]],[[2967,2567],[2,-3]],[[2969,2564],[-2,3]],[[3779,3397],[1,-3]],[[1539,2346],[-31,-68]],[[1601,2480],[-32,-69]],[[1600,2484],[1,-4]],[[1601,2480],[1,4]],[[2802,3618],[-2,-2]],[[2810,3621],[0,1]],[[2840,3647],[1,0]],[[2854,3665]],[[2827,3520],[2,-1]],[[2518,3361],[-9,-10]],[[2887,3672],[111,-148]],[[3001,3527],[-113,146]],[[2795,3466],[-43,-2]],[[2491,3351],[18,0]],[[2921,3718],[-7,16]],[[2947,3680],[0,-3]],[[3132,3428],[22,-33]],[[1599,2485],[0,-1]],[[3519,3746],[285,14]],[[3804,3761],[-284,-13]],[[2822,3537],[-2,3]],[[2643,3480],[54,54]],[[2696,3533],[-52,-52]],[[2577,3416],[13,31]],[[2707,3586],[-214,-90]],[[2851,3624],[-2,-2]],[[2951,3676],[-4,1]],[[2949,3675]],[[2961,3662]],[[215,3811],[-182,-93],[-33,-2]],[[215,3811],[24,5],[43,22],[4,3],[28,48]],[[314,3889],[-33,-52],[-66,-26]],[[601,4096],[-26,-20],[-133,-28],[-128,-159]],[[1220,1937],[29,8]],[[2545,3428],[32,-12]],[[2949,3675],[3,-1]],[[2952,3674],[-1,2]],[[2952,3674],[9,-12]],[[2961,3662],[56,-73]],[[2919,3790]],[[2818,3540],[1,0]],[[1602,2484],[0,2]],[[1604,2484],[1,1]],[[1605,2485],[-1,0]],[[1920,2419],[-315,66]],[[1920,2419],[11,-3]],[[2143,2480],[-121,-62],[-91,-2]],[[2306,2747],[-163,-267]],[[2143,2480],[161,268]],[[2771,3111],[-1,-2]],[[2949,3679],[-24,30]],[[2928,3715],[-21,-21]],[[3146,4068],[0,-3]],[[3370,2800],[6,-4]],[[3376,2796],[-5,6]],[[3376,2796],[317,-206],[121,-147],[159,-70],[123,-2]],[[2961,3986],[4,-1]],[[2965,3985],[-3,4]],[[2971,3970],[-6,15]],[[3129,4013],[2,4]],[[3137,4031],[0,1]],[[2644,3481],[-1,-1]],[[3144,4055],[0,-1]],[[2896,3745]],[[2947,3733],[25,25]],[[2682,3479],[-1,1]],[[2712,2941],[3,-3]],[[2716,2938],[5,-3]],[[2721,2935],[-1,5]],[[2721,2935],[42,-63]],[[2453,2913],[3,-2]],[[2644,3481],[-3,1]],[[2773,3585]],[[2810,3622],[1,0]],[[2531,3397],[-2,-5]],[[2530,3392],[2,5]],[[2207,2545],[-10,-1]],[[2955,2579],[-740,-36]],[[2951,4096],[-2,-29]],[[2960,4053],[-2,43]],[[2829,3570],[3,7]],[[2988,3774],[-1,-2]],[[3027,3807],[27,24]],[[3055,3833],[-16,-15]],[[3079,3850],[-9,-6]],[[3107,3910],[1,5]],[[3109,3919],[1,5]],[[3126,4009],[0,-2]],[[3143,4048],[1,4]],[[3148,4075],[1,6]],[[3150,4087],[1,9]],[[3055,3819],[121,-94]],[[3178,3725],[-2,0]],[[3176,3725],[1,-2]],[[2959,3990],[0,-1]],[[2960,3987],[2,2]],[[2879,3712]],[[3137,4032],[4,8]],[[2720,2942],[-3,4]],[[2789,3920],[29,-78],[-150,-215]],[[3081,3500],[1,-2]],[[3084,3500],[-1,2]],[[3149,4081],[1,6]],[[2696,3533],[5,4]],[[2701,3538],[27,20]],[[2728,3559],[2,0]],[[2730,3560],[29,11]],[[2759,3571],[8,3],[43,47]],[[2773,3585],[-14,-14]],[[2800,3616],[-27,-31]],[[2810,3622],[-8,-4]],[[2811,3622],[14,13]],[[2828,3639],[12,8]],[[2841,3647],[13,18]],[[2854,3665],[12,22]],[[2816,3541],[3,3]],[[2577,3158],[2,-3]],[[2851,3621],[1,2]],[[2849,3622],[2,-1]],[[2852,3623],[-1,1]],[[2679,3479],[59,1]],[[2743,3481],[13,7]],[[2775,3501],[4,4]],[[2782,3507],[33,32]],[[2958,3994],[1,-4]],[[3044,3825],[-73,145]],[[2819,3544],[-3,-3]],[[2816,3541],[2,-1]],[[2907,3694],[14,14]],[[3146,4065],[-2,-9]],[[3147,4076],[-1,-8]],[[2947,3677],[2,-2]],[[2494,3357],[-2,-60],[41,-14],[44,-128]],[[2529,3392],[1,0]],[[2532,3397],[-1,0]],[[2539,3415],[1,2]],[[4096,4096],[0,-4096],[-1925,0],[-2171,0],[0,4096],[4096,0]],[[1846,4055],[54,35],[50,-4],[2,10],[195,0],[-2,-32],[-54,6],[-6,-65],[-32,14],[41,-66],[-53,75],[-195,27]],[[2313,4096],[0,-7],[51,-4],[-1,-43],[54,-3],[-3,-41],[-228,19],[16,79],[111,0]],[[2840,4037],[2,59],[12,0],[-2,-1],[7,-6],[4,2],[-3,5],[30,0],[-4,-117],[-46,-4],[0,62]],[[0,3850],[82,76],[19,81],[-37,89],[2663,0],[46,-70],[18,-94],[-10,-65],[-32,-33],[-65,13],[-119,-102],[-34,5],[-108,-245],[-80,-41],[-205,-37],[-310,113],[-194,-2],[-260,-163],[-166,-85],[-144,-40],[-105,-72],[-180,-9],[-122,0],[-48,27],[-166,289],[-248,60],[-195,73],[0,232]],[[3771,2761],[-59,12],[-30,57],[25,147],[76,-90],[12,-59],[-24,-67]],[[1636,2976],[-129,-107],[11,-35],[85,-18],[65,-54],[-64,-215],[0,-107],[-65,-54],[0,-108],[-97,0],[-75,-83],[-46,29],[-43,83],[-31,133],[28,34],[82,25],[19,48],[-17,38],[-112,16],[-2,77],[52,74],[47,160],[31,44],[67,21],[32,214],[52,4],[51,-31],[40,-71],[19,-117]],[[4096,3513],[-66,0],[0,-54],[-33,23],[-34,107],[2,84],[-110,-97],[-51,-10],[0,269],[235,-33],[57,12],[0,-301]],[[3374,4096],[203,0],[2,-76],[-33,-27],[-98,3],[20,-128],[77,-33],[-21,-85],[-238,-184],[0,-107],[-32,0],[0,-54],[-33,0],[-14,-47],[-117,-64],[-63,4],[-70,60],[-108,-87],[-22,-88],[6,-207],[-59,-66],[-6,-41],[-97,54],[0,53],[-90,-88],[-72,-19],[-129,-161],[-150,78],[-44,-24],[-65,-108],[-194,0],[-65,161],[-65,54],[65,161],[-42,99],[-55,62],[-103,24],[-26,29],[64,135],[86,34],[12,-140],[32,-28],[43,-4],[54,165],[46,9],[278,-181],[66,1],[100,92],[61,202],[38,50],[136,37],[148,110],[172,244],[87,-28],[24,154],[173,0],[62,-46],[56,46]],[[2927,4096],[43,0],[-8,-47],[-35,47]],[[1703,4096],[15,-25],[-55,12],[-3,-25],[-9,24],[-33,-34],[-45,16],[-24,-19],[-28,23],[-16,-21],[-70,49],[268,0]],[[296,3691],[7,151],[27,40],[157,-18],[-22,-44],[31,-72],[-15,-15],[-48,27],[11,-71],[-23,27],[-45,-42],[68,-40],[7,-63],[-29,-14],[-2,61],[-27,-20],[11,-27],[-35,9],[-26,109],[-47,2]],[[572,3282],[32,-19],[1,60],[55,-5],[176,-137],[-193,12],[-71,89]],[[748,3462],[53,120],[-21,18],[4,76],[103,-23],[-50,-159],[12,-72],[-17,4],[-10,-48],[-20,10],[-9,-39],[-41,29],[20,34],[-24,50]],[[2231,3932],[31,-2],[25,-61],[-1,54],[-40,52],[112,-15],[-20,-15],[15,-25],[-30,21],[34,-64],[8,34],[41,9],[6,76],[112,-9],[-88,-85],[-123,-52],[-76,-6],[-6,88]],[[1952,3526],[52,4],[-71,-5],[-159,43],[-176,-25],[73,62],[-52,-16],[-16,-28],[-4,28],[-98,-22],[-10,30],[13,31],[117,-8],[-115,8],[30,24],[-36,-21],[-16,33],[-29,-16],[-5,46],[-15,-48],[19,-14],[-34,16],[-9,-27],[30,-27],[-44,4],[-6,-37],[20,-8],[-41,12],[17,45],[-42,33],[-15,53],[-7,-2],[-28,16],[48,-7],[-40,60],[-50,-10],[-16,40],[16,56],[110,13],[66,-25],[8,-23],[-70,-2],[-29,-43],[32,-62],[-18,-48],[24,-5],[12,-43],[23,62],[25,29],[20,-6],[-10,10],[15,63],[-15,33],[4,8],[3,-1],[-39,130],[5,27],[37,0],[-3,-56],[77,-7],[-7,-116],[109,-35],[35,-14],[-10,-122],[24,-2],[17,14],[93,3],[45,32],[155,-8],[72,-40],[-7,-10],[35,16],[42,-59],[-91,-82],[-90,46]],[[1597,2362],[59,85],[-6,32],[48,-5],[353,-373],[98,-149],[-183,-60],[-158,231],[6,23],[-84,45],[-133,171]],[[1598,2362],[3,-4],[8,15],[-11,-11]]]}