{"objects":{"water":{"type":"GeometryCollection","geometries":[]},"buildings":{"type":"GeometryCollection","geometries":[]},"places":{"type":"GeometryCollection","geometries":[{"type":"Point","properties":{"kind":"locality","name:en":"Bolshaya Glushitsa","name":"\u0411\u043e\u043b\u044c\u0448\u0430\u044f \u0413\u043b\u0443\u0448\u0438\u0446\u0430","kind_detail":"town","source":"openstreetmap.org","min_zoom":8.0,"name:it":"Bol'\u0161aja Glu\u0161ica","population":9667,"id":1030445849,"name:ja":"\u30dc\u30ea\u30b7\u30e3\u30e4\u30fb\u30b0\u30eb\u30b7\u30c4\u30a1"},"coordinates":[3649,3668]},{"type":"Point","properties":{"kind":"locality","name:en":"Pestravka","name":"\u041f\u0435\u0441\u0442\u0440\u0430\u0432\u043a\u0430","kind_detail":"town","source":"openstreetmap.org","min_zoom":8.0,"name:it":"Pestravka","population":6573,"id":1029249537,"name:ja":"\u30da\u30b9\u30c8\u30e9\u30d5\u30ab"},"coordinates":[2133,3727]},{"type":"Point","properties":{"source":"openstreetmap.org","kind":"locality","name":"\u041f\u0435\u0440\u0435\u043b\u044e\u0431","kind_detail":"town","population":4755,"min_zoom":8.0,"id":1028724026},"coordinates":[3280,1139]}]},"transit":{"type":"GeometryCollection","geometries":[]},"pois":{"type":"GeometryCollection","geometries":[]},"boundaries":{"type":"GeometryCollection","geometries":[{"type":"LineString","properties":{"name:nl":"Oblast Samara","name:ja":"\u30b5\u30de\u30fc\u30e9\u5dde","name:lt":"Samaros sritis","name:cv":"\u0421\u0430\u043c\u0430\u0440 \u043e\u0431\u043b\u0430\u00e7\u0115","name:cs":"Samarsk\u00e1 oblast","name:tt":"\u0421\u0430\u043c\u0430\u0440\u0430 \u04e9\u043b\u043a\u04d9\u0441\u0435","min_zoom":8.0,"name:it":"Oblast' di Samara","name:uk":"\u0421\u0430\u043c\u0430\u0440\u0441\u044c\u043a\u0430 \u043e\u0431\u043b\u0430\u0441\u0442\u044c","name:os":"\u0421\u0430\u043c\u0430\u0440\u00e6\u0439\u044b \u043e\u0431\u043b\u00e6\u0441\u0442","name:be":"\u0421\u0430\u043c\u0430\u0440\u0441\u043a\u0430\u044f \u0432\u043e\u0431\u043b\u0430\u0441\u0446\u044c","name:pl":"Obw\u00f3d samarski","name:ba":"\u04ba\u0430\u043c\u0430\u0440 \u04e9\u043b\u043a\u04d9\u04bb\u0435","name:ca":"Prov\u00edncia de Samara","kind":"region","name:en":"Samara Oblast","name":"\u0421\u0430\u043c\u0430\u0440\u0441\u043a\u0430\u044f \u043e\u0431\u043b\u0430\u0441\u0442\u044c","sort_rank":256,"kind_detail":"4","id":-72194,"name:de":"Oblast Samara","source":"openstreetmap.org","name:fr":"Oblast de Samara","osm_relation":true,"name:es":"\u00d3blast de Samara"},"arcs":[0]},{"type":"LineString","properties":{"name:nl":"Oblast Samara","name:ja":"\u30b5\u30de\u30fc\u30e9\u5dde","name:lt":"Samaros sritis","name:cv":"\u0421\u0430\u043c\u0430\u0440 \u043e\u0431\u043b\u0430\u00e7\u0115","name:cs":"Samarsk\u00e1 oblast","name:tt":"\u0421\u0430\u043c\u0430\u0440\u0430 \u04e9\u043b\u043a\u04d9\u0441\u0435","min_zoom":8.0,"name:it":"Oblast' di Samara","name:uk":"\u0421\u0430\u043c\u0430\u0440\u0441\u044c\u043a\u0430 \u043e\u0431\u043b\u0430\u0441\u0442\u044c","name:os":"\u0421\u0430\u043c\u0430\u0440\u00e6\u0439\u044b \u043e\u0431\u043b\u00e6\u0441\u0442","name:be":"\u0421\u0430\u043c\u0430\u0440\u0441\u043a\u0430\u044f \u0432\u043e\u0431\u043b\u0430\u0441\u0446\u044c","name:pl":"Obw\u00f3d samarski","name:ba":"\u04ba\u0430\u043c\u0430\u0440 \u04e9\u043b\u043a\u04d9\u04bb\u0435","name:ca":"Prov\u00edncia de Samara","kind":"region","name:en":"Samara Oblast","name":"\u0421\u0430\u043c\u0430\u0440\u0441\u043a\u0430\u044f \u043e\u0431\u043b\u0430\u0441\u0442\u044c","sort_rank":256,"kind_detail":"4","id":-72194,"name:de":"Oblast Samara","source":"openstreetmap.org","name:fr":"Oblast de Samara","osm_relation":true,"name:es":"\u00d3blast de Samara"},"arcs":[1]}]},"roads":{"type":"GeometryCollection","geometries":[{"type":"LineString","properties":{"kind":"major_road","network":"ru:regional","sort_rank":380,"kind_detail":"primary","source":"openstreetmap.org","min_zoom":8.0,"shield_text":null,"ref":"36\u0420-069"},"arcs":[2]},{"type":"LineString","properties":{"kind":"major_road","network":"ru:national","sort_rank":381,"kind_detail":"trunk","source":"openstreetmap.org","min_zoom":8.0,"shield_text":"300","ref":"\u0410-300"},"arcs":[3]}]},"earth":{"type":"GeometryCollection","geometries":[{"type":"Polygon","properties":{"sort_rank":10,"source":"naturalearthdata.com","min_zoom":0.0,"kind":"earth","area":98022885885},"arcs":[[4]]}]},"landuse":{"type":"GeometryCollection","geometries":[{"type":"MultiPolygon","properties":{"source":"naturalearthdata.com","kind":"urban_area","name":"","area":428532631,"sort_rank":11,"min_zoom":4.0},"arcs":[[[5]],[[6]],[[7]]]}]}},"type":"Topology","transform":{"translate":[49.21875,51.6180165488],"scale":[0.0003433228,0.0002111239]},"arcs":[[[161,4096],[228,-85],[-13,-54],[-79,1],[18,-61],[-36,-65],[17,-48],[-29,-76],[-75,-84],[129,-55],[55,129],[112,-11],[16,35],[125,-25],[-17,-173],[64,-39],[-2,-159],[175,19],[29,339],[79,-36],[66,37],[198,-265],[-108,-87],[170,-187],[-94,-67],[-7,-96],[149,-89],[11,32],[-28,49],[38,28],[61,-27],[-13,38],[30,21],[-24,33],[41,49],[22,-20],[-8,-42],[29,48],[28,-7],[19,-8],[-40,-6],[25,-45],[-20,-34],[186,-377],[387,-2]],[[2075,2624],[159,-2],[-2,80],[159,8],[16,-239],[345,1],[0,-44],[174,-6],[4,-183],[-190,0],[-9,-383],[74,39],[5,60],[101,26],[174,-121],[83,20],[7,141],[126,1],[1,-298],[176,-9],[-24,22],[5,39],[331,4],[4,-142],[221,-2],[0,-29],[81,18]],[[382,4096],[-130,-99],[-216,-46],[-36,-121]],[[3844,4096],[-89,-219],[29,-222],[149,-302],[163,-123]],[[0,4096],[2171,0],[1925,0],[0,-4096],[-4096,0],[0,4096]],[[2380,805],[170,0],[24,53],[32,-27],[1,-237],[-192,-42],[-58,42],[-42,158],[35,32],[-3,21],[-32,0],[0,158],[65,-158]],[[2291,1554],[-41,40],[19,65],[81,90],[-29,80],[59,29],[65,-106],[-7,-52],[-91,-53],[-56,-93]],[[2089,1699],[-1,211],[163,0],[-13,-99],[-37,-57],[-112,-55]]]}