{"objects":{"water":{"type":"GeometryCollection","geometries":[{"type":"Polygon","properties":{"source":"naturalearthdata.com","kind":"ocean","area":1576712559132672,"sort_rank":200,"min_zoom":0.0,"id":1},"arcs":[[5]]}]},"buildings":{"type":"GeometryCollection","geometries":[]},"places":{"type":"GeometryCollection","geometries":[]},"transit":{"type":"GeometryCollection","geometries":[]},"pois":{"type":"GeometryCollection","geometries":[]},"boundaries":{"type":"GeometryCollection","geometries":[{"type":"LineString","properties":{"kind":"region","name:en":"Mangystau Region","name":"\u041c\u0430\u043d\u0433\u0438\u0441\u0442\u0430\u0443\u0441\u043a\u0430\u044f \u043e\u0431\u043b\u0430\u0441\u0442\u044c","sort_rank":256,"kind_detail":"4","name:kk":"\u041c\u0430\u04a3\u0493\u044b\u0441\u0442\u0430\u0443 \u043e\u0431\u043b\u044b\u0441\u044b","min_zoom":8.0,"name:de":"Gebiet Mangghystau","source":"openstreetmap.org","maritime_boundary":true,"id":-215686,"osm_relation":true,"name:ja":"\u30de\u30f3\u30ae\u30b9\u30bf\u30a6\u5dde"},"arcs":[0]},{"type":"LineString","properties":{"name:right:hy":"\u0531\u057d\u057f\u0580\u0561\u056d\u0561\u0576\u056b \u0574\u0561\u0580\u0566","name:right:nl":"Oblast Astrachan","name:right:ja":"\u30a2\u30b9\u30c8\u30e9\u30cf\u30f3\u5dde","name:right:fr":"Oblast d'Astrakhan","name:right:uk":"\u0410\u0441\u0442\u0440\u0430\u0445\u0430\u043d\u0441\u044c\u043a\u0430 \u043e\u0431\u043b\u0430\u0441\u0442\u044c","int_name:left":"Atyrau","name:left:ja":"\u30a2\u30c6\u30a3\u30e9\u30a6\u5dde","name:right:hu":"Asztrah\u00e1ni ter\u00fclet","name:right:sw":"Astrakhan Oblast","name:right:sv":"Astrachan oblast","name:right:lt":"Astrachan\u0117s sritis","name:right:hi":"\u0906\u0938\u094d\u0924\u094d\u0930\u093e\u0916\u093c\u093e\u0928 \u0913\u092c\u094d\u0932\u093e\u0938\u094d\u0924","min_zoom":8.0,"name:left:lt":"Atyrau sritis","name:right:sl":"Astrahanska oblast","name:right:uz":"Astraxan viloyati","name:right:he":"\u05de\u05d7\u05d5\u05d6 \u05d0\u05e1\u05d8\u05e8\u05d7\u05df","name:right":"\u0410\u0441\u0442\u0440\u0430\u0445\u0430\u043d\u0441\u043a\u0430\u044f \u043e\u0431\u043b\u0430\u0441\u0442\u044c","name:right:id":"Oblast Astrakhan","name:left:en":"Atyrau Region","sort_rank":256,"kind_detail":"4","name:right:ce":"\u0410\u0441\u0442\u0440\u0430\u0445\u0430\u043d\u0430\u043d \u043e\u0431\u043b\u0430\u0441\u0442\u044c","id":-214834,"source":"openstreetmap.org","id:left":-214834,"name:right:cs":"Astracha\u0148sk\u00e1 oblast","name:right:fi":"Astrahanin alue","id:right":-112819,"name:right:az":"H\u0259\u015ft\u0259rxan vilay\u0259ti","name:right:cv":"\u0410\u00e7\u0442\u0103\u0440\u0445\u0430\u043d \u043e\u0431\u043b\u0430\u00e7\u0115","name:right:ka":"\u10d0\u10e1\u10e2\u10e0\u10d0\u10ee\u10d0\u10dc\u10d8\u10e1 \u10dd\u10da\u10e5\u10d8","name:right:sr":"\u0410\u0441\u0442\u0440\u0430\u0445\u0430\u043d\u0441\u043a\u0430 \u043e\u0431\u043b\u0430\u0441\u0442","name:right:pt":"Oblast de Astrac\u00e3","name:right:et":"Astrahani oblast","name:right:tt":"\u04d8\u0441\u0442\u0435\u0440\u0445\u0430\u043d \u04e9\u043b\u043a\u04d9\u0441\u0435","name:right:kk":"\u0410\u0441\u0442\u0440\u0430\u0445\u0430\u043d \u043e\u0431\u043b\u044b\u0441\u044b","name:right:it":"Oblast' di Astrachan'","name:right:is":"Astrakanfylki","name:left:kk":"\u0410\u0442\u044b\u0440\u0430\u0443 \u043e\u0431\u043b\u044b\u0441\u044b","name:right:es":"\u00d3blast de Astrac\u00e1n","name:left:de":"Gebiet Atyrau","name:right:tr":"Astrahan Oblast\u0131","name:right:kv":"\u0410\u0441\u0442\u0440\u0430\u0445\u0430\u043d\u044c \u043e\u0431\u043b\u0430\u0441\u044c\u0442","name:right:tg":"\u0412\u0438\u043b\u043e\u044f\u0442\u0438 \u0410\u0441\u0442\u0440\u0430\u0445\u0430\u043d","name:right:pl":"Obw\u00f3d astracha\u0144ski","name:right:en":"Astrakhan Oblast","osm_relation":true,"name:right:el":"\u03a0\u03b5\u03c1\u03b9\u03c6\u03ad\u03c1\u03b5\u03b9\u03b1 \u0386\u03c3\u03c4\u03c1\u03b1\u03c7\u03b1\u03bd","kind":"region","name":"\u0410\u0442\u044b\u0440\u0430\u0443\u0441\u043a\u0430\u044f \u043e\u0431\u043b\u0430\u0441\u0442\u044c - \u0410\u0441\u0442\u0440\u0430\u0445\u0430\u043d\u0441\u043a\u0430\u044f \u043e\u0431\u043b\u0430\u0441\u0442\u044c","name:right:sh":"Astrahanska oblast","name:right:de":"Oblast Astrachan","name:right:lv":"Astraha\u0146as apgabals","name:right:ba":"\u04d8\u0441\u0442\u0440\u04d9\u0445\u0430\u043d \u04e9\u043b\u043a\u04d9\u04bb\u0435","name:right:da":"Astrakhan oblast","name:right:be":"\u0410\u0441\u0442\u0440\u0430\u0445\u0430\u043d\u0441\u043a\u0430\u044f \u0432\u043e\u0431\u043b\u0430\u0441\u0446\u044c","name:right:ca":"Prov\u00edncia d'\u00c0strakhan","name:right:zh":"\u963f\u65af\u7279\u62c9\u7f55\u5dde","name:left":"\u0410\u0442\u044b\u0440\u0430\u0443\u0441\u043a\u0430\u044f \u043e\u0431\u043b\u0430\u0441\u0442\u044c","name:right:ro":"Regiunea Astrahan"},"arcs":[1]},{"type":"LineString","properties":{"kind":"region","name:en":"Atyrau Region","name":"\u0410\u0442\u044b\u0440\u0430\u0443\u0441\u043a\u0430\u044f \u043e\u0431\u043b\u0430\u0441\u0442\u044c","name:lt":"Atyrau sritis","sort_rank":256,"kind_detail":"4","name:kk":"\u0410\u0442\u044b\u0440\u0430\u0443 \u043e\u0431\u043b\u044b\u0441\u044b","min_zoom":8.0,"name:de":"Gebiet Atyrau","source":"openstreetmap.org","maritime_boundary":true,"int_name":"Atyrau","id":-214834,"osm_relation":true,"name:ja":"\u30a2\u30c6\u30a3\u30e9\u30a6\u5dde"},"arcs":[2]},{"type":"LineString","properties":{"name:pt":"Oblast de Astrac\u00e3","name:az":"H\u0259\u015ft\u0259rxan vilay\u0259ti","name:id":"Oblast Astrakhan","name:ka":"\u10d0\u10e1\u10e2\u10e0\u10d0\u10ee\u10d0\u10dc\u10d8\u10e1 \u10dd\u10da\u10e5\u10d8","name:tr":"Astrahan Oblast\u0131","name:cv":"\u0410\u00e7\u0442\u0103\u0440\u0445\u0430\u043d \u043e\u0431\u043b\u0430\u00e7\u0115","name:cs":"Astracha\u0148sk\u00e1 oblast","name:tt":"\u04d8\u0441\u0442\u0435\u0440\u0445\u0430\u043d \u04e9\u043b\u043a\u04d9\u0441\u0435","name:kv":"\u0410\u0441\u0442\u0440\u0430\u0445\u0430\u043d\u044c \u043e\u0431\u043b\u0430\u0441\u044c\u0442","min_zoom":8.0,"name:ro":"Regiunea Astrahan","name:it":"Oblast' di Astrachan'","name:be":"\u0410\u0441\u0442\u0440\u0430\u0445\u0430\u043d\u0441\u043a\u0430\u044f \u0432\u043e\u0431\u043b\u0430\u0441\u0446\u044c","name:lv":"Astraha\u0146as apgabals","name:ce":"\u0410\u0441\u0442\u0440\u0430\u0445\u0430\u043d\u0430\u043d \u043e\u0431\u043b\u0430\u0441\u0442\u044c","id":-112819,"name:ca":"Prov\u00edncia d'\u00c0strakhan","sort_rank":256,"kind_detail":"4","name:da":"Astrakhan oblast","name:de":"Oblast Astrachan","source":"openstreetmap.org","name:fr":"Oblast d'Astrakhan","name:hi":"\u0906\u0938\u094d\u0924\u094d\u0930\u093e\u0916\u093c\u093e\u0928 \u0913\u092c\u094d\u0932\u093e\u0938\u094d\u0924","name:tg":"\u0412\u0438\u043b\u043e\u044f\u0442\u0438 \u0410\u0441\u0442\u0440\u0430\u0445\u0430\u043d","name:sr":"\u0410\u0441\u0442\u0440\u0430\u0445\u0430\u043d\u0441\u043a\u0430 \u043e\u0431\u043b\u0430\u0441\u0442","name:sl":"Astrahanska oblast","name:nl":"Oblast Astrachan","name:ja":"\u30a2\u30b9\u30c8\u30e9\u30cf\u30f3\u5dde","name:lt":"Astrachan\u0117s sritis","name:sh":"Astrahanska oblast","name:kk":"\u0410\u0441\u0442\u0440\u0430\u0445\u0430\u043d \u043e\u0431\u043b\u044b\u0441\u044b","name:he":"\u05de\u05d7\u05d5\u05d6 \u05d0\u05e1\u05d8\u05e8\u05d7\u05df","name:uk":"\u0410\u0441\u0442\u0440\u0430\u0445\u0430\u043d\u0441\u044c\u043a\u0430 \u043e\u0431\u043b\u0430\u0441\u0442\u044c","name:hy":"\u0531\u057d\u057f\u0580\u0561\u056d\u0561\u0576\u056b \u0574\u0561\u0580\u0566","name:sw":"Astrakhan Oblast","name:sv":"Astrachan oblast","name:hu":"Asztrah\u00e1ni ter\u00fclet","name:ba":"\u04d8\u0441\u0442\u0440\u04d9\u0445\u0430\u043d \u04e9\u043b\u043a\u04d9\u04bb\u0435","osm_relation":true,"name":"\u0410\u0441\u0442\u0440\u0430\u0445\u0430\u043d\u0441\u043a\u0430\u044f \u043e\u0431\u043b\u0430\u0441\u0442\u044c","name:el":"\u03a0\u03b5\u03c1\u03b9\u03c6\u03ad\u03c1\u03b5\u03b9\u03b1 \u0386\u03c3\u03c4\u03c1\u03b1\u03c7\u03b1\u03bd","kind":"region","name:en":"Astrakhan Oblast","name:uz":"Astraxan viloyati","name:zh":"\u963f\u65af\u7279\u62c9\u7f55\u5dde","name:is":"Astrakanfylki","name:pl":"Obw\u00f3d astracha\u0144ski","name:fi":"Astrahanin alue","name:et":"Astrahani oblast","name:es":"\u00d3blast de Astrac\u00e1n"},"arcs":[3]},{"type":"LineString","properties":{"name:pt":"Oblast de Astrac\u00e3","name:az":"H\u0259\u015ft\u0259rxan vilay\u0259ti","name:id":"Oblast Astrakhan","name:ka":"\u10d0\u10e1\u10e2\u10e0\u10d0\u10ee\u10d0\u10dc\u10d8\u10e1 \u10dd\u10da\u10e5\u10d8","name:tr":"Astrahan Oblast\u0131","name:cv":"\u0410\u00e7\u0442\u0103\u0440\u0445\u0430\u043d \u043e\u0431\u043b\u0430\u00e7\u0115","name:cs":"Astracha\u0148sk\u00e1 oblast","name:tt":"\u04d8\u0441\u0442\u0435\u0440\u0445\u0430\u043d \u04e9\u043b\u043a\u04d9\u0441\u0435","name:kv":"\u0410\u0441\u0442\u0440\u0430\u0445\u0430\u043d\u044c \u043e\u0431\u043b\u0430\u0441\u044c\u0442","min_zoom":8.0,"name:ro":"Regiunea Astrahan","name:it":"Oblast' di Astrachan'","name:sv":"Astrachan oblast","name:nl":"Oblast Astrachan","name:ce":"\u0410\u0441\u0442\u0440\u0430\u0445\u0430\u043d\u0430\u043d \u043e\u0431\u043b\u0430\u0441\u0442\u044c","id":-112819,"name:ca":"Prov\u00edncia d'\u00c0strakhan","sort_rank":256,"kind_detail":"4","name:da":"Astrakhan oblast","name:sh":"Astrahanska oblast","name:de":"Oblast Astrachan","source":"openstreetmap.org","name:fr":"Oblast d'Astrakhan","name:tg":"\u0412\u0438\u043b\u043e\u044f\u0442\u0438 \u0410\u0441\u0442\u0440\u0430\u0445\u0430\u043d","name:ba":"\u04d8\u0441\u0442\u0440\u04d9\u0445\u0430\u043d \u04e9\u043b\u043a\u04d9\u04bb\u0435","name:sl":"Astrahanska oblast","name:lv":"Astraha\u0146as apgabals","name:ja":"\u30a2\u30b9\u30c8\u30e9\u30cf\u30f3\u5dde","name:lt":"Astrachan\u0117s sritis","name:hi":"\u0906\u0938\u094d\u0924\u094d\u0930\u093e\u0916\u093c\u093e\u0928 \u0913\u092c\u094d\u0932\u093e\u0938\u094d\u0924","name:kk":"\u0410\u0441\u0442\u0440\u0430\u0445\u0430\u043d \u043e\u0431\u043b\u044b\u0441\u044b","name:he":"\u05de\u05d7\u05d5\u05d6 \u05d0\u05e1\u05d8\u05e8\u05d7\u05df","name:uk":"\u0410\u0441\u0442\u0440\u0430\u0445\u0430\u043d\u0441\u044c\u043a\u0430 \u043e\u0431\u043b\u0430\u0441\u0442\u044c","name:hy":"\u0531\u057d\u057f\u0580\u0561\u056d\u0561\u0576\u056b \u0574\u0561\u0580\u0566","name:sw":"Astrakhan Oblast","name:be":"\u0410\u0441\u0442\u0440\u0430\u0445\u0430\u043d\u0441\u043a\u0430\u044f \u0432\u043e\u0431\u043b\u0430\u0441\u0446\u044c","name:hu":"Asztrah\u00e1ni ter\u00fclet","name:sr":"\u0410\u0441\u0442\u0440\u0430\u0445\u0430\u043d\u0441\u043a\u0430 \u043e\u0431\u043b\u0430\u0441\u0442","osm_relation":true,"name:uz":"Astraxan viloyati","name:el":"\u03a0\u03b5\u03c1\u03b9\u03c6\u03ad\u03c1\u03b5\u03b9\u03b1 \u0386\u03c3\u03c4\u03c1\u03b1\u03c7\u03b1\u03bd","kind":"region","name:en":"Astrakhan Oblast","name":"\u0410\u0441\u0442\u0440\u0430\u0445\u0430\u043d\u0441\u043a\u0430\u044f \u043e\u0431\u043b\u0430\u0441\u0442\u044c","name:zh":"\u963f\u65af\u7279\u62c9\u7f55\u5dde","name:is":"Astrakanfylki","maritime_boundary":true,"name:pl":"Obw\u00f3d astracha\u0144ski","name:fi":"Astrahanin alue","name:et":"Astrahani oblast","name:es":"\u00d3blast de Astrac\u00e1n"},"arcs":[4]}]},"roads":{"type":"GeometryCollection","geometries":[]},"earth":{"type":"GeometryCollection","geometries":[]},"landuse":{"type":"GeometryCollection","geometries":[{"type":"Polygon","properties":{"kind":"protected_area","area":158055006208,"sort_rank":17,"source":"openstreetmap.org","min_zoom":4.0,"tier":2,"id":-3316473,"osm_relation":true},"arcs":[[6]]}]}},"type":"Topology","transform":{"translate":[49.21875,45.0890355648],"scale":[0.0003433228,0.000240282]},"arcs":[[[4096,87],[-624,315],[-138,39],[-843,-6],[-166,-28],[-160,-61],[-230,-157],[-113,-189]],[[1825,4096],[119,-114]],[[1944,3982],[184,114]],[[1930,3977],[14,5]],[[0,2827],[504,267],[367,361],[280,231],[779,291]],[[4096,4096],[0,-4096],[-4096,0],[0,4096],[4096,0]],[[0,232],[2324,3497],[-189,69],[-191,184],[184,114],[1968,0],[0,-4009],[-624,315],[-281,53],[-700,-20],[-166,-28],[-160,-61],[-230,-157],[-113,-189],[-1822,0],[0,232]]]}