{"objects":{"water":{"type":"GeometryCollection","geometries":[{"type":"Polygon","properties":{"source":"naturalearthdata.com","kind":"ocean","area":1576712559132672,"sort_rank":200,"min_zoom":0.0,"id":1},"arcs":[[12]]},{"type":"LineString","properties":{"source":"naturalearthdata.com","kind":"ocean","sort_rank":205,"boundary":true,"min_zoom":0.0,"id":979},"arcs":[13]}]},"buildings":{"type":"GeometryCollection","geometries":[]},"places":{"type":"GeometryCollection","geometries":[{"type":"Point","properties":{"name:ja":"\u30ae\u30fc\u30e9\u30fc\u30f3","min_zoom":4.0,"name:uk":"\u0413\u0456\u043b\u044f\u043d","name:ru":"\u0413\u0438\u043b\u044f\u043d","name:pl":"Gilan","name:hu":"Gil\u00e1n","name:hr":"Gilan","id":503160180,"kind":"region","name:en":"Gilan","name":"\u06af\u06cc\u0644\u0627\u0646","kind_detail":"state","name:ku":"G\u00eelan","name:de":"Gilan","source":"openstreetmap.org","name:fr":"Gilan"},"coordinates":[465,2708]},{"type":"Point","properties":{"admin_level":"8","kind":"locality","name:en":"Rasht","name":"\u0631\u0634\u062a","kind_detail":"city","name:de":"Rascht","source":"openstreetmap.org","min_zoom":8.0,"name:ru":"\u0420\u0435\u0448\u0442","id":4526985879,"population":1200000},"coordinates":[1066,2491]},{"type":"Point","properties":{"kind":"locality","name:en":"Lahijan","name":"\u0644\u0627\u0647\u06cc\u062c\u0627\u0646","kind_detail":"city","source":"openstreetmap.org","min_zoom":8.0,"int_name":"Lahijan","name:ru":"\u041b\u0430\u0445\u0438\u0434\u0436\u0430\u043d","population":180000,"id":2623416275,"name:ja":"\u30e9\u30fc\u30d2\u30fc\u30b8\u30e3\u30fc\u30f3"},"coordinates":[2284,2223]},{"type":"Point","properties":{"kind":"locality","name:en":"Rudsar","name":"\u0631\u0648\u062f\u0633\u0631","kind_detail":"town","source":"openstreetmap.org","min_zoom":8.0,"name:ru":"\u0420\u0443\u0434\u0441\u0435\u0440","population":144500,"id":2421209186,"name:ja":"\u30eb\u30fc\u30c9\u30b5\u30eb"},"coordinates":[3128,1975]},{"type":"Point","properties":{"kind":"locality","name:en":"Langarud","name":"\u0644\u0646\u06af\u0631\u0648\u062f","kind_detail":"town","source":"openstreetmap.org","min_zoom":8.0,"name:ru":"\u041b\u0435\u043d\u0433\u0435\u0440\u0443\u0434","population":137500,"id":2421209184,"name:ja":"\u30e9\u30f3\u30b2\u30eb\u30fc\u30c9"},"coordinates":[2721,2185]},{"type":"Point","properties":{"kind":"locality","name:en":"Anzali Port","name":"\u0628\u0646\u062f\u0631 \u0627\u0646\u0632\u0644\u06cc","kind_detail":"city","source":"openstreetmap.org","min_zoom":8.0,"old_name:fa":"\u0628\u0646\u062f\u0631 \u067e\u0647\u0644\u0648\u06cc","old_name":"Bandar-e Pahlavi","name:ru":"\u042d\u043d\u0437\u0435\u043b\u0438","population":116700,"id":27442136,"name:ja":"\u30d0\u30f3\u30c0\u30ec\u30fb\u30a2\u30f3\u30b6\u30ea\u30fc"},"coordinates":[728,3193]},{"type":"Point","properties":{"kind":"locality","name:en":"Amlash","name":"\u0627\u0645\u0644\u0634","kind_detail":"town","source":"openstreetmap.org","min_zoom":8.0,"name:ru":"\u042d\u043c\u043b\u0435\u0448","population":44500,"id":32673769,"name:ja":"\u30a2\u30e0\u30e9\u30b7\u30e5"},"coordinates":[2813,1821]},{"type":"Point","properties":{"kind":"locality","name:en":"Astaneh Ashrafieh","name":"\u0622\u0633\u062a\u0627\u0646\u0647 \u0627\u0634\u0631\u0641\u06cc\u0647","kind_detail":"town","source":"openstreetmap.org","min_zoom":8.0,"loc_name":"\u0622\u0633\u062a\u0648\u0646\u0647","id":3965822956,"population":40726},"coordinates":[2117,2423]},{"type":"Point","properties":{"kind":"locality","name:en":"Loleman","name":"\u0644\u0648\u0644\u0645\u0627\u0646","kind_detail":"town","source":"openstreetmap.org","min_zoom":8.0,"id":2727814042,"population":7815},"coordinates":[1737,2402]},{"type":"Point","properties":{"kind":"locality","name:en":"Vajargah","name":"\u0648\u0627\u062c\u0627\u0631\u06af\u0627\u0647","kind_detail":"town","source":"openstreetmap.org","min_zoom":8.0,"population":4537,"id":729168407,"name:ja":"\u30f4\u30a1\u30fc\u30b8\u30e3\u30fc\u30eb\u30ac\u30fc\u30d5"},"coordinates":[3458,1610]}]},"transit":{"type":"GeometryCollection","geometries":[]},"pois":{"type":"GeometryCollection","geometries":[{"type":"Point","properties":{"source":"openstreetmap.org","kind":"protected_area","name":"\u0645\u0646\u0637\u0642\u0647 \u062d\u0641\u0627\u0638\u062a \u0634\u062f\u0647 \u0628\u0648\u062c\u0627\u0642","area":15154000,"tier":2,"min_zoom":8.0,"id":500911760},"coordinates":[2051,3108]}]},"boundaries":{"type":"GeometryCollection","geometries":[{"type":"LineString","properties":{"name:ka":"\u10d8\u10e0\u10d0\u10dc\u10d8","name:ko":"\uc774\ub780","name:cv":"\u0418\u0441\u043b\u0430\u043c \u0420\u0435\u0441\u043f\u0443\u0431\u043b\u0438\u043a\u0438 \u0418\u0440\u0430\u043d","name:km":"\u17a2\u17ca\u17b8\u179a\u17c9\u1784\u17cb","name:kl":"Iran","name:cs":"\u00cdr\u00e1n","name:tw":"Iran","name:tt":"\u0418\u0440\u0430\u043d","name:co":"Iranu","name:kv":"\u0418\u0440\u0430\u043d","name:th":"\u0e1b\u0e23\u0e30\u0e40\u0e17\u0e28\u0e2d\u0e34\u0e2b\u0e23\u0e48\u0e32\u0e19","name:ks":"\u0627\u06cc\u0656\u0631\u0627\u0646","name:tl":"Iran","name:ce":"\u0418\u0440\u0430\u043d","name:ta":"\u0b88\u0bb0\u0bbe\u0ba9\u0bcd","name:tg":"\u042d\u0440\u043e\u043d","name:ca":"Iran","name:te":"\u0c07\u0c30\u0c3e\u0c28\u0c4d","name:cy":"Iran","name:qu":"Iran","name:da":"Iran","name:de":"Iran","name:dz":"\u0f68\u0f72\u0f0b\u0f62\u0f71\u0f53\u0f0b","source":"openstreetmap.org","name:kn":"\u0c87\u0cb0\u0cbe\u0ca8\u0ccd","name:dv":"\u0787\u07a9\u0783\u07a7\u0782\u07b0","name:lv":"Ir\u0101na","name:lt":"Iranas","name:uz":"Eron","name:kk":"\u0418\u0440\u0430\u043d","name:ur":"\u0627\u06cc\u0631\u0627\u0646","name:lb":"Iran","name:la":"Irania","name:uk":"\u0406\u0440\u0430\u043d","name:ug":"\u0626\u0649\u0631\u0627\u0646","name:li":"Iran","name:ln":"Iran","name:el":"\u0399\u03c1\u03ac\u03bd","name:eo":"Irano","name:en":"Iran","name":"\u200f\u0627\u06cc\u0631\u0627\u0646\u200e","name:tk":"E\u00fdran","name:ku":"\u00ceran","name:eu":"Iran","name:et":"Iraan","name:es":"Ir\u00e1n","name:ia":"Iran","name:rm":"Iran","name:az":"\u0130ran","name:ie":"Iran","name:id":"Iran","name:ar":"\u0625\u06cc\u0631\u0627\u0646","name:io":"Iran","name:is":"\u00cdran","name:am":"\u134b\u122d\u1235","name:it":"Iran","name:an":"Ir\u00e1n","name:ru":"\u0418\u0440\u0430\u043d","name:rw":"Irani","name:af":"Iran","name:zu":"I-Irani","kind_detail":"2","name:za":"Iran","name:zh-yue":"\u4f0a\u6717","name:zh":"\u4f0a\u6717","name:so":"Iiraan","name:sl":"Iran","name:sk":"Ir\u00e1n","name:ja":"\u30a4\u30e9\u30f3","name:si":"\u0d89\u0dbb\u0dcf\u0db1\u0dba","name:sh":"Iran","name:se":"Iran","name:sc":"Iran","name:br":"Iran","name:bs":"Iran","name:bn":"\u0987\u09b0\u09be\u09a8","name:bo":"\u0f61\u0f72\u0f0b\u0f63\u0f44\u0f0b\u0f0d","name:sa":"\u0908\u0930\u093e\u0928","name:sw":"Uajemi","name:be":"\u0406\u0440\u0430\u043d","name:su":"Iran","name:bg":"\u0418\u0440\u0430\u043d","name:ss":"I-Irani","name:ba":"\u0418\u0440\u0430\u043d","name:sq":"Irani","name:jv":"Iran","name:pt":"Ir\u00e3o","name:ps":"\u0627\u06cc\u0631\u0627\u0646","name:oc":"Iran","min_zoom":8.0,"name:ro":"Iran","name:zh-min-nan":"Iran","name:os":"\u0418\u0440\u0430\u043d","name:or":"\u0b07\u0b30\u0b3e\u0b28","name:pl":"Iran","sort_rank":262,"name:sr":"\u0418\u0440\u0430\u043d","osm_relation":true,"name:pa":"\u0a07\u0a30\u0a3e\u0a28","name:tr":"\u0130ran","name:hi":"\u0908\u0930\u093e\u0928","name:sv":"Iran","name:he":"\u05d0\u05d9\u05e8\u05d0\u05df","name:ha":"Iran","name:hy":"\u053b\u0580\u0561\u0576","name:ht":"Iran","name:hu":"Ir\u00e1n","name:hr":"Iran","kind":"country","name:yi":"\u05d0\u05d9\u05e8\u05d0\u05df","name:yo":"\u00ccr\u00e1n\u00ec","name:mt":"Iran","name:ms":"Iran","name:mr":"\u0907\u0930\u093e\u0923","name:my":"\u1021\u102e\u101b\u1014\u103a\u1014\u102d\u102f\u1004\u103a\u1004\u1036","name:kw":"Iran","name:mg":"Iran","name:vi":"Iran","name:ml":"\u0d07\u0d31\u0d3e\u0d7b","name:mn":"\u0418\u0440\u0430\u043d","name:mi":"\u012ar\u0101na","id":-304938,"name:mk":"\u0418\u0440\u0430\u043d","name:vo":"Lir\u00e4n","name:fa":"\u0627\u06cc\u0631\u0627\u0646","name:fi":"Iran","name:ky":"\u0418\u0440\u0430\u043d","name:fo":"Iran","name:fr":"Iran","name:fy":"Iran","int_name":"Iran","name:nl":"Iran","name:nn":"Iran","name:no":"Iran","name:na":"Iran","name:ne":"\u0907\u0930\u093e\u0928","name:wa":"Iran","name:wo":"Iraan","name:nv":"Iiw\u0105\u0301\u0105\u0301","name:ga":"An Iar\u00e1in","name:gd":"Ior\u00e0n","name:gn":"Ir\u00e1n","name:gl":"Ir\u00e1n - \u0627\u06cc\u0631\u0627\u0646","maritime_boundary":true,"name:gv":"Yn Eeraan","name:gu":"\u0a88\u0ab0\u0abe\u0aa8"},"arcs":[0]},{"type":"LineString","properties":{"name:right:ja":"\u30ae\u30fc\u30e9\u30fc\u30f3","name:right:uk":"\u0413\u0456\u043b\u044f\u043d","name:left:ja":"\u30de\u30fc\u30b6\u30f3\u30c0\u30e9\u30fc\u30f3","id:right":-241472,"name:left:uk":"\u041c\u0430\u0437\u0435\u043d\u0434\u0435\u0440\u0430\u043d","min_zoom":8.0,"name:right:ku":"G\u00eelan","id:left":-269900,"name:left:en":"Mazandaran Province","name:left:ru":"\u041c\u0430\u0437\u0435\u043d\u0434\u0435\u0440\u0430\u043d","name:right:ru":"\u0413\u0438\u043b\u044f\u043d","name:right:pl":"Gilan","id":-269900,"osm_relation":true,"name:right":"\u0627\u0633\u062a\u0627\u0646 \u06af\u06cc\u0644\u0627\u0646","name:left:ku":"Mazenderan","kind":"region","name":"\u0627\u0633\u062a\u0627\u0646 \u0645\u0627\u0632\u0646\u062f\u0631\u0627\u0646\u200e - \u0627\u0633\u062a\u0627\u0646 \u06af\u06cc\u0644\u0627\u0646","source":"openstreetmap.org","sort_rank":256,"kind_detail":"4","name:left:de":"Mazandaran","name:right:en":"Gilan Province","name:left:pl":"Mazandaran","name:right:de":"Gilan","name:left":"\u0627\u0633\u062a\u0627\u0646 \u0645\u0627\u0632\u0646\u062f\u0631\u0627\u0646\u200e"},"arcs":[1]},{"type":"LineString","properties":{"name:right:ja":"\u30ac\u30ba\u30f4\u30a3\u30fc\u30f3","name:right:uk":"\u041a\u0430\u0437\u0432\u0456\u043d","name:left:ja":"\u30de\u30fc\u30b6\u30f3\u30c0\u30e9\u30fc\u30f3","id:right":-241471,"name:left:uk":"\u041c\u0430\u0437\u0435\u043d\u0434\u0435\u0440\u0430\u043d","min_zoom":8.0,"name:right:ku":"Qazw\u00ean","id:left":-269900,"name:left:en":"Mazandaran Province","name:right:fa":"\u0627\u0633\u062a\u0627\u0646 \u0642\u0632\u0648\u06cc\u0646\u200e","name:right:ru":"\u041a\u0430\u0437\u0432\u0438\u043d","name:right:pl":"Kazwin","id":-269900,"osm_relation":true,"name:right":"\u0627\u0633\u062a\u0627\u0646 \u0642\u0632\u0648\u06cc\u0646","name:left:ku":"Mazenderan","kind":"region","name":"\u0627\u0633\u062a\u0627\u0646 \u0645\u0627\u0632\u0646\u062f\u0631\u0627\u0646\u200e - \u0627\u0633\u062a\u0627\u0646 \u0642\u0632\u0648\u06cc\u0646","source":"openstreetmap.org","sort_rank":256,"kind_detail":"4","name:left:de":"Mazandaran","name:right:en":"Qazvin Province","name:left:pl":"Mazandaran","name:right:de":"Qazvin","name:left:ru":"\u041c\u0430\u0437\u0435\u043d\u0434\u0435\u0440\u0430\u043d","name:left":"\u0627\u0633\u062a\u0627\u0646 \u0645\u0627\u0632\u0646\u062f\u0631\u0627\u0646\u200e"},"arcs":[2]},{"type":"LineString","properties":{"kind":"region","name:en":"Mazandaran Province","name":"\u0627\u0633\u062a\u0627\u0646 \u0645\u0627\u0632\u0646\u062f\u0631\u0627\u0646\u200e","sort_rank":256,"kind_detail":"4","min_zoom":8.0,"name:de":"Mazandaran","source":"openstreetmap.org","name:ku":"Mazenderan","name:uk":"\u041c\u0430\u0437\u0435\u043d\u0434\u0435\u0440\u0430\u043d","name:ru":"\u041c\u0430\u0437\u0435\u043d\u0434\u0435\u0440\u0430\u043d","name:pl":"Mazandaran","id":-269900,"osm_relation":true,"name:ja":"\u30de\u30fc\u30b6\u30f3\u30c0\u30e9\u30fc\u30f3"},"arcs":[3]},{"type":"LineString","properties":{"name:ja":"\u30de\u30fc\u30b6\u30f3\u30c0\u30e9\u30fc\u30f3","min_zoom":8.0,"name:uk":"\u041c\u0430\u0437\u0435\u043d\u0434\u0435\u0440\u0430\u043d","name:ru":"\u041c\u0430\u0437\u0435\u043d\u0434\u0435\u0440\u0430\u043d","name:pl":"Mazandaran","id":-269900,"osm_relation":true,"kind":"region","name:en":"Mazandaran Province","name":"\u0627\u0633\u062a\u0627\u0646 \u0645\u0627\u0632\u0646\u062f\u0631\u0627\u0646\u200e","sort_rank":256,"kind_detail":"4","name:ku":"Mazenderan","name:de":"Mazandaran","source":"openstreetmap.org","maritime_boundary":true},"arcs":[4]},{"type":"LineString","properties":{"name:right:ja":"\u30ae\u30fc\u30e9\u30fc\u30f3","name:right:uk":"\u0413\u0456\u043b\u044f\u043d","name:left:ja":"\u30b6\u30f3\u30b8\u30e3\u30fc\u30f3","id:right":-241472,"name:left:uk":"\u0417\u0435\u043d\u0434\u0436\u0430\u043d","min_zoom":8.0,"name:right:ku":"G\u00eelan","id:left":-241473,"name:left:en":"Zanjan Province","name:left:ru":"\u0417\u0435\u043d\u0434\u0436\u0430\u043d","name:right:ru":"\u0413\u0438\u043b\u044f\u043d","name:right:pl":"Gilan","id":-241473,"osm_relation":true,"name:right":"\u0627\u0633\u062a\u0627\u0646 \u06af\u06cc\u0644\u0627\u0646","name:left:ku":"Zengan","kind":"region","name":"\u0627\u0633\u062a\u0627\u0646 \u0632\u0646\u062c\u0627\u0646 - \u0627\u0633\u062a\u0627\u0646 \u06af\u06cc\u0644\u0627\u0646","source":"openstreetmap.org","sort_rank":256,"kind_detail":"4","name:left:de":"Zandschan","name:right:en":"Gilan Province","name:left:pl":"Zand\u017can","name:right:de":"Gilan","name:left":"\u0627\u0633\u062a\u0627\u0646 \u0632\u0646\u062c\u0627\u0646"},"arcs":[5]},{"type":"LineString","properties":{"name:right:ja":"\u30ac\u30ba\u30f4\u30a3\u30fc\u30f3","name:right:uk":"\u041a\u0430\u0437\u0432\u0456\u043d","name:left:ja":"\u30b6\u30f3\u30b8\u30e3\u30fc\u30f3","id:right":-241471,"name:left:uk":"\u0417\u0435\u043d\u0434\u0436\u0430\u043d","min_zoom":8.0,"name:right:ku":"Qazw\u00ean","id:left":-241473,"name:left:en":"Zanjan Province","name:right:fa":"\u0627\u0633\u062a\u0627\u0646 \u0642\u0632\u0648\u06cc\u0646\u200e","name:right:ru":"\u041a\u0430\u0437\u0432\u0438\u043d","name:right:pl":"Kazwin","id":-241473,"osm_relation":true,"name:right":"\u0627\u0633\u062a\u0627\u0646 \u0642\u0632\u0648\u06cc\u0646","name:left:ku":"Zengan","kind":"region","name":"\u0627\u0633\u062a\u0627\u0646 \u0632\u0646\u062c\u0627\u0646 - \u0627\u0633\u062a\u0627\u0646 \u0642\u0632\u0648\u06cc\u0646","source":"openstreetmap.org","sort_rank":256,"kind_detail":"4","name:left:de":"Zandschan","name:right:en":"Qazvin Province","name:left:pl":"Zand\u017can","name:right:de":"Qazvin","name:left:ru":"\u0417\u0435\u043d\u0434\u0436\u0430\u043d","name:left":"\u0627\u0633\u062a\u0627\u0646 \u0632\u0646\u062c\u0627\u0646"},"arcs":[6]},{"type":"MultiLineString","properties":{"name:right:ja":"\u30ac\u30ba\u30f4\u30a3\u30fc\u30f3","name:right:uk":"\u041a\u0430\u0437\u0432\u0456\u043d","name:left:ja":"\u30ae\u30fc\u30e9\u30fc\u30f3","id:right":-241471,"name:left:uk":"\u0413\u0456\u043b\u044f\u043d","min_zoom":8.0,"name:right:ku":"Qazw\u00ean","id:left":-241472,"name:left:en":"Gilan Province","name:right:fa":"\u0627\u0633\u062a\u0627\u0646 \u0642\u0632\u0648\u06cc\u0646\u200e","name:right:ru":"\u041a\u0430\u0437\u0432\u0438\u043d","name:right:pl":"Kazwin","id":-241472,"osm_relation":true,"name:right":"\u0627\u0633\u062a\u0627\u0646 \u0642\u0632\u0648\u06cc\u0646","name:left:ku":"G\u00eelan","kind":"region","name":"\u0627\u0633\u062a\u0627\u0646 \u06af\u06cc\u0644\u0627\u0646 - \u0627\u0633\u062a\u0627\u0646 \u0642\u0632\u0648\u06cc\u0646","source":"openstreetmap.org","sort_rank":256,"kind_detail":"4","name:left:de":"Gilan","name:right:en":"Qazvin Province","name:left:pl":"Gilan","name:right:de":"Qazvin","name:left:ru":"\u0413\u0438\u043b\u044f\u043d","name:left":"\u0627\u0633\u062a\u0627\u0646 \u06af\u06cc\u0644\u0627\u0646"},"arcs":[[7],[8]]},{"type":"LineString","properties":{"name:right:ja":"\u30ac\u30ba\u30f4\u30a3\u30fc\u30f3","name:right:uk":"\u041a\u0430\u0437\u0432\u0456\u043d","name:left:ja":"\u30ae\u30fc\u30e9\u30fc\u30f3","id:right":-241471,"name:left:uk":"\u0413\u0456\u043b\u044f\u043d","min_zoom":8.0,"name:right:ku":"Qazw\u00ean","id:left":-241472,"name:left:en":"Gilan Province","name:right:fa":"\u0627\u0633\u062a\u0627\u0646 \u0642\u0632\u0648\u06cc\u0646\u200e","name:right:ru":"\u041a\u0430\u0437\u0432\u0438\u043d","name:right:pl":"Kazwin","id":-241472,"osm_relation":true,"name:right":"\u0627\u0633\u062a\u0627\u0646 \u0642\u0632\u0648\u06cc\u0646","name:left:ku":"G\u00eelan","kind":"region","name":"\u0627\u0633\u062a\u0627\u0646 \u06af\u06cc\u0644\u0627\u0646 - \u0627\u0633\u062a\u0627\u0646 \u0642\u0632\u0648\u06cc\u0646","source":"openstreetmap.org","sort_rank":256,"kind_detail":"4","name:left:de":"Gilan","name:right:en":"Qazvin Province","name:left:pl":"Gilan","name:right:de":"Qazvin","name:left:ru":"\u0413\u0438\u043b\u044f\u043d","name:left":"\u0627\u0633\u062a\u0627\u0646 \u06af\u06cc\u0644\u0627\u0646"},"arcs":[9]},{"type":"LineString","properties":{"kind":"region","name:en":"Gilan Province","name":"\u0627\u0633\u062a\u0627\u0646 \u06af\u06cc\u0644\u0627\u0646","sort_rank":256,"kind_detail":"4","min_zoom":8.0,"name:de":"Gilan","source":"openstreetmap.org","name:ku":"G\u00eelan","name:uk":"\u0413\u0456\u043b\u044f\u043d","name:ru":"\u0413\u0438\u043b\u044f\u043d","name:pl":"Gilan","id":-241472,"osm_relation":true,"name:ja":"\u30ae\u30fc\u30e9\u30fc\u30f3"},"arcs":[10]},{"type":"LineString","properties":{"name:ja":"\u30ae\u30fc\u30e9\u30fc\u30f3","min_zoom":8.0,"name:uk":"\u0413\u0456\u043b\u044f\u043d","name:ru":"\u0413\u0438\u043b\u044f\u043d","name:pl":"Gilan","id":-241472,"osm_relation":true,"kind":"region","name:en":"Gilan Province","name":"\u0627\u0633\u062a\u0627\u0646 \u06af\u06cc\u0644\u0627\u0646","sort_rank":256,"kind_detail":"4","name:ku":"G\u00eelan","name:de":"Gilan","source":"openstreetmap.org","maritime_boundary":true},"arcs":[11]}]},"roads":{"type":"GeometryCollection","geometries":[{"type":"MultiLineString","properties":{"kind":"major_road","name:en":"Imam Reza Boulevard","network":"ir:national","sort_rank":381,"landuse_kind":"urban_area","source":"openstreetmap.org","min_zoom":8.0,"kind_detail":"trunk","shield_text":"22","ref":"22"},"arcs":[[14],[15]]},{"type":"LineString","properties":{"kind":"major_road","name:en":"Hasan Dokht Squre","sort_rank":380,"kind_detail":"primary","source":"openstreetmap.org","min_zoom":8.0,"landuse_kind":"urban_area","loc_name":"\u0633\u0647 \u0631\u0627\u0647 \u0644\u0634\u062a \u0646\u0634\u0627\u0621","id":454459029},"arcs":[16]},{"type":"MultiLineString","properties":{"kind":"major_road","name:en":"Shahid Beheshti Expressway","network":"ir:national","sort_rank":381,"landuse_kind":"urban_area","source":"openstreetmap.org","min_zoom":8.0,"kind_detail":"trunk","shield_text":"22","ref":"22"},"arcs":[[17],[18],[19],[20]]},{"type":"LineString","properties":{"kind":"major_road","network":"AsianHighway","sort_rank":381,"kind_detail":"trunk","source":"openstreetmap.org","min_zoom":8.0,"shield_text":"8","ref":"1","id":470744026},"arcs":[21]},{"type":"LineString","properties":{"kind":"major_road","name:en":"Sefidroud Bridge","network":"ir:national","sort_rank":381,"kind_detail":"trunk","source":"openstreetmap.org","min_zoom":8.0,"landuse_kind":"urban_area","shield_text":"22","id":286438010},"arcs":[22]},{"type":"MultiLineString","properties":{"source":"openstreetmap.org","kind":"major_road","name:en":"Taleghani","landuse_kind":"urban_area","sort_rank":380,"kind_detail":"primary","min_zoom":8.0},"arcs":[[23],[24],[25]]},{"type":"MultiLineString","properties":{"source":"openstreetmap.org","kind":"major_road","name:en":"Sangar - Kuchesfahan","sort_rank":380,"kind_detail":"primary","ref":"315","min_zoom":8.0},"arcs":[[26],[27],[28]]},{"type":"LineString","properties":{"kind":"major_road","name:en":"Sabz Square","sort_rank":380,"landuse_kind":"urban_area","source":"openstreetmap.org","min_zoom":8.0,"kind_detail":"primary","id":4750984},"arcs":[29]},{"type":"LineString","properties":{"kind":"major_road","name:en":"Janbazan","sort_rank":380,"landuse_kind":"urban_area","source":"openstreetmap.org","min_zoom":8.0,"kind_detail":"primary","id":454469418},"arcs":[30]},{"type":"LineString","properties":{"kind":"highway","name:en":"Qazvin-Rasht freeway","sort_rank":383,"kind_detail":"motorway","source":"openstreetmap.org","min_zoom":8.0,"landuse_kind":"urban_area","ref":"1","id":241922904},"arcs":[31]},{"type":"MultiLineString","properties":{"source":"openstreetmap.org","kind":"major_road","name:en":"Ziabary Avenue","landuse_kind":"urban_area","sort_rank":380,"kind_detail":"primary","min_zoom":8.0},"arcs":[[32],[33]]},{"type":"MultiLineString","properties":{"source":"openstreetmap.org","kind":"major_road","name:en":"Darya","landuse_kind":"urban_area","sort_rank":380,"kind_detail":"primary","min_zoom":8.0},"arcs":[[34],[35],[36],[37]]},{"type":"LineString","properties":{"kind":"major_road","name:en":"Vali Asr square","sort_rank":380,"landuse_kind":"urban_area","source":"openstreetmap.org","min_zoom":8.0,"kind_detail":"primary","id":235334865},"arcs":[38]},{"type":"MultiLineString","properties":{"source":"openstreetmap.org","kind":"major_road","kind_detail":"trunk","sort_rank":381,"landuse_kind":"urban_area","is_bicycle_related":true,"min_zoom":8.0},"arcs":[[39],[40]]},{"type":"MultiLineString","properties":{"kind":"highway","name:en":"Qazvin-Rasht freeway","network":"AsianHighway","sort_rank":383,"kind_detail":"motorway","source":"openstreetmap.org","min_zoom":8.0,"all_networks":["AsianHighway","ir:freeways"],"shield_text":"8","ref":"1","all_shield_texts":["8","1"]},"arcs":[[41],[42],[43],[44],[45],[46]]},{"type":"LineString","properties":{"source":"openstreetmap.org","kind":"major_road","name:en":"Saadi Avenue","landuse_kind":"urban_area","sort_rank":380,"kind_detail":"primary","min_zoom":8.0},"arcs":[47]},{"type":"LineString","properties":{"kind":"major_road","name:en":"Astaneh - Kiashahr","sort_rank":380,"kind_detail":"primary","source":"openstreetmap.org","min_zoom":8.0,"ref":"222","id":249790579},"arcs":[48]},{"type":"MultiLineString","properties":{"source":"openstreetmap.org","kind":"major_road","name:en":"Moalem Boulevard","landuse_kind":"urban_area","sort_rank":380,"kind_detail":"primary","min_zoom":8.0},"arcs":[[49],[50]]},{"type":"MultiLineString","properties":{"kind":"major_road","name:en":"Saravan - Fuman","network":"ir:national","sort_rank":381,"landuse_kind":"urban_area","source":"openstreetmap.org","min_zoom":8.0,"kind_detail":"trunk","shield_text":"22","ref":"22"},"arcs":[[51],[52]]},{"type":"LineString","properties":{"kind":"major_road","name:en":"Basij square","sort_rank":380,"landuse_kind":"urban_area","source":"openstreetmap.org","min_zoom":8.0,"kind_detail":"primary","id":165331462},"arcs":[53]},{"type":"LineString","properties":{"kind":"major_road","name:en":"Azar Arjmand Square","sort_rank":380,"landuse_kind":"urban_area","source":"openstreetmap.org","min_zoom":8.0,"kind_detail":"primary","id":264021254},"arcs":[54]},{"type":"MultiLineString","properties":{"source":"openstreetmap.org","kind":"major_road","name:en":"Abdolkarimi Boulevard","landuse_kind":"urban_area","sort_rank":380,"kind_detail":"primary","min_zoom":8.0},"arcs":[[55],[56]]},{"type":"MultiLineString","properties":{"source":"openstreetmap.org","kind":"major_road","sort_rank":380,"kind_detail":"primary","ref":"494","min_zoom":8.0},"arcs":[[57],[58],[59],[60],[61]]},{"type":"LineString","properties":{"kind":"major_road","name:en":"Shari'ati","sort_rank":380,"landuse_kind":"urban_area","source":"openstreetmap.org","min_zoom":8.0,"kind_detail":"primary","id":83905322},"arcs":[62]},{"type":"MultiLineString","properties":{"source":"openstreetmap.org","kind":"major_road","name:en":"Taleghani Avenue","landuse_kind":"urban_area","sort_rank":380,"kind_detail":"primary","min_zoom":8.0},"arcs":[[63],[64],[65],[66],[67]]},{"type":"MultiLineString","properties":{"kind":"highway","name:en":"Qazvin-Rasht freeway","network":"AsianHighway","sort_rank":383,"landuse_kind":"urban_area","source":"openstreetmap.org","min_zoom":8.0,"all_networks":["AsianHighway"],"kind_detail":"motorway","shield_text":"8","ref":"1","all_shield_texts":["8"]},"arcs":[[68],[69]]},{"type":"LineString","properties":{"kind":"major_road","name:en":"Gomnam Square","network":"ir:national","sort_rank":381,"landuse_kind":"urban_area","source":"openstreetmap.org","min_zoom":8.0,"kind_detail":"trunk","shield_text":"22","ref":"22"},"arcs":[70]},{"type":"LineString","properties":{"kind":"major_road","name:en":"Kiashahr - Astaneo","sort_rank":380,"kind_detail":"primary","source":"openstreetmap.org","min_zoom":8.0,"ref":"222","id":468672253},"arcs":[71]},{"type":"LineString","properties":{"kind":"major_road","name:en":"Imam Khomaini","sort_rank":380,"kind_detail":"primary","source":"openstreetmap.org","min_zoom":8.0,"int_name":"Imam Khamayni","landuse_kind":"urban_area","id":219690862},"arcs":[72]},{"type":"LineString","properties":{"kind":"major_road","name:en":"Gil Square","network":"ir:national","sort_rank":381,"kind_detail":"trunk","source":"openstreetmap.org","min_zoom":8.0,"landuse_kind":"urban_area","shield_text":"22","ref":"22","id":200828778},"arcs":[73]},{"type":"LineString","properties":{"kind":"major_road","name:en":"Emam Khomeini Square","sort_rank":380,"landuse_kind":"residential","source":"openstreetmap.org","min_zoom":8.0,"kind_detail":"primary","id":84604324},"arcs":[74]},{"type":"LineString","properties":{"kind":"major_road","name:en":"Emam Hosein Square","network":"ir:national","sort_rank":381,"kind_detail":"trunk","source":"openstreetmap.org","min_zoom":8.0,"landuse_kind":"urban_area","shield_text":"22","ref":"22;49","id":4750798},"arcs":[75]},{"type":"LineString","properties":{"kind":"major_road","name:en":"Azadi Boulvard","sort_rank":380,"landuse_kind":"urban_area","source":"openstreetmap.org","min_zoom":8.0,"kind_detail":"primary","id":284822694},"arcs":[76]},{"type":"MultiLineString","properties":{"source":"openstreetmap.org","kind":"major_road","name:en":"Motahari Boulevard","landuse_kind":"urban_area","sort_rank":380,"kind_detail":"primary","min_zoom":8.0},"arcs":[[77],[78],[79]]},{"type":"MultiLineString","properties":{"source":"openstreetmap.org","kind":"major_road","name:en":"Emam Khomeyni Street","landuse_kind":"urban_area","sort_rank":380,"kind_detail":"primary","min_zoom":8.0},"arcs":[[80],[81],[82],[83],[84]]},{"type":"MultiLineString","properties":{"source":"openstreetmap.org","kind":"major_road","name:en":"Ayatollah Khamenei","landuse_kind":"urban_area","sort_rank":380,"kind_detail":"primary","min_zoom":8.0},"arcs":[[85],[86]]},{"type":"LineString","properties":{"kind":"major_road","network":"ir:national","sort_rank":381,"landuse_kind":"urban_area","source":"openstreetmap.org","min_zoom":8.0,"kind_detail":"trunk","shield_text":"22","ref":"22;49"},"arcs":[87]},{"type":"MultiLineString","properties":{"kind":"major_road","name:en":"East Tohid boulevard","network":"ir:national","sort_rank":381,"kind_detail":"trunk","source":"openstreetmap.org","min_zoom":8.0,"landuse_kind":"residential","shield_text":"22","ref":"22"},"arcs":[[88],[89]]},{"type":"MultiLineString","properties":{"kind":"major_road","name:en":"Lahijan - astaneh","network":"ir:national","sort_rank":381,"landuse_kind":"urban_area","source":"openstreetmap.org","min_zoom":8.0,"kind_detail":"trunk","shield_text":"22","ref":"22"},"arcs":[[90],[91]]},{"type":"LineString","properties":{"kind":"major_road","name:en":"Gil Square","network":"ir:national","sort_rank":381,"kind_detail":"trunk","source":"openstreetmap.org","min_zoom":8.0,"landuse_kind":"urban_area","shield_text":"49","ref":"49","id":4750028},"arcs":[92]},{"type":"LineString","properties":{"kind":"major_road","name:en":"Defa'e Moghaddas Square","sort_rank":380,"landuse_kind":"urban_area","source":"openstreetmap.org","min_zoom":8.0,"kind_detail":"primary","id":4751014},"arcs":[93]},{"type":"MultiLineString","properties":{"kind":"major_road","name:en":"Modares Highway","network":"ir:national","sort_rank":381,"landuse_kind":"urban_area","source":"openstreetmap.org","min_zoom":8.0,"kind_detail":"trunk","shield_text":"22","ref":"22;49"},"arcs":[[94],[95],[96],[97]]},{"type":"MultiLineString","properties":{"kind":"major_road","network":"ir:national","sort_rank":380,"kind_detail":"primary","source":"openstreetmap.org","min_zoom":8.0,"landuse_kind":"urban_area","shield_text":"22","ref":"22"},"arcs":[[98],[99]]},{"type":"MultiLineString","properties":{"kind":"major_road","name:en":"Imam Reza Boulevard","network":"ir:national","sort_rank":381,"kind_detail":"trunk","source":"openstreetmap.org","min_zoom":8.0,"shield_text":"22","ref":"22"},"arcs":[[100],[101]]},{"type":"LineString","properties":{"kind":"major_road","name:en":"Sepah Pasdaran square","sort_rank":380,"landuse_kind":"residential","source":"openstreetmap.org","min_zoom":8.0,"kind_detail":"primary","id":83905495},"arcs":[102]},{"type":"LineString","properties":{"kind":"major_road","name:en":"Qavin Rasht old Road","network":"ir:national","sort_rank":381,"kind_detail":"trunk","source":"openstreetmap.org","min_zoom":8.0,"shield_text":"49","ref":"49","id":4741843},"arcs":[103]},{"type":"LineString","properties":{"kind":"major_road","name:en":"Rasht - Fuman","sort_rank":380,"landuse_kind":"urban_area","source":"openstreetmap.org","min_zoom":8.0,"kind_detail":"primary","id":267215219},"arcs":[104]},{"type":"LineString","properties":{"kind":"major_road","network":"ir:national","sort_rank":381,"kind_detail":"trunk","source":"openstreetmap.org","min_zoom":8.0,"shield_text":"49","ref":"1","id":392611431},"arcs":[105]},{"type":"LineString","properties":{"kind":"major_road","name:en":"Farhang","sort_rank":380,"landuse_kind":"urban_area","source":"openstreetmap.org","min_zoom":8.0,"kind_detail":"primary","id":235307072},"arcs":[106]},{"type":"LineString","properties":{"kind":"major_road","name:en":"Meraj Square","sort_rank":380,"landuse_kind":"urban_area","source":"openstreetmap.org","min_zoom":8.0,"kind_detail":"primary","id":83905477},"arcs":[107]},{"type":"MultiLineString","properties":{"source":"openstreetmap.org","kind":"major_road","name:en":"Mirza Koochak Khan Boulevard","landuse_kind":"urban_area","sort_rank":380,"kind_detail":"primary","min_zoom":8.0},"arcs":[[108],[109]]},{"type":"MultiLineString","properties":{"source":"openstreetmap.org","kind":"major_road","name:en":"Langroud-Shalman RingRoad","landuse_kind":"urban_area","sort_rank":380,"kind_detail":"primary","min_zoom":8.0},"arcs":[[110],[111]]},{"type":"MultiLineString","properties":{"kind":"major_road","name:en":"West Tohid boulevard","network":"ir:national","sort_rank":381,"landuse_kind":"urban_area","source":"openstreetmap.org","min_zoom":8.0,"kind_detail":"trunk","shield_text":"22","ref":"22"},"arcs":[[112],[113],[114]]},{"type":"MultiLineString","properties":{"source":"openstreetmap.org","kind":"major_road","landuse_kind":"urban_area","sort_rank":380,"kind_detail":"primary","ref":"256","min_zoom":8.0},"arcs":[[115],[116],[117],[118],[119],[120],[121]]},{"type":"MultiLineString","properties":{"sort_rank":381,"source":"openstreetmap.org","min_zoom":8.0,"kind":"major_road","kind_detail":"trunk"},"arcs":[[122],[123],[124],[125],[126],[127],[128],[129],[130],[131],[132],[133],[134],[135]]},{"type":"MultiLineString","properties":{"kind":"major_road","name:en":"East Tohid boulevard","network":"ir:national","sort_rank":381,"landuse_kind":"urban_area","source":"openstreetmap.org","min_zoom":8.0,"kind_detail":"trunk","shield_text":"22","ref":"22"},"arcs":[[136],[137],[138],[139]]},{"type":"MultiLineString","properties":{"kind":"major_road","name:en":"Entezam Bridge","network":"ir:national","sort_rank":381,"landuse_kind":"urban_area","source":"openstreetmap.org","min_zoom":8.0,"kind_detail":"trunk","shield_text":"22","ref":"22"},"arcs":[[140],[141]]},{"type":"MultiLineString","properties":{"source":"openstreetmap.org","kind":"major_road","name:en":"Dr. Moein Boulevard","landuse_kind":"urban_area","sort_rank":380,"kind_detail":"primary","min_zoom":8.0},"arcs":[[142],[143],[144],[145]]},{"type":"LineString","properties":{"kind":"major_road","network":"AsianHighway","sort_rank":381,"landuse_kind":"urban_area","source":"openstreetmap.org","min_zoom":8.0,"kind_detail":"trunk","shield_text":"8"},"arcs":[146]},{"type":"LineString","properties":{"kind":"major_road","name:en":"Moallem Square","sort_rank":380,"landuse_kind":"urban_area","source":"openstreetmap.org","min_zoom":8.0,"kind_detail":"primary","id":200835890},"arcs":[147]},{"type":"LineString","properties":{"name:fa":"\u0631\u0634\u062a - \u0641\u0648\u0645\u0646","kind":"major_road","name:en":"Eftekhari Boulevard","network":"ir:national","sort_rank":381,"kind_detail":"trunk","source":"openstreetmap.org","min_zoom":8.0,"landuse_kind":"urban_area","shield_text":"22","ref":"22","id":371341788},"arcs":[148]},{"type":"LineString","properties":{"kind":"major_road","name:en":"Malla Square","sort_rank":380,"landuse_kind":"residential","source":"openstreetmap.org","min_zoom":8.0,"kind_detail":"primary","id":83905446},"arcs":[149]},{"type":"MultiLineString","properties":{"source":"openstreetmap.org","kind":"major_road","landuse_kind":"urban_area","sort_rank":380,"kind_detail":"primary","ref":"494","min_zoom":8.0},"arcs":[[150],[151],[152],[153],[154]]},{"type":"LineString","properties":{"source":"openstreetmap.org","kind":"major_road","name:en":"Golha Bolevard","landuse_kind":"urban_area","sort_rank":380,"kind_detail":"primary","min_zoom":8.0},"arcs":[155]},{"type":"MultiLineString","properties":{"kind":"major_road","name:en":"Langarud to Lahijan","network":"ir:national","sort_rank":381,"kind_detail":"trunk","source":"openstreetmap.org","min_zoom":8.0,"landuse_kind":"urban_area","shield_text":"22","ref":"22","id":200835885},"arcs":[[156],[157]]},{"type":"LineString","properties":{"kind":"highway","sort_rank":383,"landuse_kind":"urban_area","source":"openstreetmap.org","min_zoom":8.0,"kind_detail":"motorway","ref":"1","id":241922913},"arcs":[158]},{"type":"LineString","properties":{"source":"openstreetmap.org","kind":"major_road","network":"AsianHighway","sort_rank":381,"kind_detail":"trunk","min_zoom":8.0,"shield_text":"8"},"arcs":[159]},{"type":"MultiLineString","properties":{"source":"openstreetmap.org","kind":"major_road","name:en":"Imam Khomeyni Boulevard","landuse_kind":"urban_area","sort_rank":380,"kind_detail":"primary","min_zoom":8.0},"arcs":[[160],[161]]},{"type":"LineString","properties":{"kind":"major_road","name:en":"Tabi'at Square","network":"ir:national","sort_rank":381,"kind_detail":"trunk","source":"openstreetmap.org","min_zoom":8.0,"landuse_kind":"urban_area","shield_text":"22","ref":"22","id":233784985},"arcs":[162]},{"type":"LineString","properties":{"kind":"major_road","name:en":"Jafari","sort_rank":380,"landuse_kind":"urban_area","source":"openstreetmap.org","min_zoom":8.0,"kind_detail":"primary","id":219695530},"arcs":[163]},{"type":"MultiLineString","properties":{"source":"openstreetmap.org","kind":"major_road","landuse_kind":"urban_area","sort_rank":380,"kind_detail":"primary","min_zoom":8.0},"arcs":[[164],[165],[166],[167],[168],[169],[170],[171],[172],[173],[174],[175],[176],[177],[178],[179],[180],[181],[182],[183],[184],[185],[186],[187],[188],[189],[190],[191],[192],[193],[194],[195],[196],[197],[198],[199],[200],[201],[202],[203],[204],[205],[206],[207],[208],[209],[210],[211],[212],[213],[214],[215],[216],[217],[218],[219],[220],[221],[222],[223],[224],[225],[226],[227],[228],[229],[230],[231],[232],[233],[234],[235],[236],[237],[238],[239],[240],[241],[242],[243],[244],[245],[246],[247],[248],[249],[250],[251],[252],[253],[254],[255],[256],[257],[258],[259],[260],[261],[262],[263],[264],[265],[266],[267],[268],[269],[270],[271],[272],[273],[274],[275],[276],[277],[278],[279],[280],[281],[282],[283],[284],[285],[286],[287],[288],[289],[290],[291],[292],[293],[294],[295],[296],[297],[298],[299],[300],[301],[302],[303],[304],[305],[306]]},{"type":"LineString","properties":{"kind":"major_road","name:en":"Janbazan","sort_rank":380,"kind_detail":"primary","source":"openstreetmap.org","min_zoom":8.0,"int_name":"Kiashahr Road","landuse_kind":"urban_area","id":454469420},"arcs":[307]},{"type":"MultiLineString","properties":{"source":"openstreetmap.org","kind":"highway","landuse_kind":"urban_area","sort_rank":383,"kind_detail":"motorway","min_zoom":8.0},"arcs":[[308],[309]]},{"type":"LineString","properties":{"kind":"major_road","name:en":"Fuman - Rasht","sort_rank":380,"landuse_kind":"urban_area","source":"openstreetmap.org","min_zoom":8.0,"kind_detail":"primary","id":44450081},"arcs":[310]},{"type":"MultiLineString","properties":{"kind":"major_road","name:en":"Khoramshahr Highway","network":"ir:national","sort_rank":381,"landuse_kind":"urban_area","source":"openstreetmap.org","min_zoom":8.0,"kind_detail":"trunk","shield_text":"49","ref":"49"},"arcs":[[311],[312],[313],[314]]},{"type":"LineString","properties":{"kind":"major_road","name:en":"Rasht - Fuman","network":"ir:national","sort_rank":381,"kind_detail":"trunk","source":"openstreetmap.org","min_zoom":8.0,"shield_text":"22","ref":"22","id":238484043},"arcs":[315]},{"type":"LineString","properties":{"kind":"major_road","name:en":"Lahijan to Langarud","network":"ir:national","sort_rank":381,"kind_detail":"trunk","source":"openstreetmap.org","min_zoom":8.0,"shield_text":"22","ref":"22","id":200835884},"arcs":[316]},{"type":"LineString","properties":{"kind":"major_road","name:en":"Pour Nasiri Blvd.","sort_rank":380,"landuse_kind":"urban_area","source":"openstreetmap.org","min_zoom":8.0,"kind_detail":"primary","id":165331526},"arcs":[317]},{"type":"MultiLineString","properties":{"kind":"major_road","name:en":"Motahari","sort_rank":380,"landuse_kind":"urban_area","source":"openstreetmap.org","min_zoom":8.0,"kind_detail":"primary","id":241521029},"arcs":[[318],[319]]},{"type":"LineString","properties":{"kind":"major_road","name:en":"Sardar Jangal","sort_rank":380,"landuse_kind":"urban_area","source":"openstreetmap.org","min_zoom":8.0,"kind_detail":"primary","id":210942764},"arcs":[320]},{"type":"MultiLineString","properties":{"source":"openstreetmap.org","kind":"major_road","name:en":"Gholipur Boulevard","kind_detail":"trunk","sort_rank":381,"landuse_kind":"urban_area","min_zoom":8.0},"arcs":[[321],[322]]},{"type":"LineString","properties":{"kind":"major_road","name:en":"Azadi Boulevard","sort_rank":380,"landuse_kind":"urban_area","source":"openstreetmap.org","min_zoom":8.0,"kind_detail":"primary","id":83905460},"arcs":[323]},{"type":"LineString","properties":{"kind":"major_road","name:en":"Kiashahr - Astaneo","sort_rank":380,"kind_detail":"primary","source":"openstreetmap.org","min_zoom":8.0,"landuse_kind":"urban_area","ref":"222","id":468672253},"arcs":[324]},{"type":"LineString","properties":{"kind":"major_road","name:en":"Langarud to Lahijan","network":"ir:national","sort_rank":381,"kind_detail":"trunk","source":"openstreetmap.org","min_zoom":8.0,"shield_text":"22","ref":"22","id":200835885},"arcs":[325]},{"type":"LineString","properties":{"kind":"major_road","name:en":"Sardare Jangal Square","sort_rank":380,"landuse_kind":"urban_area","source":"openstreetmap.org","min_zoom":8.0,"kind_detail":"primary","id":165331468},"arcs":[326]},{"type":"LineString","properties":{"kind":"major_road","name:en":"Hadi Square","sort_rank":380,"landuse_kind":"residential","source":"openstreetmap.org","min_zoom":8.0,"kind_detail":"primary","id":83905376},"arcs":[327]},{"type":"LineString","properties":{"kind":"major_road","name:en":"Valiasr Square","network":"ir:national","sort_rank":381,"kind_detail":"trunk","source":"openstreetmap.org","min_zoom":8.0,"landuse_kind":"urban_area","shield_text":"49","ref":"49","id":83905431},"arcs":[328]},{"type":"MultiLineString","properties":{"kind":"major_road","network":"ir:national","sort_rank":380,"kind_detail":"primary","source":"openstreetmap.org","min_zoom":8.0,"shield_text":"49","ref":"49"},"arcs":[[329],[330],[331],[332],[333],[334],[335],[336],[337],[338]]},{"type":"LineString","properties":{"kind":"major_road","name:en":"Jahad Square","sort_rank":381,"landuse_kind":"urban_area","source":"openstreetmap.org","min_zoom":8.0,"kind_detail":"trunk","id":83905425},"arcs":[339]},{"type":"LineString","properties":{"kind":"major_road","name:en":"Shahram Toloee","sort_rank":380,"kind_detail":"primary","source":"openstreetmap.org","min_zoom":8.0,"int_name":"Shahram Toloee","landuse_kind":"urban_area","id":219693436},"arcs":[340]},{"type":"MultiLineString","properties":{"kind":"highway","network":"AsianHighway","sort_rank":383,"landuse_kind":"urban_area","source":"openstreetmap.org","min_zoom":8.0,"all_networks":["AsianHighway","ir:freeways"],"kind_detail":"motorway","shield_text":"8","ref":"1","all_shield_texts":["8","1"]},"arcs":[[341],[342],[343],[344],[345]]},{"type":"MultiLineString","properties":{"source":"openstreetmap.org","kind":"major_road","name:en":"Adalat Boulevard","landuse_kind":"urban_area","sort_rank":380,"kind_detail":"primary","min_zoom":8.0},"arcs":[[346],[347]]},{"type":"LineString","properties":{"kind":"major_road","name:en":"Sefidroud Bridge","network":"ir:national","sort_rank":381,"kind_detail":"trunk","source":"openstreetmap.org","min_zoom":8.0,"landuse_kind":"urban_area","shield_text":"22","ref":"22","id":267307588},"arcs":[348]},{"type":"LineString","properties":{"kind":"major_road","name:en":"Shoar Square","sort_rank":381,"landuse_kind":"urban_area","source":"openstreetmap.org","min_zoom":8.0,"kind_detail":"trunk","id":44445764},"arcs":[349]},{"type":"LineString","properties":{"kind":"major_road","name:en":"Gomrok Square","sort_rank":380,"landuse_kind":"urban_area","source":"openstreetmap.org","min_zoom":8.0,"kind_detail":"primary","id":241691669},"arcs":[350]},{"type":"MultiLineString","properties":{"kind":"major_road","network":"ir:national","sort_rank":381,"kind_detail":"trunk","source":"openstreetmap.org","min_zoom":8.0,"shield_text":"49","ref":"49"},"arcs":[[351],[352],[353],[354],[355],[356],[357],[358],[359],[360],[361],[362],[363],[364],[365],[366],[367],[368],[369],[370],[371]]},{"type":"MultiLineString","properties":{"source":"openstreetmap.org","kind":"major_road","name:en":"Darya","sort_rank":380,"kind_detail":"primary","min_zoom":8.0},"arcs":[[372],[373]]},{"type":"MultiLineString","properties":{"sort_rank":380,"kind_detail":"primary","min_zoom":8.0,"kind":"major_road","source":"openstreetmap.org"},"arcs":[[374],[375],[376],[377],[378],[379],[380],[381],[382],[383],[384],[385],[386],[387],[388],[389],[390],[391],[392],[393],[394],[395],[396],[397],[398],[399],[400],[401],[402],[403],[404],[405],[406],[407],[408],[409],[410]]},{"type":"LineString","properties":{"kind":"major_road","name:en":"Azadegan Square","network":"ir:national","sort_rank":381,"kind_detail":"trunk","source":"openstreetmap.org","min_zoom":8.0,"shield_text":"22","ref":"22","id":233433995},"arcs":[411]},{"type":"MultiLineString","properties":{"source":"openstreetmap.org","kind":"major_road","name:en":"Entezam Square","landuse_kind":"urban_area","sort_rank":380,"kind_detail":"primary","min_zoom":8.0},"arcs":[[412],[413]]},{"type":"LineString","properties":{"kind":"major_road","name:en":"Sargol Square","sort_rank":380,"landuse_kind":"urban_area","source":"openstreetmap.org","min_zoom":8.0,"kind_detail":"primary","id":240136204},"arcs":[414]},{"type":"LineString","properties":{"kind":"major_road","name:en":"Fuman - Rasht","network":"ir:national","sort_rank":381,"kind_detail":"trunk","source":"openstreetmap.org","min_zoom":8.0,"shield_text":"22","ref":"22","id":238484044},"arcs":[415]},{"type":"LineString","properties":{"kind":"major_road","name:en":"Astaneh - Kiashahr","sort_rank":380,"kind_detail":"primary","source":"openstreetmap.org","min_zoom":8.0,"landuse_kind":"urban_area","ref":"222"},"arcs":[416]},{"type":"MultiLineString","properties":{"source":"openstreetmap.org","kind":"major_road","name:en":"Saravan - Fuman","sort_rank":381,"kind_detail":"trunk","min_zoom":8.0},"arcs":[[417],[418],[419],[420],[421],[422],[423],[424]]},{"type":"LineString","properties":{"kind":"major_road","name:en":"Jomhouri Square","sort_rank":380,"kind_detail":"primary","source":"openstreetmap.org","min_zoom":8.0,"landuse_kind":"urban_area","loc_name":"\u0641\u0627\u06a9\u0647 \u06a9\u06cc\u0627\u0634\u0647\u0631","id":454469419},"arcs":[425]},{"type":"MultiLineString","properties":{"kind":"major_road","network":"ir:national","sort_rank":381,"kind_detail":"trunk","source":"openstreetmap.org","min_zoom":8.0,"shield_text":"22","ref":"22"},"arcs":[[426],[427],[428],[429],[430],[431],[432],[433],[434],[435],[436],[437],[438],[439],[440],[441],[442]]},{"type":"MultiLineString","properties":{"source":"openstreetmap.org","kind":"major_road","name:en":"Ansari","landuse_kind":"urban_area","sort_rank":380,"kind_detail":"primary","min_zoom":8.0},"arcs":[[443],[444],[445]]},{"type":"LineString","properties":{"kind":"major_road","name:en":"Emam Khomeyni Squre","sort_rank":380,"landuse_kind":"urban_area","source":"openstreetmap.org","min_zoom":8.0,"kind_detail":"primary","id":463373256},"arcs":[446]},{"type":"LineString","properties":{"kind":"major_road","name:en":"Dr. Moein Square","sort_rank":380,"landuse_kind":"urban_area","source":"openstreetmap.org","min_zoom":8.0,"kind_detail":"primary","id":286459587},"arcs":[447]},{"type":"MultiLineString","properties":{"kind":"major_road","name:en":"Fuman - Rasht","network":"ir:national","sort_rank":381,"landuse_kind":"urban_area","source":"openstreetmap.org","min_zoom":8.0,"kind_detail":"trunk","shield_text":"22","ref":"22"},"arcs":[[448],[449],[450],[451]]},{"type":"LineString","properties":{"kind":"major_road","name:en":"Bagher Abad","sort_rank":380,"landuse_kind":"urban_area","source":"openstreetmap.org","min_zoom":8.0,"kind_detail":"primary","id":83905256},"arcs":[452]},{"type":"MultiLineString","properties":{"source":"openstreetmap.org","kind":"major_road","name:en":"Motahari Bolevard","landuse_kind":"urban_area","sort_rank":380,"kind_detail":"primary","min_zoom":8.0},"arcs":[[453],[454],[455]]},{"type":"LineString","properties":{"name:fa":"\u0641\u0648\u0645\u0646 - \u0631\u0634\u062a","kind":"major_road","name:en":"Eftekhari Boulevard","network":"ir:national","sort_rank":381,"kind_detail":"trunk","source":"openstreetmap.org","min_zoom":8.0,"landuse_kind":"urban_area","shield_text":"22","ref":"22","id":238484045},"arcs":[456]},{"type":"LineString","properties":{"kind":"major_road","name:en":"Takavaran Darya Square","network":"ir:national","sort_rank":381,"kind_detail":"trunk","source":"openstreetmap.org","min_zoom":8.0,"landuse_kind":"urban_area","shield_text":"49","ref":"49","id":80623491},"arcs":[457]},{"type":"MultiLineString","properties":{"source":"openstreetmap.org","kind":"major_road","name:en":"Saravan Road","kind_detail":"trunk","sort_rank":381,"landuse_kind":"urban_area","min_zoom":8.0},"arcs":[[458],[459]]},{"type":"MultiLineString","properties":{"source":"openstreetmap.org","kind":"major_road","kind_detail":"trunk","sort_rank":381,"landuse_kind":"urban_area","ref":"22","min_zoom":8.0},"arcs":[[460],[461],[462],[463]]},{"type":"MultiLineString","properties":{"source":"openstreetmap.org","kind":"major_road","kind_detail":"trunk","sort_rank":381,"landuse_kind":"urban_area","min_zoom":8.0},"arcs":[[464],[465],[466],[467],[468],[469],[470],[471],[472],[473],[474],[475],[476],[477],[478],[479]]},{"type":"MultiLineString","properties":{"kind":"major_road","name:en":"Rasht - Fuman","network":"ir:national","sort_rank":381,"landuse_kind":"urban_area","source":"openstreetmap.org","min_zoom":8.0,"kind_detail":"trunk","shield_text":"22","ref":"22"},"arcs":[[480],[481],[482],[483]]},{"type":"MultiLineString","properties":{"source":"openstreetmap.org","kind":"major_road","landuse_kind":"urban_area","sort_rank":380,"kind_detail":"primary","ref":"222","min_zoom":8.0},"arcs":[[484],[485],[486],[487],[488],[489],[490],[491]]},{"type":"MultiLineString","properties":{"source":"openstreetmap.org","kind":"major_road","sort_rank":380,"kind_detail":"primary","ref":"222","min_zoom":8.0},"arcs":[[492],[493],[494],[495],[496],[497],[498],[499]]},{"type":"LineString","properties":{"kind":"major_road","name:en":"Shahid Azim Fathi","sort_rank":380,"landuse_kind":"urban_area","source":"openstreetmap.org","min_zoom":8.0,"kind_detail":"primary","id":83905383},"arcs":[500]},{"type":"MultiLineString","properties":{"source":"openstreetmap.org","kind":"major_road","name:en":"Saravan Road","sort_rank":381,"kind_detail":"trunk","min_zoom":8.0},"arcs":[[501],[502],[503]]},{"type":"MultiLineString","properties":{"kind":"major_road","name:en":"Valiasr Boulevard","network":"ir:national","sort_rank":381,"landuse_kind":"urban_area","source":"openstreetmap.org","min_zoom":8.0,"kind_detail":"trunk","shield_text":"49","ref":"49"},"arcs":[[504],[505]]},{"type":"LineString","properties":{"kind":"major_road","name:en":"Basij Square","sort_rank":380,"landuse_kind":"residential","source":"openstreetmap.org","min_zoom":8.0,"kind_detail":"primary","id":83905448},"arcs":[506]},{"type":"LineString","properties":{"kind":"major_road","name:en":"Gholipur Square","sort_rank":381,"landuse_kind":"urban_area","source":"openstreetmap.org","min_zoom":8.0,"kind_detail":"trunk","id":44445168},"arcs":[507]},{"type":"LineString","properties":{"kind":"major_road","name:en":"Shora Square","sort_rank":380,"landuse_kind":"urban_area","source":"openstreetmap.org","min_zoom":8.0,"kind_detail":"primary","id":165331469},"arcs":[508]},{"type":"LineString","properties":{"kind":"major_road","name:en":"Seyyed Jalal-al-din Ashraf Squre","network":"ir:national","sort_rank":381,"kind_detail":"trunk","source":"openstreetmap.org","min_zoom":8.0,"landuse_kind":"urban_area","loc_name":"\u0641\u0644\u06a9\u0647 \u06a9\u06cc\u0633\u0645","ref":"22","id":83905401,"shield_text":"22"},"arcs":[509]},{"type":"LineString","properties":{"kind":"major_road","name:en":"khomeyni ST","sort_rank":380,"landuse_kind":"urban_area","source":"openstreetmap.org","min_zoom":8.0,"kind_detail":"primary","id":200856659},"arcs":[510]},{"type":"MultiLineString","properties":{"kind":"highway","name:en":"Qazvin-Rasht freeway","network":"AsianHighway","sort_rank":383,"landuse_kind":"urban_area","source":"openstreetmap.org","min_zoom":8.0,"all_networks":["AsianHighway","ir:freeways"],"kind_detail":"motorway","shield_text":"8","ref":"1","all_shield_texts":["8","1"]},"arcs":[[511],[512],[513],[514],[515],[516],[517]]},{"type":"LineString","properties":{"source":"openstreetmap.org","kind":"major_road","landuse_kind":"residential","sort_rank":381,"kind_detail":"trunk","min_zoom":8.0},"arcs":[518]},{"type":"MultiLineString","properties":{"source":"openstreetmap.org","kind":"major_road","name:en":"Taleghani Road","landuse_kind":"residential","sort_rank":380,"kind_detail":"primary","min_zoom":8.0},"arcs":[[519],[520]]},{"type":"LineString","properties":{"kind":"major_road","name:en":"Entezam Sq.","sort_rank":380,"landuse_kind":"urban_area","source":"openstreetmap.org","min_zoom":8.0,"kind_detail":"primary","id":235331648},"arcs":[521]},{"type":"MultiLineString","properties":{"source":"openstreetmap.org","kind":"major_road","name:en":"Imam Khomeini Boulevard","landuse_kind":"urban_area","sort_rank":380,"kind_detail":"primary","min_zoom":8.0},"arcs":[[522],[523],[524],[525]]},{"type":"LineString","properties":{"kind":"major_road","name:en":"Imam Khomeini Square","network":"ir:national","sort_rank":381,"kind_detail":"trunk","source":"openstreetmap.org","min_zoom":8.0,"landuse_kind":"urban_area","shield_text":"22","ref":"22","id":83905405},"arcs":[526]},{"type":"LineString","properties":{"kind":"major_road","name:en":"Shari'ati","sort_rank":380,"kind_detail":"primary","is_bicycle_related":true,"source":"openstreetmap.org","min_zoom":8.0,"landuse_kind":"urban_area","id":459456110},"arcs":[527]},{"type":"MultiLineString","properties":{"source":"openstreetmap.org","kind":"major_road","landuse_kind":"residential","sort_rank":380,"kind_detail":"primary","min_zoom":8.0},"arcs":[[528],[529],[530],[531],[532],[533],[534],[535],[536],[537],[538],[539],[540],[541],[542],[543],[544],[545],[546],[547]]},{"type":"MultiLineString","properties":{"kind":"major_road","name:en":"Lahijan to Langarud","network":"ir:national","sort_rank":381,"kind_detail":"trunk","source":"openstreetmap.org","min_zoom":8.0,"landuse_kind":"urban_area","shield_text":"22","ref":"22","id":200835884},"arcs":[[548],[549]]},{"type":"LineString","properties":{"kind":"major_road","name:en":"West Tohid boulevard","network":"ir:national","sort_rank":381,"kind_detail":"trunk","source":"openstreetmap.org","min_zoom":8.0,"landuse_kind":"residential","shield_text":"22","ref":"22","id":233784988},"arcs":[550]},{"type":"MultiLineString","properties":{"source":"openstreetmap.org","kind":"major_road","name:en":"Resalat Boulevard","landuse_kind":"urban_area","sort_rank":380,"kind_detail":"primary","min_zoom":8.0},"arcs":[[551],[552]]},{"type":"LineString","properties":{"source":"openstreetmap.org","kind":"major_road","name:en":"Shari`ati","landuse_kind":"urban_area","sort_rank":380,"kind_detail":"primary","min_zoom":8.0},"arcs":[553]},{"type":"LineString","properties":{"kind":"major_road","name:en":"Moallem Squre","sort_rank":380,"landuse_kind":"urban_area","source":"openstreetmap.org","min_zoom":8.0,"kind_detail":"primary","id":457765416},"arcs":[554]},{"type":"MultiLineString","properties":{"kind":"major_road","name:en":"Shahid Beheshti Highway","network":"ir:national","sort_rank":381,"landuse_kind":"urban_area","source":"openstreetmap.org","min_zoom":8.0,"kind_detail":"trunk","shield_text":"22","ref":"22"},"arcs":[[555],[556]]},{"type":"MultiLineString","properties":{"source":"openstreetmap.org","kind":"major_road","name:en":"Namjoo","landuse_kind":"urban_area","sort_rank":380,"kind_detail":"primary","min_zoom":8.0},"arcs":[[557],[558],[559],[560]]},{"type":"LineString","properties":{"kind":"major_road","name:en":"Bijan Haghiri","sort_rank":380,"kind_detail":"primary","source":"openstreetmap.org","min_zoom":8.0,"int_name":"\u200cBijan Haghiri","landuse_kind":"urban_area","id":219693214},"arcs":[561]},{"type":"LineString","properties":{"kind":"major_road","name:en":"Abrisham Square","network":"ir:national","sort_rank":381,"kind_detail":"trunk","source":"openstreetmap.org","min_zoom":8.0,"landuse_kind":"urban_area","shield_text":"22","ref":"22","id":83905452},"arcs":[562]},{"type":"LineString","properties":{"kind":"major_road","name:en":"Shohada square","sort_rank":380,"landuse_kind":"residential","source":"openstreetmap.org","min_zoom":8.0,"kind_detail":"primary","id":233784981},"arcs":[563]},{"type":"LineString","properties":{"kind":"major_road","name:en":"Shahid Amlaki Square","network":"ir:national","sort_rank":381,"kind_detail":"trunk","source":"openstreetmap.org","min_zoom":8.0,"landuse_kind":"urban_area","shield_text":"22","id":239019941},"arcs":[564]},{"type":"LineString","properties":{"kind":"major_road","name:en":"Sardar Jangal","sort_rank":380,"kind_detail":"primary","source":"openstreetmap.org","min_zoom":8.0,"int_name":"Sardar Jangal","landuse_kind":"urban_area","id":165331511},"arcs":[565]},{"type":"MultiLineString","properties":{"source":"openstreetmap.org","kind":"major_road","name:en":"Pasdaran","landuse_kind":"urban_area","sort_rank":380,"kind_detail":"primary","min_zoom":8.0},"arcs":[[566],[567],[568],[569],[570],[571]]},{"type":"MultiLineString","properties":{"kind":"major_road","name:en":"Modares Highway","network":"ir:national","sort_rank":381,"landuse_kind":"urban_area","source":"openstreetmap.org","min_zoom":8.0,"kind_detail":"trunk","shield_text":"22","ref":"22"},"arcs":[[572],[573]]},{"type":"MultiLineString","properties":{"kind":"major_road","name:en":"Rasht - Astaneh","network":"ir:national","sort_rank":381,"landuse_kind":"urban_area","source":"openstreetmap.org","min_zoom":8.0,"kind_detail":"trunk","shield_text":"22","ref":"22"},"arcs":[[574],[575],[576],[577],[578]]},{"type":"LineString","properties":{"kind":"major_road","name:en":"Abbasiye Kohan Sq.","sort_rank":380,"kind_detail":"primary","source":"openstreetmap.org","min_zoom":8.0,"int_name":"Abbasiye Kohan","landuse_kind":"urban_area","id":219692970},"arcs":[579]},{"type":"LineString","properties":{"kind":"major_road","name:en":"Mosalla Square","network":"ir:national","sort_rank":381,"kind_detail":"trunk","source":"openstreetmap.org","min_zoom":8.0,"landuse_kind":"urban_area","shield_text":"22","ref":"22","id":4750802},"arcs":[580]},{"type":"MultiLineString","properties":{"source":"openstreetmap.org","kind":"major_road","name:en":"Taleghani Road","landuse_kind":"urban_area","sort_rank":380,"kind_detail":"primary","min_zoom":8.0},"arcs":[[581],[582]]},{"type":"MultiLineString","properties":{"kind":"major_road","name:en":"Astaneh - Rasht","network":"ir:national","sort_rank":381,"kind_detail":"trunk","source":"openstreetmap.org","min_zoom":8.0,"shield_text":"22","ref":"22"},"arcs":[[583],[584]]},{"type":"LineString","properties":{"source":"openstreetmap.org","kind":"major_road","name:en":"Farhang Square","landuse_kind":"urban_area","sort_rank":380,"kind_detail":"primary","min_zoom":8.0},"arcs":[585]},{"type":"MultiLineString","properties":{"kind":"major_road","network":"ir:national","sort_rank":381,"landuse_kind":"urban_area","source":"openstreetmap.org","min_zoom":8.0,"kind_detail":"trunk","shield_text":"49","ref":"49"},"arcs":[[586],[587],[588],[589],[590],[591],[592],[593],[594],[595],[596],[597],[598],[599],[600],[601],[602],[603],[604],[605],[606],[607],[608],[609],[610],[611],[612],[613],[614],[615],[616],[617]]},{"type":"MultiLineString","properties":{"source":"openstreetmap.org","kind":"major_road","name:en":"Hafez Street","landuse_kind":"urban_area","sort_rank":380,"kind_detail":"primary","min_zoom":8.0},"arcs":[[618],[619],[620],[621]]},{"type":"MultiLineString","properties":{"kind":"highway","name:en":"Qazvin-Rasht Freeway","network":"AsianHighway","sort_rank":383,"landuse_kind":"urban_area","source":"openstreetmap.org","min_zoom":8.0,"all_networks":["AsianHighway"],"kind_detail":"motorway","shield_text":"8","ref":"1","all_shield_texts":["8"]},"arcs":[[622],[623]]},{"type":"LineString","properties":{"kind":"major_road","name:en":"Ferdowsi Squre","sort_rank":380,"landuse_kind":"urban_area","source":"openstreetmap.org","min_zoom":8.0,"kind_detail":"primary","id":284822373},"arcs":[624]},{"type":"LineString","properties":{"kind":"major_road","name:en":"Rasht to Anzali Road","network":"ir:national","sort_rank":381,"kind_detail":"trunk","source":"openstreetmap.org","min_zoom":8.0,"landuse_kind":"urban_area","shield_text":"49","ref":"49","id":119299383},"arcs":[625]},{"type":"MultiLineString","properties":{"source":"openstreetmap.org","kind":"major_road","name:en":"Adalat Boulevard","sort_rank":380,"kind_detail":"primary","min_zoom":8.0},"arcs":[[626],[627]]},{"type":"MultiLineString","properties":{"kind":"major_road","network":"ir:national","sort_rank":380,"kind_detail":"primary","source":"openstreetmap.org","min_zoom":8.0,"landuse_kind":"urban_area","shield_text":"49","ref":"49"},"arcs":[[628],[629]]},{"type":"LineString","properties":{"kind":"major_road","name:en":"Emam Reza Square","network":"ir:national","sort_rank":381,"kind_detail":"trunk","source":"openstreetmap.org","min_zoom":8.0,"landuse_kind":"urban_area","shield_text":"22","ref":"22","id":83905328},"arcs":[630]},{"type":"LineString","properties":{"kind":"major_road","name:en":"Shohada Square","sort_rank":380,"landuse_kind":"residential","source":"openstreetmap.org","min_zoom":8.0,"kind_detail":"primary","id":526058617},"arcs":[631]},{"type":"MultiLineString","properties":{"source":"openstreetmap.org","kind":"major_road","name:en":"22th Bahman Street","landuse_kind":"urban_area","sort_rank":380,"kind_detail":"primary","min_zoom":8.0},"arcs":[[632],[633]]},{"type":"MultiLineString","properties":{"kind":"major_road","network":"ir:national","sort_rank":381,"landuse_kind":"urban_area","source":"openstreetmap.org","min_zoom":8.0,"kind_detail":"trunk","shield_text":"22"},"arcs":[[634],[635]]},{"type":"MultiLineString","properties":{"source":"openstreetmap.org","kind":"major_road","name:en":"Gomnam Boulevard","kind_detail":"trunk","sort_rank":381,"landuse_kind":"urban_area","min_zoom":8.0},"arcs":[[636],[637]]},{"type":"LineString","properties":{"kind":"major_road","name:en":"Moallem Square","network":"ir:national","sort_rank":381,"kind_detail":"trunk","source":"openstreetmap.org","min_zoom":8.0,"landuse_kind":"urban_area","shield_text":"22","ref":"22","id":200852765},"arcs":[638]},{"type":"MultiLineString","properties":{"kind":"major_road","network":"ir:national","sort_rank":381,"landuse_kind":"urban_area","source":"openstreetmap.org","min_zoom":8.0,"kind_detail":"trunk","shield_text":"22","ref":"22"},"arcs":[[639],[640],[641],[642],[643],[644],[645],[646],[647],[648],[649],[650],[651],[652],[653],[654],[655],[656],[657],[658],[659],[660],[661],[662],[663],[664],[665],[666],[667],[668],[669],[670],[671],[672],[673],[674],[675],[676],[677],[678],[679],[680],[681],[682],[683],[684],[685],[686]]},{"type":"MultiLineString","properties":{"kind":"major_road","name:en":"Sangar - Kuchesfahan","sort_rank":380,"kind_detail":"primary","source":"openstreetmap.org","min_zoom":8.0,"landuse_kind":"urban_area","ref":"315"},"arcs":[[687],[688],[689]]},{"type":"LineString","properties":{"source":"openstreetmap.org","kind":"major_road","name:en":"Langroud-Shalman RingRoad","sort_rank":380,"kind_detail":"primary","min_zoom":8.0},"arcs":[690]},{"type":"LineString","properties":{"kind":"major_road","name:en":"Khazar square","sort_rank":380,"landuse_kind":"residential","source":"openstreetmap.org","min_zoom":8.0,"kind_detail":"primary","id":165331467},"arcs":[691]},{"type":"MultiLineString","properties":{"kind":"highway","network":"AsianHighway","sort_rank":383,"kind_detail":"motorway","source":"openstreetmap.org","min_zoom":8.0,"all_networks":["AsianHighway","ir:freeways"],"shield_text":"8","ref":"1","all_shield_texts":["8","1"]},"arcs":[[692],[693],[694],[695],[696],[697],[698],[699],[700],[701],[702],[703],[704],[705],[706],[707]]},{"type":"MultiLineString","properties":{"source":"openstreetmap.org","kind":"major_road","name:en":"Shahid Behshti highway","kind_detail":"trunk","sort_rank":381,"landuse_kind":"urban_area","min_zoom":8.0},"arcs":[[708],[709]]},{"type":"LineString","properties":{"kind":"major_road","name:en":"Basij Square","sort_rank":380,"landuse_kind":"urban_area","source":"openstreetmap.org","min_zoom":8.0,"kind_detail":"primary","id":83905448},"arcs":[710]},{"type":"LineString","properties":{"source":"openstreetmap.org","kind":"major_road","name:en":"Basij Square","sort_rank":380,"kind_detail":"primary","min_zoom":8.0,"id":202590169},"arcs":[711]},{"type":"MultiLineString","properties":{"source":"openstreetmap.org","kind":"major_road","name:en":"Motahari","landuse_kind":"residential","sort_rank":380,"kind_detail":"primary","min_zoom":8.0},"arcs":[[712],[713],[714],[715],[716]]},{"type":"MultiLineString","properties":{"kind":"major_road","name:en":"Sa'adi Boulevard","network":"ir:national","sort_rank":381,"landuse_kind":"urban_area","source":"openstreetmap.org","min_zoom":8.0,"kind_detail":"trunk","shield_text":"22","ref":"22"},"arcs":[[717],[718]]},{"type":"MultiLineString","properties":{"source":"openstreetmap.org","kind":"major_road","name:en":"Shohada","landuse_kind":"urban_area","sort_rank":380,"kind_detail":"primary","min_zoom":8.0},"arcs":[[719],[720]]},{"type":"MultiLineString","properties":{"source":"openstreetmap.org","kind":"major_road","name:en":"Saravan - Fuman","kind_detail":"trunk","sort_rank":381,"landuse_kind":"urban_area","min_zoom":8.0},"arcs":[[721],[722],[723],[724],[725],[726],[727],[728]]},{"type":"MultiLineString","properties":{"source":"openstreetmap.org","kind":"major_road","name:en":"Hafez","landuse_kind":"urban_area","sort_rank":380,"kind_detail":"primary","min_zoom":8.0},"arcs":[[729],[730],[731]]},{"type":"MultiLineString","properties":{"source":"openstreetmap.org","kind":"major_road","name:en":"Imam Reza Boulevard","kind_detail":"trunk","sort_rank":381,"landuse_kind":"urban_area","min_zoom":8.0},"arcs":[[732],[733]]},{"type":"MultiLineString","properties":{"source":"openstreetmap.org","kind":"major_road","name:en":"Imam Khomeini Boulevard","sort_rank":380,"kind_detail":"primary","min_zoom":8.0},"arcs":[[734],[735]]},{"type":"MultiLineString","properties":{"kind":"major_road","name:en":"Saravan - Sangar","sort_rank":380,"kind_detail":"primary","source":"openstreetmap.org","min_zoom":8.0,"landuse_kind":"urban_area","ref":"315"},"arcs":[[736],[737]]},{"type":"MultiLineString","properties":{"source":"openstreetmap.org","kind":"major_road","name:en":"Boreshnavard","landuse_kind":"urban_area","sort_rank":380,"kind_detail":"primary","min_zoom":8.0},"arcs":[[738],[739],[740],[741],[742]]},{"type":"LineString","properties":{"kind":"major_road","name:en":"Al-Ghadir Square","network":"ir:national","sort_rank":381,"kind_detail":"trunk","source":"openstreetmap.org","min_zoom":8.0,"landuse_kind":"urban_area","shield_text":"22","ref":"22","id":200835897},"arcs":[743]},{"type":"MultiLineString","properties":{"kind":"major_road","name:en":"Rasht - Astaneh","network":"ir:national","sort_rank":381,"kind_detail":"trunk","source":"openstreetmap.org","min_zoom":8.0,"shield_text":"22","ref":"22"},"arcs":[[744],[745]]},{"type":"LineString","properties":{"kind":"major_road","name:en":"Imam Hossein Square","network":"ir:national","sort_rank":381,"kind_detail":"trunk","source":"openstreetmap.org","min_zoom":8.0,"landuse_kind":"urban_area","shield_text":"22","ref":"22","id":83905399},"arcs":[746]},{"type":"LineString","properties":{"kind":"major_road","name:en":"Agha Seyyed Hasan Square","sort_rank":380,"landuse_kind":"urban_area","source":"openstreetmap.org","min_zoom":8.0,"kind_detail":"primary","id":464680945},"arcs":[747]},{"type":"MultiLineString","properties":{"source":"openstreetmap.org","kind":"major_road","name:en":"Habibzade","landuse_kind":"urban_area","sort_rank":380,"kind_detail":"primary","min_zoom":8.0},"arcs":[[748],[749]]},{"type":"MultiLineString","properties":{"source":"openstreetmap.org","kind":"major_road","name:en":"Sardar Jangal Avenue","landuse_kind":"urban_area","sort_rank":380,"kind_detail":"primary","min_zoom":8.0},"arcs":[[750],[751],[752],[753],[754]]},{"type":"MultiLineString","properties":{"kind":"major_road","name:en":"Astaneh - Rasht","network":"ir:national","sort_rank":381,"landuse_kind":"urban_area","source":"openstreetmap.org","min_zoom":8.0,"kind_detail":"trunk","shield_text":"22","ref":"22"},"arcs":[[755],[756],[757],[758],[759]]},{"type":"LineString","properties":{"kind":"major_road","name:en":"Noorani Square","network":"ir:national","sort_rank":381,"kind_detail":"trunk","source":"openstreetmap.org","min_zoom":8.0,"landuse_kind":"urban_area","shield_text":"22","ref":"22","id":200835893},"arcs":[760]}]},"earth":{"type":"GeometryCollection","geometries":[{"type":"Polygon","properties":{"sort_rank":10,"source":"naturalearthdata.com","min_zoom":0.0,"kind":"earth","area":59955819703},"arcs":[[761]]}]},"landuse":{"type":"GeometryCollection","geometries":[{"type":"Polygon","properties":{"source":"openstreetmap.org","kind":"nature_reserve","area":11267700,"tier":2,"id":4749960,"min_zoom":8.0,"sort_rank":23},"arcs":[[762]]},{"type":"MultiPolygon","properties":{"source":"naturalearthdata.com","kind":"urban_area","name":"","area":4802176965,"sort_rank":11,"min_zoom":4.0},"arcs":[[[763]],[[764]],[[765]],[[766]],[[767]],[[768]],[[769]],[[770]],[[771],[772]],[[773]]]},{"type":"MultiPolygon","properties":{"source":"openstreetmap.org","kind":"residential","tier":2,"area":37489048,"sort_rank":20,"min_zoom":8.0},"arcs":[[[774]],[[775]]]},{"type":"Polygon","properties":{"kind":"protected_area","natural":"heath","area":15154000,"sort_rank":17,"source":"openstreetmap.org","min_zoom":8.0,"tier":2,"id":500911760},"arcs":[[776]]},{"type":"Polygon","properties":{"kind":"residential","name":"\u06af\u06cc\u062f\u0627\u0631","area":11362200,"sort_rank":20,"source":"openstreetmap.org","min_zoom":8.0,"tier":2,"id":174489986},"arcs":[[777]]}]}},"type":"Topology","transform":{"translate":[49.21875,36.5978891331],"scale":[0.0003433228,0.0002736087]},"arcs":[[[4096,1699],[-542,398],[-427,966],[-174,108],[-580,129],[-223,188],[-290,-5],[-205,-87],[-1044,171],[-611,334]],[[4002,1345],[-233,-332],[-105,9],[-128,-76],[-1,-463],[-68,-144],[-143,-179]],[[3324,160],[325,-160]],[[4011,1340],[-9,5]],[[4096,1296],[-85,44]],[[180,796],[-143,153],[-37,118]],[[0,660],[180,136]],[[2096,0],[2,17],[88,-17]],[[2238,0],[117,49],[90,-26],[202,163],[215,107],[118,-7],[208,-129],[86,-18],[50,21]],[[180,796],[73,-65],[102,-203],[184,-232],[145,-113],[63,-128],[72,-44],[323,24],[94,-35]],[[4002,1345],[-12,5]],[[3990,1350],[-61,63],[-273,152],[-31,59],[-446,363],[-246,611],[-5,137],[-73,121],[-131,52],[-365,66],[-188,95],[8,-27],[-28,5],[-27,98],[-88,67],[-81,-59],[20,4],[13,-36],[-173,-23],[-836,76],[-266,59],[10,-61],[-17,61],[-307,84],[-322,156],[-77,59]],[[4096,1335],[-3,0],[-322,220],[-57,16],[-44,27],[-144,175],[-210,159],[-102,98],[-87,144],[-69,198],[-42,66],[-26,52],[-38,132],[-26,51],[12,132],[-93,88],[-136,53],[-379,87],[-243,94],[23,30],[17,-3],[32,-9],[28,5],[-104,54],[-94,-18],[-100,-40],[-120,-19],[-1119,151],[-219,74],[-431,224],[0,520],[4096,0],[0,-2761]],[[0,3576],[431,-224],[219,-74],[1119,-151],[120,19],[100,40],[94,18],[104,-54],[-28,-5],[-32,9],[-17,3],[-23,-30],[243,-94],[379,-87],[136,-53],[93,-88],[-12,-132],[26,-51],[38,-132],[26,-52],[42,-66],[69,-198],[87,-144],[102,-98],[210,-159],[144,-175],[44,-27],[57,-16],[322,-220],[3,0]],[[1447,2486],[-256,25]],[[1191,2511],[256,-26]],[[2070,2484]],[[991,2467],[31,-30]],[[1023,2437],[-31,30]],[[1026,2437],[35,-12]],[[1061,2426],[-35,11]],[[1184,1549],[-44,-14]],[[2043,2439],[21,-15]],[[279,2567],[-1,-1]],[[279,2566],[0,1]],[[279,2567],[1,16]],[[1411,2237],[1,7]],[[1421,2258],[116,57],[47,79]],[[1584,2395],[18,54]],[[1056,2484],[-3,1],[-1,-6],[3,-1],[1,6]],[[2092,2479],[7,10]],[[581,486],[-1,-9]],[[1027,2459],[23,-1]],[[1050,2459],[-22,0]],[[2138,3018],[-7,-2],[0,-1]],[[2131,3015],[-4,-14]],[[2131,3015]],[[2131,3015],[6,2]],[[310,2573],[-2,0],[0,-2],[2,0],[0,2]],[[1178,2519]],[[1179,2519],[-1,0]],[[648,325],[-66,53]],[[582,378],[-2,2],[1,51]],[[581,430],[1,-52]],[[582,378],[0,-2],[65,-52]],[[926,120],[20,-43]],[[946,77],[-4,37],[-15,6]],[[1063,2499],[6,35]],[[2142,2669],[-40,98],[24,216]],[[1063,2514],[-26,-9]],[[1037,2504],[26,9]],[[352,2331],[5,-2]],[[357,2330],[-5,1]],[[277,2567],[0,-1],[1,0],[1,0],[-2,1]],[[2679,2157],[1,0],[-1,0]],[[2703,2162],[37,-7]],[[2740,2156],[-37,6]],[[88,3032],[130,-74],[-16,-50],[41,-5]],[[316,2914],[42,-19]],[[439,2827],[128,-57]],[[571,2769],[79,6],[29,-33],[173,-30]],[[1066,2853],[32,12]],[[1090,2497],[12,3]],[[1018,2479],[-25,-4]],[[993,2475],[4,0],[21,4]],[[1018,2479],[21,4]],[[1053,2484],[-14,-1]],[[1039,2483],[14,0]],[[509,567],[72,-80]],[[573,512],[-19,21],[-44,36]],[[990,2476],[0,-2],[1,0],[0,2],[-1,0]],[[2125,2983],[-23,-215],[40,-99]],[[261,2535],[17,31]],[[2279,2269],[-3,2],[-2,-1],[2,-2],[3,1]],[[704,3197],[0,2],[0,-2]],[[1172,2476],[-1,-1],[0,-2],[2,1],[-1,2]],[[2120,2401],[2,-17]],[[1089,2496],[-2,-35]],[[1087,2461],[2,35]],[[2091,2451],[0,27]],[[2110,2440],[4,-16]],[[2115,2422],[2,-12]],[[2118,2411],[-3,12]],[[2118,2410],[2,-8]],[[2120,2402],[-2,8]],[[1640,2489],[-19,-21]],[[1628,2469],[13,19]],[[1140,2439],[-1,0],[1,-2],[1,1],[-1,1]],[[2329,2246],[51,-23]],[[2381,2223],[-42,19]],[[2122,2381],[28,-93],[42,-29]],[[2192,2261],[-42,27],[-25,95]],[[1168,2360],[-1,0],[0,-1],[1,0],[0,1]],[[1051,2459],[-1,-1],[1,0],[0,1]],[[1171,2473],[-31,-34]],[[1141,2438],[31,35]],[[1179,2512],[-8,-36]],[[1173,2475],[6,33]],[[278,2368],[2,-9]],[[281,2359],[-3,10]],[[1520,2479],[-73,7]],[[1447,2485],[73,-7]],[[2302,2222],[0,-1],[0,1]],[[918,0],[15,62],[-18,16]],[[332,2338],[-40,-17]],[[1162,1543],[22,6]],[[278,2576],[-2,-9]],[[844,3162],[-3,0],[-1,-3],[3,1],[1,2]],[[1024,2436],[-3,-14]],[[1021,2422],[4,14]],[[2638,2144],[120,-61]],[[2807,2065],[80,15]],[[2256,2270],[14,-1]],[[2275,2270],[-19,0]],[[2270,2269],[4,0]],[[960,2725],[56,-82]],[[1016,2643],[-56,82]],[[1055,2573],[-39,70]],[[1065,2558],[-9,14]],[[1065,2558],[0,-2]],[[1066,2557],[-1,1]],[[1055,2573],[0,-1],[1,0],[-1,1]],[[638,2240]],[[638,2240]],[[874,84],[41,-6]],[[884,3161],[4,0]],[[950,3164],[-66,-2]],[[905,3162],[45,1]],[[3601,1637]],[[3602,1636]],[[3685,1530]],[[3687,1529],[-1,0]],[[3753,1490],[0,1]],[[3754,1490]],[[613,2250],[25,-10]],[[638,2240],[8,-3]],[[2339,2242],[-61,28]],[[2278,2269],[51,-23]],[[2380,2223],[10,-4]],[[2391,2218],[-10,5]],[[1022,2437],[4,0]],[[1026,2437],[-3,0]],[[2092,2478],[12,-15]],[[2105,2463],[-13,16]],[[2104,2462],[5,-20]],[[2110,2442],[-5,20]],[[554,483],[33,5],[-34,-4]],[[2703,2162],[0,1],[-2,-1],[1,-1],[1,1]],[[981,2474],[-234,-23]],[[799,3156],[0,-2],[1,0],[0,1],[-1,1]],[[243,2903],[73,11]],[[358,2895],[6,-48],[75,-20]],[[567,2770],[4,-1]],[[852,2712],[105,14],[14,46],[67,7],[28,74]],[[1098,2865],[156,-14]],[[2091,2479],[-1,-1]],[[2457,2199],[-66,19]],[[2636,2147],[-109,32]],[[581,487],[0,-1]],[[1199,1559],[-15,-10]],[[1078,2473],[-2,2]],[[1096,2449],[-17,23]],[[2731,2142],[-1,-1],[1,-1],[1,1],[-1,1]],[[269,2586],[7,-19]],[[330,2555],[-70,-19]],[[262,2532],[69,22]],[[270,2587],[0,-1]],[[270,2587]],[[290,2318],[-17,-29]],[[290,2318],[2,1]],[[291,2320],[-1,-2]],[[293,2571],[-2,0]],[[310,2571],[20,-15]],[[331,2556],[-20,17]],[[331,2554],[78,-43]],[[409,2511],[-77,45]],[[409,2511],[46,-35]],[[458,2475],[-3,1],[3,-2]],[[461,2475],[-3,0]],[[461,2475],[12,-1]],[[475,2475],[-14,0]],[[613,254],[54,-43]],[[685,181],[21,-39],[51,9],[27,-26],[37,-24]],[[703,2445],[-2,-18]],[[703,3182],[1,9]],[[703,3191],[-1,-9],[7,-6]],[[709,3176],[7,-8],[6,1],[12,5]],[[705,2409],[-1,-1]],[[705,2409],[-2,6]],[[733,3175],[-11,-6],[-13,7]],[[709,3176],[-2,0]],[[794,143],[-16,-11]],[[801,3153]],[[840,3159],[-35,-4]],[[819,1096],[5,-2]],[[832,3156],[8,2]],[[1006,2536],[2,-58]],[[1009,2478],[-2,58]],[[1027,2459],[1,0]],[[1034,2549],[2,-22]],[[1037,2527],[-2,22]],[[1036,2504],[0,-11]],[[1036,2525],[0,-21]],[[1036,2492],[2,-9]],[[1036,2493],[0,11]],[[1036,2493],[0,-1],[0,1]],[[1036,2505],[1,21]],[[1039,2483],[-3,9]],[[1118,2459],[-21,-10]],[[1106,2500],[18,-5]],[[1136,2588],[-22,-29]],[[1114,2559],[23,29]],[[1124,2495],[-1,1]],[[1124,2495],[6,-5]],[[1133,2480],[-3,9],[3,-9]],[[1171,2475],[-37,4]],[[1134,2478],[36,-4]],[[1177,2510],[-8,-1]],[[1169,2509],[8,1]],[[1279,2888],[-21,-32]],[[1259,2858],[20,30]],[[1294,2921],[-15,-33]],[[1291,2948],[3,-26]],[[1294,2921],[12,-37]],[[1295,2922],[1,22]],[[1295,2921],[-1,1],[0,-1],[1,0]],[[1307,2885],[-12,36]],[[1296,1914],[20,-8],[-20,8]],[[1366,1991],[0,1]],[[1382,2119],[-8,-60]],[[1384,2123],[8,25]],[[1400,2184],[-8,-36]],[[1393,2148],[7,36]],[[1400,2184],[-1,7]],[[1614,2487],[-20,-2]],[[1594,2483],[20,4]],[[1640,2490],[-26,-3]],[[1614,2487],[26,2]],[[1617,2468],[11,1]],[[1765,2042],[184,60]],[[1931,2079],[18,23]],[[1949,2102]],[[1949,2102]],[[1949,2102],[185,165]],[[2018,2462],[2,6]],[[2070,2484],[7,-2]],[[2077,2482],[-7,2]],[[2077,2482],[5,-1]],[[2115,2423],[-1,0]],[[2114,2423],[1,-1]],[[2126,2997],[-2,-11]],[[2125,2989],[1,8]],[[2126,2997],[1,3]],[[2127,3000]],[[2134,2267],[18,20]],[[2152,2287],[-18,-20]],[[2194,2259],[53,-17]],[[2247,2243],[-51,17]],[[2248,2242],[12,-5]],[[2260,2238],[-4,2],[-8,3]],[[2260,2237],[1,0]],[[2261,2237],[-1,1]],[[2306,2227],[-3,0]],[[2304,2227],[7,0]],[[2315,2227],[18,-3]],[[2334,2225],[-14,2]],[[2334,2225],[-1,-1],[1,0],[0,1]],[[2390,2219],[-56,6]],[[2334,2224],[57,-7]],[[2680,2125],[-29,-24]],[[2652,2100],[28,25]],[[2787,2128],[14,-56]],[[2801,2072],[1,4],[-14,51]],[[3066,1992],[17,-9]],[[3083,1983],[-17,16]],[[3083,1983],[12,-6]],[[3110,1963],[-3,3],[3,-3]],[[3110,1963],[17,-6]],[[3127,1957],[-16,6]],[[3127,1957],[22,-9]],[[3149,1948],[31,-20]],[[3180,1928],[-31,20]],[[272,2288],[1,-1],[1,1],[-1,1],[-1,-1]],[[293,2320],[-1,0],[-1,-1],[1,0],[1,1]],[[458,2475],[0,-1],[0,1]],[[596,3207],[-1,1],[-1,-1],[1,0],[1,0]],[[1036,2505],[0,-1],[0,-1],[1,1],[-1,1]],[[1064,2424],[0,-1],[1,-1],[0,2],[-1,0]],[[1073,2434],[-1,0],[1,0]],[[1078,2473],[0,-1],[1,1],[-1,0]],[[1083,2536],[-1,0],[0,-1],[1,0],[0,1]],[[1090,2496],[-1,1],[-1,-1],[1,0],[1,0]],[[1105,2501],[1,-1],[0,1],[-1,0]],[[1119,2459],[0,-1],[0,1]],[[1126,2454],[1,0],[-1,0]],[[1134,2478]],[[1134,2478],[-1,2]],[[1133,2480],[1,-2]],[[1614,2487]],[[1949,2102]],[[2118,2410],[-1,0],[1,0]],[[2128,3000],[-1,0]],[[2127,3000],[1,0]],[[2260,2238],[0,-1],[0,1]],[[2651,2101],[-1,-2],[1,0],[1,1],[-1,1]],[[3096,1977]],[[3110,1963],[1,0],[-1,0]],[[2099,2489],[-8,-10]],[[520,631],[1,1]],[[616,826],[0,9]],[[293,2320],[41,16]],[[1137,2588],[17,-32]],[[1154,2556],[25,-44]],[[1179,2508],[-25,48]],[[1154,2556],[-16,32]],[[724,2452],[-168,16]],[[2453,2199],[76,-22]],[[276,2567],[-2,-7]],[[603,3211],[-8,-3]],[[618,3216],[-14,-5]],[[1028,2481],[-1,-21]],[[1065,2556],[-59,-18]],[[1007,2537],[58,18]],[[2124,2384],[-4,17]],[[2142,2669],[19,-46]],[[2527,2179],[-70,20]],[[271,2587],[-1,0],[0,-1],[1,1]],[[792,3164],[-1,0],[1,-1],[0,1]],[[1137,2590],[-1,-1],[1,-1],[1,0],[-1,2]],[[910,1247],[32,27],[43,141],[92,104],[55,14]],[[1132,1533],[2,1]],[[1141,1537],[-5,-2]],[[1136,1535],[-2,-1]],[[1134,1534],[-2,-1]],[[1136,1535],[5,2]],[[1141,1537],[4,3]],[[1136,1534],[0,1]],[[1136,1535],[-1,0],[-1,-1]],[[1134,1534],[1,-1],[1,1]],[[1006,2537],[-1,-1],[1,0],[1,1],[-1,0]],[[280,2583],[-9,4]],[[582,486],[0,1]],[[692,866],[-71,-18]],[[623,852],[69,14]],[[923,1234],[-12,-5],[-23,-43],[-6,-83]],[[882,1103],[7,83],[35,48]],[[2021,2469],[49,15]],[[2070,2484],[-49,-15]],[[2064,2424],[-21,15]],[[1080,2557],[0,-1],[0,-1],[1,1],[-1,1]],[[736,3174],[0,1],[-3,0],[1,-1],[2,0]],[[22,3505],[431,-231]],[[589,316],[-23,129]],[[589,316],[35,-20]],[[693,874],[56,95],[37,18]],[[809,1035],[4,8]],[[813,1043],[2,16]],[[813,1051],[0,-8]],[[853,94],[-22,13]],[[856,92],[-3,2]],[[856,92],[10,-7]],[[915,78],[-49,7]],[[950,3163],[202,-26],[76,-101]],[[1228,3036],[-76,102],[-202,26]],[[1184,1549],[15,13]],[[1199,1562],[13,10],[-13,55]],[[1199,1627]],[[1199,1627],[97,280]],[[1296,1908],[-97,-279],[0,-2]],[[1199,1627]],[[1199,1627],[0,-65]],[[1199,1562],[0,-3]],[[2137,3017],[43,18]],[[2180,3035],[-42,-17]],[[96,418],[137,-82],[53,15],[89,-29],[43,41],[36,-47],[63,-26],[3,-31],[93,-5]],[[704,2408],[-65,-101],[-4,-52]],[[667,211],[18,-30]],[[701,2427],[-1,-4]],[[700,2423],[3,-8]],[[703,2454],[3,0]],[[705,2453],[-2,-8]],[[821,101],[19,-12]],[[824,1094],[61,-15]],[[885,1079],[2,-1]],[[888,1079],[-3,0]],[[1296,1914],[-18,11],[18,-11]],[[1469,1928],[67,-5],[62,105],[167,14]],[[1578,2480],[16,3]],[[1594,2485],[-12,-1]],[[1584,2394],[0,1]],[[2020,2468],[0,1]],[[2124,2986],[0,-1]],[[2125,2985],[0,4]],[[2788,2012]],[[2794,2041]],[[2800,2053]],[[2801,2072],[-1,-19]],[[2800,2053],[1,19]],[[3366,1780],[-5,4]],[[3366,1780],[11,4]],[[3366,1773],[0,7]],[[3377,1784],[47,-27]],[[3424,1757],[-47,27]],[[3424,1757],[3,-2]],[[3427,1755],[-3,2]],[[3427,1755],[22,-18]],[[3449,1737],[49,-35]],[[3503,1701],[-54,36]],[[888,1079],[0,-1],[1,0],[-1,1]],[[2180,3035]],[[3424,1757]],[[3910,1416],[0,-1],[2,0],[-1,1],[-1,0]],[[1024,2437],[1,-1],[1,1],[-1,1],[-1,-1]],[[2247,2243],[0,-1],[0,-1],[1,1],[-1,1]],[[1037,2526],[-1,1],[-1,-1],[1,-1],[1,1]],[[556,2467],[168,-15]],[[2099,2489],[49,60],[13,74],[-19,46]],[[568,2264],[45,-14]],[[646,2237],[87,-38]],[[736,2198],[11,-4]],[[889,2145],[-17,7]],[[889,2145],[16,-6]],[[908,2138],[9,-1]],[[1095,2060],[47,-46]],[[1159,2001],[119,-76]],[[2092,2478],[-1,1],[-1,0],[1,-1],[1,0]],[[91,2869],[-14,267],[-77,28]],[[91,2869],[15,-26]],[[142,2788],[-36,55]],[[1520,2478],[72,15]],[[1592,2494],[-72,-15]],[[2017,2465],[-4,-5]],[[3332,1840],[7,-4],[27,-64],[6,-6],[67,-43],[62,-23]],[[3501,1701],[-128,65],[-34,70],[-7,4]],[[3501,1700],[4,-3],[1,1],[-5,3]],[[3501,1701],[0,-1]],[[3910,1416],[-217,108],[-187,175]],[[3506,1698],[187,-174],[157,-87],[59,-22]],[[3911,1415],[32,-24]],[[3943,1391],[-32,24]],[[3943,1391],[7,-7]],[[3950,1384],[103,-73]],[[4053,1311],[-103,73]],[[1082,2535]],[[1114,2559],[-31,-23]],[[1083,2535],[31,24]],[[2114,2423],[1,0],[-1,0]],[[2109,2441],[1,-1],[0,2],[-1,-1]],[[339,2337],[86,87]],[[428,2427],[46,46]],[[475,2474],[81,-7]],[[724,2452],[21,-2]],[[1070,2531],[0,4]],[[2091,2451],[-16,-34]],[[2078,2416],[14,35]],[[2090,2478],[1,-27]],[[748,2451],[233,22]],[[515,550],[0,1],[-1,0],[1,-2],[0,1]],[[367,2326],[2,-1]],[[559,2267],[1,-1]],[[325,2343],[24,-11]],[[335,2337],[1,0]],[[337,2337],[-1,1]],[[1248,2511],[-1,-1]],[[278,2369],[-1,4]],[[513,2281],[-66,20]],[[843,3159],[41,2]],[[884,3162],[-40,-1]],[[993,2475],[-12,-1]],[[981,2473],[12,2]],[[1056,2554],[8,1],[19,1],[11,1]],[[1093,2558],[-1,-1]],[[1092,2557],[-9,-1],[-15,0],[-12,-1]],[[1080,2556],[-14,0]],[[1067,2555],[13,0]],[[1081,2555],[33,4],[-22,-2]],[[1092,2557],[-11,-1]],[[2120,2382],[5,-5]],[[2731,2140],[1,0]],[[2758,2146],[-26,-7]],[[425,2425],[-91,-86]],[[473,2474],[-45,-46]],[[556,2468],[-81,7]],[[745,2451],[-21,1]],[[1263,3131],[126,-28]],[[1389,3103],[-126,28]],[[1389,3103],[56,-31],[103,13]],[[1866,3061],[77,-11]],[[1943,3050],[18,-12]],[[2123,2983],[-110,14],[-52,41]],[[2123,2984],[0,-1]],[[2123,2983]],[[1263,3131],[-56,6],[-14,-1],[-36,-3]],[[1158,3132],[105,-1]],[[1548,3085],[189,-6]],[[1751,3070],[-14,9]],[[1751,3070],[115,-9]],[[2123,2983],[1,0]],[[2124,2984],[-1,0]],[[2124,2984],[1,-1],[1,1],[-1,1],[-1,-1]],[[1063,2527],[7,4]],[[733,2199],[3,-1]],[[905,2139],[3,-1]],[[1142,2014],[17,-13]],[[1186,2645],[-49,-56]],[[1138,2589],[48,56]],[[2303,2227]],[[1066,2557],[-1,-1],[0,-1],[2,0],[-1,2]],[[1392,2148],[1,0],[-1,0]],[[2075,2413],[3,0],[0,3],[-3,0],[0,-3]],[[3096,1977],[11,-11]],[[582,487],[-9,25]],[[580,477],[1,-32]],[[581,445],[0,-15]],[[581,431],[0,14]],[[581,445],[1,41]],[[647,324],[208,-176],[71,-28]],[[927,120],[-72,28],[-149,130],[-58,47]],[[888,3161],[17,1]],[[791,3164],[-32,7]],[[761,3169],[30,-6]],[[331,2556],[-1,-1],[1,-1],[1,1],[-1,1]],[[1097,2448],[22,-27]],[[1119,2421],[-22,28]],[[1120,2420],[47,-60]],[[1167,2360],[-47,60]],[[1609,2508],[1,-1],[2,1],[-2,1],[-1,-1]],[[1083,2495],[5,1]],[[704,3197],[-1,-6]],[[704,3191],[0,6]],[[792,3163],[6,-8]],[[799,3156],[-7,8]],[[800,3154],[1,-1]],[[805,3155],[-4,0]],[[801,3153],[31,3]],[[2261,2237],[17,-12]],[[2278,2225],[-17,12]],[[2278,2225],[24,-4]],[[2285,2225],[-7,0]],[[2302,2222],[-16,2]],[[2303,2227],[-1,-5]],[[2302,2222],[1,5]],[[2314,2227],[-8,0]],[[2311,2227],[3,0]],[[2314,2227],[1,0]],[[2320,2227],[-6,0]],[[630,3220],[-1,0],[1,-1],[0,1]],[[2286,2224],[0,1]],[[2391,2217],[62,-18]],[[2529,2177],[107,-31]],[[2270,2269]],[[1134,2478],[-7,-24]],[[1127,2454],[7,24]],[[1102,2500],[3,0]],[[2091,2451],[1,0],[-1,0]],[[1061,2425],[10,-7],[48,2]],[[1119,2420],[-58,6]],[[1078,2441],[-13,-17]],[[1066,2423],[7,11]],[[1073,2434],[5,7]],[[1082,2448],[-4,-7]],[[292,2572],[-11,11]],[[2192,2259],[3,0],[2,3],[-5,-1],[0,-2]],[[2278,2225],[0,1],[0,-1]],[[2636,2146],[1,1],[-1,0],[0,-1]],[[277,2567],[-7,19]],[[1119,2458],[7,-4]],[[1126,2454],[-7,5]],[[1126,2454],[1,0]],[[1128,2452],[11,-11]],[[1139,2441],[0,-3]],[[1140,2439],[-1,2]],[[1139,2438],[-19,-17]],[[1120,2421],[20,16]],[[1641,2488],[24,-20]],[[1725,2419],[43,-25],[119,33]],[[2014,2459],[29,-20]],[[2064,2424],[10,-10]],[[2077,2412],[45,-31]],[[280,2583]],[[1119,2420],[1,0],[0,1],[-1,0],[0,-1]],[[759,3171],[-23,4]],[[736,3174],[25,-5]],[[1725,2419],[-59,50]],[[2008,2465],[-126,-37]],[[1097,2449],[0,1],[-1,-1],[1,-1],[0,1]],[[0,3519],[22,-14]],[[453,3274],[44,-21]],[[506,568],[15,50]],[[506,568],[8,-18]],[[515,551],[-9,17]],[[515,549],[48,-87]],[[563,462],[-10,23],[-37,65]],[[521,618],[45,144],[45,43],[3,40]],[[614,845],[-4,-40],[-44,-43],[-45,-144]],[[566,445],[-3,17]],[[614,845],[79,29]],[[635,290],[-11,6]],[[821,113],[-186,177]],[[786,987],[23,48]],[[815,1059],[17,122],[-19,-130]],[[821,113],[10,-6]],[[1140,2438],[42,-64]],[[1183,2375],[-42,63]],[[1167,2359],[118,-196],[11,-255]],[[1182,2374],[-15,-14]],[[1296,1907],[14,40],[-24,216],[-118,197],[15,13]],[[1306,2882],[-42,-16],[-59,-92],[-19,-129]],[[1186,2645],[1,1]],[[1228,3036],[72,-96],[8,-55]],[[1309,2883],[0,1]],[[1309,2884]],[[1309,2884],[-8,56],[-73,96]],[[1183,2375],[-1,-1]],[[1182,2374],[1,-1],[1,1],[-1,1]],[[1306,2884],[0,-3],[2,0],[1,3]],[[1309,2884]],[[1309,2884],[-3,0]],[[2679,2157],[-42,-9]],[[2637,2147],[42,10]],[[2702,2162],[-22,-5]],[[2680,2157],[22,5]],[[521,632],[-12,-65]],[[510,569],[17,76]],[[2120,2401],[0,1],[0,-1]],[[1187,2646],[20,132],[57,86],[42,17]],[[2021,2469],[-9,-2]],[[2020,2469],[1,0]],[[676,3138],[-179,115]],[[832,1181],[78,66]],[[1640,2490],[0,-2],[2,0],[0,2],[-2,0]],[[641,3217]],[[1054,2478],[-4,-19]],[[1051,2459],[4,19]],[[2694,2147],[-13,-20]],[[474,2473],[1,1],[0,1],[-1,-1],[0,-1]],[[1005,2536],[-15,-57],[0,-4]],[[991,2475],[15,61]],[[3181,1927],[-1,1],[-1,-1],[1,-1],[1,1]],[[217,2676],[-75,112]],[[217,2676],[18,-27]],[[247,2604],[-12,45]],[[262,2479],[-15,125]],[[262,2479],[12,-94]],[[274,2385],[4,-17]],[[277,2373],[-3,12]],[[301,2357],[-19,12]],[[301,2357],[34,-20]],[[336,2338],[-8,4]],[[328,2342],[-27,15]],[[349,2333],[-21,9]],[[328,2342],[-3,1]],[[336,2337],[16,-6]],[[349,2333],[-12,4]],[[352,2331],[-3,2]],[[425,2424],[3,3]],[[428,2428],[-3,-3]],[[747,2451],[-2,0]],[[745,2450],[3,1]],[[1609,2508],[-17,-14]],[[1592,2493],[17,14]],[[1641,2490],[-30,18]],[[1612,2508],[28,-18]],[[2013,2460],[4,5]],[[2256,2270],[-60,-7]],[[2197,2262],[59,8]],[[2636,2146],[44,-21]],[[2681,2126],[-44,21]],[[2682,2126],[13,21],[35,-7]],[[2730,2141],[-35,6]],[[2740,2155],[-8,-13]],[[2732,2141],[9,13]],[[2914,2055],[-126,73]],[[2789,2127],[125,-73]],[[2915,2054],[125,-41],[42,-46],[7,-7],[12,-7]],[[3101,1954],[-60,60],[-126,41]],[[3102,1952],[78,-26]],[[3180,1928],[-77,25]],[[3332,1840],[-151,88]],[[3181,1926],[151,-86]],[[4053,1311],[43,-30]],[[4096,1282],[-43,29]],[[2391,2219],[-1,-1],[1,-1],[0,1],[0,1]],[[2681,2127],[-1,-1],[0,-1],[2,1],[-1,1]],[[2695,2148],[0,-1],[0,1]],[[2915,2054],[-1,1],[0,-1],[1,0]],[[3103,1953],[-1,1],[-1,0],[1,-1],[1,0]],[[1399,2191],[12,46]],[[1412,2244],[9,14]],[[1602,2449],[12,38]],[[2758,2083],[49,-18]],[[2314,2228],[0,-1],[0,1]],[[882,1103],[-2,-22],[-3,-10],[-22,-62]],[[855,1009],[-1,-2],[-36,-21]],[[818,986],[-47,-27],[-60,-88],[-10,-3]],[[701,868],[-9,-2]],[[692,866],[9,2]],[[701,868],[11,3],[64,89],[42,26]],[[818,986],[37,23]],[[855,1009],[4,3],[22,69],[1,22]],[[1140,1535],[-10,-9]],[[1130,1526],[-89,-82],[-6,-8],[-70,-137]],[[965,1299],[-3,-6],[-7,-46],[-32,-13]],[[924,1234],[31,12],[8,38],[1,10],[1,5]],[[965,1299],[8,51],[104,148],[53,28]],[[1130,1526],[32,17]],[[946,77],[-13,-77]],[[933,0],[13,77]],[[990,2475],[1,-8]],[[992,2467],[-1,8]],[[2303,2227]],[[2789,2007],[-1,1],[0,-1],[0,-1],[1,1]],[[604,3211],[-1,0]],[[629,3220],[-11,-4]],[[641,3217],[-11,3]],[[630,3220],[11,-3]],[[641,3217],[16,-5]],[[2787,2129],[-46,27]],[[2742,2155],[45,-27]],[[1169,2509],[-63,-8]],[[1106,2501],[63,8]],[[357,2329],[0,1]],[[369,2325],[190,-58]],[[560,2266],[8,-2]],[[747,2194],[110,-35]],[[857,2159],[15,-7]],[[917,2137],[102,-11]],[[1019,2126],[18,-9]],[[1037,2117],[58,-57]],[[1082,2448],[-31,11]],[[1051,2458],[31,-10]],[[1087,2461]],[[1191,2511],[-9,-1]],[[1182,2510],[9,1]],[[2800,2053],[-12,-46]],[[2788,2008],[12,45]],[[1366,1991],[-50,-85]],[[1366,1992],[18,131]],[[278,2566],[2,0]],[[280,2566],[-1,0]],[[306,2571],[-26,-5]],[[308,2572],[-2,-1]],[[306,2571],[2,0]],[[2789,2128],[-1,1],[-1,0],[0,-2],[2,1]],[[1665,2468],[60,-49]],[[1887,2427],[123,34]],[[2122,2381],[3,1],[-1,3],[-3,-1],[1,-3]],[[2104,2462],[1,0],[-1,1],[0,-1]],[[1008,2478],[19,-19]],[[1028,2459],[-19,19]],[[1028,2451],[-3,-13]],[[1025,2438],[3,13]],[[1027,2459],[1,-2]],[[1028,2451],[0,6]],[[1028,2457],[0,2]],[[1666,2469],[-24,20]],[[1882,2428],[-114,-34],[-43,25]],[[2043,2439],[-25,23]],[[2075,2417],[-11,7]],[[2122,2384],[-43,31]],[[2740,2156],[0,-1],[1,0],[1,1],[-2,0]],[[2171,3095],[159,-62],[379,-87],[136,-53],[93,-88],[-12,-132],[26,-51],[38,-132],[26,-52],[42,-66],[69,-198],[87,-144],[102,-98],[210,-159],[144,-175],[44,-27],[57,-16],[322,-220],[3,0],[0,-1335],[-1925,0],[-2171,0],[0,3576],[431,-224],[219,-74],[1119,-151],[120,19],[100,40],[94,18],[88,-46],[16,-8],[-16,-3],[-12,-2],[-32,9],[-17,3],[-23,-30],[84,-32]],[[1129,1671],[60,115],[48,-26],[-46,-115],[-62,26]],[[4096,1184],[-47,20],[5,158],[42,-27],[0,-151]],[[762,1242],[103,-20],[27,44],[35,-36],[-35,-127],[-65,0],[-33,-122],[-57,39],[-34,75],[-5,90],[32,81],[32,-24]],[[859,331],[162,0],[0,-203],[-179,-15],[-112,-66],[-55,164],[-75,-2],[27,96],[105,96],[116,15],[11,-85]],[[519,995],[178,-14],[-3,-22],[36,-19],[-32,-40],[-21,-117],[49,-54],[4,-73],[-130,-244],[-129,122],[0,41],[-123,14],[-39,27],[-65,81],[-100,67],[-30,58],[33,78],[43,6],[22,-128],[162,0],[64,81],[33,122],[48,14]],[[827,2971],[-17,-111],[-69,-46],[-173,-46],[-31,101],[31,102],[191,-28],[68,28]],[[2170,3095],[-110,-264],[32,-132],[114,-68],[28,-76],[93,28],[53,-18],[1,-81],[96,-82],[32,-162],[106,97],[61,8],[189,-64],[-24,-142],[39,-34],[239,92],[95,-167],[134,-122],[-19,-82],[20,-78],[-25,-56],[-135,20],[-20,211],[-110,32],[-32,41],[-97,0],[-89,-178],[-73,-25],[-2,84],[58,89],[9,71],[-39,42],[-198,22],[-87,98],[-64,0],[0,-40],[-65,40],[-65,-40],[-53,3],[-11,-44],[-162,0],[-60,-62],[-102,-19],[-14,-36],[-72,-8],[-11,44],[-65,0],[0,40],[-50,74],[82,89],[-82,48],[-3,111],[21,32],[111,10],[115,-38],[82,89],[20,77],[-51,289],[-18,31],[-65,0],[-11,72],[-42,23],[-12,109],[162,0],[70,32],[76,-30]],[[0,3476],[0,107],[45,-31],[-6,-25],[-39,-51]],[[0,2816],[0,162],[79,-114],[36,-96],[111,83],[51,161],[46,-115],[116,-7],[0,-122],[64,-41],[0,-162],[55,-78],[-18,-149],[28,-17],[0,-81],[62,-75],[3,-47],[-65,-81],[-34,15],[-96,147],[-129,-40],[-32,121],[-162,41],[0,41],[-115,0],[0,212],[18,31],[8,79],[-26,132]],[[1817,2906],[-52,-57],[14,-27],[82,26],[66,-40],[-10,-40],[-87,-41],[-33,-81],[-64,0],[-4,-132],[-29,-31],[-97,-40],[-28,126],[-69,77],[-64,-83],[16,-250],[-48,-73],[28,-65],[49,-12],[116,36],[-8,-80],[-45,-36],[-162,-21],[-43,-228],[-47,9],[-4,120],[-79,74],[-237,45],[-86,77],[-130,-41],[-65,325],[99,35],[-22,151],[109,116],[41,145],[122,-45],[62,24],[42,102],[97,81],[29,142],[209,-28],[64,-83],[237,-43],[44,-28],[7,-71],[-20,-35]],[[1391,2868],[-79,-100],[138,-11],[88,-70],[12,110],[-44,52],[0,40],[-115,-21]],[[879,3140],[-47,-21],[-232,14],[0,41],[-136,59],[-31,118],[217,-73],[255,-34],[-26,-104]],[[2244,2174],[26,96],[118,-47],[-86,5],[36,-31],[-18,-38],[-22,10],[7,-17],[-61,22]],[[491,3258],[14,18],[190,-51],[16,-35],[-57,5],[-36,-29],[-75,63],[30,-17],[26,-7],[5,7],[7,-10],[9,17],[-31,-9],[4,21],[-13,-16],[-89,43]],[[1970,3138],[2,29],[35,19],[92,-1],[-24,-89],[-53,-68],[0,99],[-52,11]],[[729,3199],[24,18],[165,-33],[-5,-20],[-71,13],[-41,-24],[103,9],[10,-12],[-114,-18],[-71,67]]]}