{"objects":{"water":{"type":"GeometryCollection","geometries":[{"type":"MultiPolygon","properties":{"source":"naturalearthdata.com","kind":"lake","name":"Hottah Lake","area":5225101312,"sort_rank":200,"min_zoom":0.0,"id":87},"arcs":[[[0]]]},{"type":"MultiLineString","properties":{"source":"naturalearthdata.com","kind":"lake","sort_rank":367,"boundary":true,"min_zoom":0.0,"id":87},"arcs":[[1],[2]]}]},"buildings":{"type":"GeometryCollection","geometries":[]},"places":{"type":"GeometryCollection","geometries":[{"type":"Point","properties":{"name:he":"\u05d4\u05d8\u05e8\u05d9\u05d8\u05d5\u05e8\u05d9\u05d5\u05ea \u05d4\u05e6\u05e4\u05d5\u05df-\u05de\u05e2\u05e8\u05d1\u05d9\u05d5\u05ea","name:sk":"Severoz\u00e1padn\u00e9 terit\u00f3ri\u00e1","name:lt":"\u0160iaur\u0117s Vakarai","name:ar":"\u0627\u0644\u0645\u0646\u0627\u0637\u0642 \u0627\u0644\u0634\u0645\u0627\u0644\u064a\u0629","kind":"region","min_zoom":4.0,"name:iu":"\u14c4\u14c7\u1466\u14ef\u140a\u1585 \/ nunatsiaq","name:it":"Territori del Nord-Ovest","name:uk":"\u041f\u0456\u0432\u043d\u0456\u0447\u043d\u043e-\u0437\u0430\u0445\u0456\u0434\u043d\u0456 \u0442\u0435\u0440\u0438\u0442\u043e\u0440\u0456\u0457","name:vi":"C\u00e1c L\u00e3nh th\u1ed5 T\u00e2y B\u1eafc","name:ru":"\u0421\u0435\u0432\u0435\u0440\u043e-\u0417\u0430\u043f\u0430\u0434\u043d\u044b\u0435 \u0442\u0435\u0440\u0440\u0438\u0442\u043e\u0440\u0438\u0438","name:pl":"Terytoria P\u00f3\u0142nocno-Zachodnie","name:hu":"\u00c9szaknyugati Ter\u00fcletek","id":305700696,"population":43529,"name:el":"\u0392\u03bf\u03c1\u03b5\u03b9\u03bf\u03b4\u03c5\u03c4\u03b9\u03ba\u03ac \u0395\u03b4\u03ac\u03c6\u03b7","name:eo":"Nordokcidentaj Teritorioj","name":"Northwest Territories","kind_detail":"state","name:de":"Nordwest-Territorien","source":"openstreetmap.org","name:fr":"Territoires du Nord-Ouest","name:et":"Loodealad","name:be":"\u041f\u0430\u045e\u043d\u043e\u0447\u043d\u0430-\u0417\u0430\u0445\u043e\u0434\u043d\u0456\u044f \u0442\u044d\u0440\u044b\u0442\u043e\u0440\u044b\u0456","name:zh":"\u897f\u5317\u5730\u533a","name:es":"Territorios del Noroeste"},"coordinates":[364,1561]}]},"transit":{"type":"GeometryCollection","geometries":[]},"pois":{"type":"GeometryCollection","geometries":[]},"boundaries":{"type":"GeometryCollection","geometries":[]},"roads":{"type":"GeometryCollection","geometries":[]},"earth":{"type":"GeometryCollection","geometries":[{"type":"Polygon","properties":{"sort_rank":10,"source":"naturalearthdata.com","kind":"earth","min_zoom":0.0,"id":4526},"arcs":[[3]]}]},"landuse":{"type":"GeometryCollection","geometries":[]}},"type":"Topology","transform":{"translate":[-118.125,64.7741253129],"scale":[0.0003433228,0.000144705]},"arcs":[[[0,0],[0,133],[95,11],[-1,-33],[-5,-20],[-14,-43],[6,-48],[-81,0]],[[0,477],[15,1],[-15,-26]],[[0,133],[95,11],[-1,-33],[-5,-20],[-14,-43],[6,-48]],[[0,0],[0,4096],[4096,0],[0,-4096],[-4096,0]]]}