{"objects":{"water":{"type":"GeometryCollection","geometries":[{"type":"Polygon","properties":{"kind":"lake","name":"Ubolratna Reservoir","reservoir":true,"area":228292992,"sort_rank":200,"source":"naturalearthdata.com","min_zoom":0.0,"id":1045},"arcs":[[531]]},{"type":"MultiPolygon","properties":{"source":"naturalearthdata.com","kind":"ocean","area":1576712559132672,"sort_rank":200,"min_zoom":0.0,"id":1},"arcs":[[[532],[533],[534],[535],[536]],[[537]],[[538]]]},{"type":"Polygon","properties":{"kind":"lake","name":"Nam Ngum Reservoir","reservoir":true,"area":578402496,"sort_rank":200,"source":"naturalearthdata.com","min_zoom":0.0,"id":1187},"arcs":[[539]]},{"type":"Point","properties":{"label_placement":true,"kind":"lake","name":"Nam Ngum Reservoir","reservoir":true,"area":578402496,"sort_rank":200,"source":"naturalearthdata.com","min_zoom":0.0,"id":1187},"coordinates":[1014,1518]},{"type":"Point","properties":{"label_placement":true,"kind":"lake","name":"Ubolratna Reservoir","reservoir":true,"area":228292992,"sort_rank":200,"source":"naturalearthdata.com","min_zoom":0.0,"id":1045},"coordinates":[978,55]},{"type":"MultiLineString","properties":{"source":"naturalearthdata.com","kind":"ocean","sort_rank":205,"boundary":true,"min_zoom":0.0,"id":79},"arcs":[[540],[541],[542]]},{"type":"MultiLineString","properties":{"source":"naturalearthdata.com","kind":"lake","reservoir":true,"sort_rank":367,"boundary":true,"min_zoom":0.0,"id":1045},"arcs":[[543],[544]]},{"type":"LineString","properties":{"source":"naturalearthdata.com","kind":"lake","reservoir":true,"sort_rank":367,"boundary":true,"min_zoom":0.0,"id":1187},"arcs":[545]},{"type":"MultiLineString","properties":{"source":"naturalearthdata.com","kind":"ocean","sort_rank":205,"boundary":true,"min_zoom":0.0,"id":1766},"arcs":[[546],[547]]}]},"buildings":{"type":"GeometryCollection","geometries":[]},"places":{"type":"GeometryCollection","geometries":[{"type":"Point","properties":{"name:ka":"\u10da\u10d0\u10dd\u10e1\u10d8","name:ko":"\ub77c\uc624\uc2a4","name:cv":"\u041b\u0430\u043e\u0441","name:km":"\u17a1\u17b6\u179c","name:kl":"Laos","name:cs":"Laos","name:ki":"Laosi","name:kw":"Pow Lao","name:kv":"\u041b\u0430\u043e\u0441","name:ku":"Laos","name:ti":"\u120b\u12a6\u1235","name:ks":"\u0644\u0627\u0633","name:to":"Lau","name:tl":"Laos","name:ta":"\u0bb2\u0bbe\u0bb5\u0bcb\u0bb8\u0bcd","name:tg":"\u041b\u0430\u043e\u0441","name:ca":"Laos","name:te":"\u0c32\u0c3e\u0c35\u0c4b\u0c38\u0c4d","name:cy":"Laos","name:hr":"Laos","name:da":"Laos","name:de":"Laos","name:dz":"\u0f63\u0f71\u0f0b\u0f5d\u0f7c\u0f66","source":"openstreetmap.org","name:kn":"\u0cb2\u0cbe\u0cb5\u0ccb\u0cb8\u0ccd","name:dv":"\u078d\u07a7\u0787\u07af\u0790\u07b0","name:lv":"Laosa","name:lt":"Laosas","name:uz":"Laos","name:kk":"\u041b\u0430\u043e\u0441","name:ur":"\u0644\u0627\u0624\u0633","name:lb":"Laos","name:la":"Laotia","name:lg":"Lawosi","name:uk":"\u041b\u0430\u043e\u0441","name:ug":"\u0644\u0627\u0626\u0648\u0633","name:li":"Laos","name:ln":"Lawosi","name:el":"\u039b\u03ac\u03bf\u03c2","name:eo":"Laoso","name:en":"Laos","name":"\u0e9b\u0eb0\u0ec0\u0e97\u0e94\u0ea5\u0eb2\u0ea7","name:tk":"Laos","name:ee":"Laos nutome","name:th":"\u0e1b\u0e23\u0e30\u0e40\u0e17\u0e28\u0e25\u0e32\u0e27","name:eu":"Laos","name:et":"Laos","name:es":"Laos","name:ia":"Laos","name:rm":"Laos","name:rn":"Layosi","name:az":"Laos","name:ie":"Laos","name:id":"Laos","name:ar":"\u0644\u0627\u0648\u0633","name:io":"Laos","name:ak":"Laos","name:am":"\u120b\u12a6\u1235","name:it":"Laos","name:an":"Laos","name:ru":"\u041b\u0430\u043e\u0441","name:rw":"Lawosi","name:af":"Laos","name:zu":"i-Laos","name:za":"Lao","name:zh":"\u8001\u631d","name:so":"Laos","name:sn":"Laos","name:sl":"Laos","name:sk":"Laos","name:ja":"\u30e9\u30aa\u30b9","name:si":"\u0dbd\u0dcf\u0d95\u0dc3\u0dba","name:sg":"L\u00f9a\u00f4si","name:se":"Laos","name:sa":"\u0932\u093e\u0913\u0938","name:bs":"Laos","name:bm":"Layosi","name:bn":"\u09b2\u09be\u0993\u09b8","name:bo":"\u0f63\u0f71\u0f0b\u0f60\u0f7c\u0f66\u0f0d","name:br":"Laos","name:sw":"Laosi","name:be":"\u041b\u0430\u043e\u0441","name:su":"Laos","name:bg":"\u041d\u0430\u0440\u043e\u0434\u043d\u0430 \u0434\u0435\u043c\u043e\u043a\u0440\u0430\u0442\u0438\u0447\u043d\u0430 \u0440\u0435\u043f\u0443\u0431\u043b\u0438\u043a\u0430 \u041b\u0430\u043e\u0441","name:ss":"ILawoso","name:sr":"\u041b\u0430\u043e\u0441","name:sq":"Laosi","name:jv":"Laos","name:pt":"Laos","name:ps":"\u0644\u0627\u0648\u0633","name:oc":"Laos","min_zoom":2.0,"name:ro":"Laos","name:pa":"\u0a32\u0a3e\u0a13\u0a38","name:os":"\u041b\u0430\u043e\u0441","name:or":"\u0b32\u0b3e\u0b13\u0b38\u0b4d","name:pl":"Laos","name:tr":"Laos","name:hi":"\u0932\u093e\u0913\u0938","name:sv":"Laos","name:he":"\u05dc\u05d0\u05d5\u05e1","name:ha":"Lawas","name:hy":"\u053c\u0561\u0578\u057d","name:ht":"Laos","name:hu":"Laosz","name:qu":"Law suyu","population":6200894,"kind":"country","name:is":"Lagos","name:yo":"Or\u00edl\u1eb9\u0301\u00e8de Laosi","name:mt":"Laos","name:ms":"Laos","name:mr":"\u0932\u093e\u0913\u0938","name:my":"\u101c\u102c\u1021\u102d\u102f","int_name":"Laos","name:mg":"La\u00f4s","name:ml":"\u0d32\u0d3e\u0d35\u0d4b\u0d38\u0d4d","name:vi":"L\u00e0o","name:mn":"\u041b\u0430\u043e\u0441","id":424316307,"name:mk":"\u041b\u0430\u043e\u0441","name:vo":"Laos\u00e4n","name:fa":"\u0644\u0627\u0626\u0648\u0633","name:ff":"Lawoos","name:fi":"Laos","name:fo":"Laos","name:fr":"Laos","name:fy":"Laos","name:nl":"Laos","name:nn":"Laos","name:no":"Laos","name:na":"Raot","name:ne":"\u0932\u093e\u0913\u0938","name:wo":"R\u00e9ewum Lawos","name:nv":"L\u00e1\u00e1\u02bcos","name:ga":"Laos","name:gd":"L\u00e0thos","name:gl":"Laos","name:gv":"Yn Laos","name:gu":"\u0ab2\u0abe\u0a93\u0ab8","name:tt":"\u041b\u0430\u043e\u0441"},"coordinates":[1550,2610]},{"type":"Point","properties":{"source":"naturalearthdata.com","kind":"locality","name":"Hanoi","country_capital":true,"population":4378000,"min_zoom":4.0,"id":7121},"coordinates":[3348,3395]},{"type":"Point","properties":{"admin_level":"4","kind":"region","name:en":"Oudomxay","name":"\u0ead\u0eb8\u0e94\u0ebb\u0ea1\u0ec4\u0e8a","kind_detail":"state","name:lo":"Oud\u00f4mxai","source":"openstreetmap.org","min_zoom":4.0,"name:ru":"\u0423\u0434\u043e\u043c\u0441\u0430\u0439","id":4353286454,"name:ja":"\u30a6\u30c9\u30e0\u30b5\u30a4"},"coordinates":[367,2780]},{"type":"Point","properties":{"admin_level":"4","kind":"region","name:en":"Luang Namtha","name":"\u0eab\u0ea5\u0ea7\u0e87\u0e99\u0ecd\u0ec9\u0eb2\u0e97\u0eb2","kind_detail":"state","name:lo":"Louang Namtha","source":"openstreetmap.org","min_zoom":4.0,"name:ru":"\u041b\u0443\u0430\u043d\u0433\u043d\u0430\u043c\u0442\u0445\u0430","id":4343667374,"name:ja":"\u30eb\u30a2\u30f3\u30ca\u30e0\u30bf\u30fc"},"coordinates":[97,3331]},{"type":"Point","properties":{"kind":"region","name:en":"Hoa Binh province","name":"H\u00f2a B\u00ecnh","kind_detail":"state","name:ar":"\u0645\u0642\u0627\u0637\u0639\u0629 \u0647\u0648\u0627 \u0628\u0646\u0647","min_zoom":4.0,"source":"openstreetmap.org","name:fr":"Province de H\u00f2a B\u00ecnh","name:vi":"T\u1ec9nh H\u00f2a B\u00ecnh","id":1539395898,"name:ja":"\u30db\u30a2\u30d3\u30f3"},"coordinates":[3016,3106]},{"type":"Point","properties":{"kind":"region","name:en":"Vinh Phuc province","name":"V\u0129nh Ph\u00fac","kind_detail":"state","min_zoom":4.0,"source":"openstreetmap.org","name:fr":"Province de V\u0129nh Ph\u00fac","name:vi":"T\u1ec9nh V\u0129nh Ph\u00fac","id":1539284237,"name:ja":"\u30f4\u30a3\u30f3\u30d5\u30c3\u30af"},"coordinates":[3126,3654]},{"type":"Point","properties":{"kind":"region","name:en":"Phu Tho province","name":"Ph\u00fa Th\u1ecd","kind_detail":"state","min_zoom":4.0,"source":"openstreetmap.org","name:fr":"Province de Ph\u00fa Th\u1ecd","name:vi":"T\u1ec9nh Ph\u00fa Th\u1ecd","id":1539309412,"name:ja":"\u30d5\u30fc\u30c8"},"coordinates":[2823,3616]},{"type":"Point","properties":{"admin_level":"4","kind":"region","name:en":"Nong Bua Lam Phu Province","name":"\u0e08\u0e31\u0e07\u0e2b\u0e27\u0e31\u0e14\u0e2b\u0e19\u0e2d\u0e07\u0e1a\u0e31\u0e27\u0e25\u0e33\u0e20\u0e39","kind_detail":"state","source":"openstreetmap.org","min_zoom":4.0,"alt_name:en":"Nong Bua Lamphu Province","name:uk":"\u041d\u043e\u043d\u0433\u0431\u0443\u0430\u043b\u0430\u043c\u043f\u0445\u0443","name:ru":"\u041d\u043e\u043d\u0433\u0431\u0443\u0430\u043b\u0430\u043c\u043f\u0445\u0443","name:pl":"Nongbua Lamphu","id":4351716294,"name:ja":"\u30ce\u30fc\u30f3\u30d6\u30ef\u30e9\u30e0\u30d7\u30fc\u770c"},"coordinates":[697,553]},{"type":"Point","properties":{"admin_level":"4","kind":"region","name:en":"Nong Khai Province","name":"\u0e08\u0e31\u0e07\u0e2b\u0e27\u0e31\u0e14\u0e2b\u0e19\u0e2d\u0e07\u0e04\u0e32\u0e22","kind_detail":"state","source":"openstreetmap.org","min_zoom":4.0,"name:uk":"\u041d\u043e\u043d\u0433\u043a\u0430\u0439","name:ru":"\u041d\u043e\u043d\u0433\u043a\u0445\u0430\u0439","name:pl":"Nong Khai","id":4351725569,"name:ja":"\u30ce\u30fc\u30f3\u30ab\u30fc\u30a4\u770c"},"coordinates":[885,999]},{"type":"Point","properties":{"admin_level":"4","kind":"region","name:en":"Udon Thani Province","name":"\u0e08\u0e31\u0e07\u0e2b\u0e27\u0e31\u0e14\u0e2d\u0e38\u0e14\u0e23\u0e18\u0e32\u0e19\u0e35","kind_detail":"state","source":"openstreetmap.org","min_zoom":4.0,"name:uk":"\u0423\u0431\u043e\u043d\u0442\u0445\u0430\u043d\u0456","name:ru":"\u0423\u0434\u043e\u043d\u0442\u0445\u0430\u043d\u0438","name:pl":"Udon Thani","id":4352821740,"name:ja":"\u30a6\u30c9\u30fc\u30f3\u30bf\u30fc\u30cb\u30fc\u770c"},"coordinates":[1033,683]},{"type":"Point","properties":{"admin_level":"4","kind":"region","name:en":"Sakon Nakhon Province","name":"\u0e08\u0e31\u0e07\u0e2b\u0e27\u0e31\u0e14\u0e2a\u0e01\u0e25\u0e19\u0e04\u0e23","kind_detail":"state","source":"openstreetmap.org","min_zoom":4.0,"name:uk":"\u0421\u0430\u043a\u043e\u043d\u043d\u0430\u043a\u0445\u043e\u043d","name:ru":"\u0421\u0430\u043a\u043e\u043d\u043d\u0430\u043a\u0445\u043e\u043d","name:pl":"Sakon Nakhon","id":4351829820,"name:ja":"\u30b5\u30b3\u30f3\u30ca\u30b3\u30fc\u30f3\u770c"},"coordinates":[1983,428]},{"type":"Point","properties":{"admin_level":"4","kind":"region","name:en":"Bueng Kan Province","name":"\u0e08\u0e31\u0e07\u0e2b\u0e27\u0e31\u0e14\u0e1a\u0e36\u0e07\u0e01\u0e32\u0e2c","kind_detail":"state","source":"openstreetmap.org","min_zoom":4.0,"name:ru":"\u0411\u0443\u043d\u0433\u043a\u0430\u043d","id":4354618358,"name:ja":"\u30d6\u30f3\u30ab\u30fc\u30f3\u770c"},"coordinates":[1876,1232]},{"type":"Point","properties":{"admin_level":"4","kind":"region","name:en":"sainyabuli","name":"\u0ec4\u0e8a\u0e8d\u0eb0\u0e9a\u0eb9\u0ea5\u0eb5","alt_name:vi":"Xaynhabuly;Xaynhabuli;Xayabury;Xayaburi","kind_detail":"state","name:lo":"Xaignabouli","source":"openstreetmap.org","min_zoom":4.0,"name:vi":"Xay Nha Bu Ly","name:ru":"\u0421\u0430\u0439\u043d\u044f\u0431\u0443\u043b\u0438","id":4343700052,"name:ja":"\u30b5\u30a4\u30cb\u30e3\u30d6\u30fc\u30ea\u30fc"},"coordinates":[344,2017]},{"type":"Point","properties":{"admin_level":"4","kind":"region","name:en":"Bolikhamsai","name":"\u0e9a\u0ecd\u0ea5\u0eb4\u0e84\u0eb3\u0ec4\u0e8a","kind_detail":"state","name:lo":"\u0e9a\u0ecd\u0ea5\u0eb4\u0e84\u0ecd\u0eb2\u0ec4\u0e8a","source":"openstreetmap.org","min_zoom":4.0,"name:ru":"\u0411\u043e\u043b\u0438\u043a\u0445\u0430\u043c\u0441\u0430\u0439","id":4343617754,"name:ja":"\u30dc\u30fc\u30ea\u30ab\u30e0\u30b5\u30a4"},"coordinates":[1765,1351]},{"type":"Point","properties":{"admin_level":"4","kind":"region","name:en":"Xiangkhouang","name":"\u0e8a\u0ebd\u0e87\u0e82\u0ea7\u0eb2\u0e87","kind_detail":"state","name:lo":"Xiangkhoang","source":"openstreetmap.org","min_zoom":4.0,"name:vi":"Xi\u00eang Kho\u1ea3ng","name:ru":"\u0421\u0438\u0430\u043d\u0433\u043a\u0445\u0443\u0430\u043d\u0433","id":4343708789,"name:ja":"\u30b7\u30a8\u30f3\u30af\u30ef\u30fc\u30f3"},"coordinates":[1615,2143]},{"type":"Point","properties":{"admin_level":"4","kind":"region","name:en":"Luang Prabang","name":"\u0eab\u0ea5\u0ea7\u0e87\u0e9e\u0eb0\u0e9a\u0eb2\u0e87","kind_detail":"state","name:lo":"louangphabang","source":"openstreetmap.org","min_zoom":4.0,"name:vi":"Luangprabang","name:ru":"\u041b\u0443\u0430\u043d\u0433\u043f\u0445\u0430\u0431\u0430\u043d\u0433","id":4343675755,"name:ja":"\u30eb\u30a2\u30f3\u30d1\u30d0\u30fc\u30f3"},"coordinates":[992,2760]},{"type":"Point","properties":{"admin_level":"4","kind":"region","name:en":"Xaisomboun","name":"\u0ec4\u0e8a\u0eaa\u0ebb\u0ea1\u0e9a\u0eb9\u0e99","kind_detail":"state","name:de":"Saysomboun","source":"openstreetmap.org","min_zoom":4.0,"name:vi":"Xaisomboun","name:ru":"\u0421\u0430\u0439\u0441\u043e\u043c\u0431\u0443\u043d","name:pl":"Xais\u00f4mboun","id":4343708013,"name:ja":"\u30b5\u30a4\u30bd\u30e0\u30d6"},"coordinates":[1299,1719]},{"type":"Point","properties":{"kind":"region","name:en":"Bolikhamsai","name":"\u0e9a\u0ecd\u0ea5\u0eb4\u0e84\u0eb3\u0ec4\u0e8a","kind_detail":"state","name:lo":"\u0e9a\u0ecd\u0ea5\u0eb4\u0e84\u0ecd\u0eb2\u0ec4\u0e8a","source":"openstreetmap.org","min_zoom":4.0,"name:ru":"\u0411\u043e\u043b\u0438\u043a\u0445\u0430\u043c\u0441\u0430\u0439","id":4666591577,"name:ja":"\u30dc\u30fc\u30ea\u30ab\u30e0\u30b5\u30a4"},"coordinates":[2111,1501]},{"type":"Point","properties":{"admin_level":"4","kind":"region","name:en":"Houaphan","name":"\u0eab\u0ebb\u0ea7\u0e9e\u0eb1\u0e99","alt_name:vi":"Huaphanh","kind_detail":"state","old_name:vi":"S\u1ea7m Ch\u00e2u;Ch\u00e2u S\u1ea7m","name:lo":"Houaphan","source":"openstreetmap.org","min_zoom":4.0,"name:ru":"\u0425\u0443\u0430\u043f\u0445\u0430\u043d","name:vi":"H\u1ee7a Ph\u0103n","id":4343634610,"name:ja":"\u30d5\u30a2\u30d1\u30f3"},"coordinates":[1726,2778]},{"type":"Point","properties":{"kind":"region","name:en":"Son La province","name":"S\u01a1n La","kind_detail":"state","min_zoom":4.0,"source":"openstreetmap.org","name:fr":"Province de S\u01a1n La","name:vi":"T\u1ec9nh S\u01a1n La","id":1539675042,"name:ja":"\u30bd\u30f3\u30e9"},"coordinates":[1921,3485]},{"type":"Point","properties":{"admin_level":"4","kind":"region","name:en":"Vientiane","name":"\u0ea7\u0ebd\u0e87\u0e88\u0eb1\u0e99","name:ko":"\ube44\uc5d4\ud2f0\uc548","kind_detail":"state","name:lo":"Viangchan","source":"openstreetmap.org","min_zoom":4.0,"name:ru":"\u0412\u044c\u0435\u043d\u0442\u044c\u044f\u043d","id":4354473002,"name:ja":"\u30f4\u30a3\u30a8\u30f3\u30c1\u30e3\u30f3"},"coordinates":[600,1581]},{"type":"Point","properties":{"admin_level":"4","kind":"region","name:en":"Phongsaly","name":"\u0e9c\u0ebb\u0ec9\u0e87\u0eaa\u0eb2\u0ea5\u0eb5","kind_detail":"state","name:lo":"Ph\u00f4ngsali","source":"openstreetmap.org","min_zoom":4.0,"name:vi":"Phong Sa L\u1ef3","name:ru":"\u041f\u0445\u043e\u043d\u0433\u0441\u0430\u043b\u0438","id":4343683060,"name:ja":"\u30dd\u30f3\u30b5\u30fc\u30ea\u30fc"},"coordinates":[748,3890]},{"type":"Point","properties":{"kind":"region","name:en":"Thai Nguyen","name":"T\u1ec9nh Th\u00e1i Nguy\u00ean","kind_detail":"state","min_zoom":4.0,"source":"openstreetmap.org","name:fr":"Province de Th\u00e1i Nguy\u00ean","id":1539375019,"name:ja":"\u30bf\u30a4\u30b0\u30a8\u30f3"},"coordinates":[3339,3874]},{"type":"Point","properties":{"kind":"region","name:en":"Dien Bien province","name":"\u0110i\u1ec7n Bi\u00ean","kind_detail":"state","min_zoom":4.0,"source":"openstreetmap.org","name:fr":"Province de \u0110i\u1ec7n Bi\u00ean","name:vi":"T\u1ec9nh \u0110i\u1ec7n Bi\u00ean","id":1539763408,"name:ja":"\u30c7\u30a3\u30a8\u30f3\u30d3\u30a8\u30f3"},"coordinates":[1304,3925]},{"type":"Point","properties":{"kind":"region","name:en":"Lang Son province","name":"L\u1ea1ng S\u01a1n","kind_detail":"state","min_zoom":4.0,"source":"openstreetmap.org","name:fr":"Province de L\u1ea1ng S\u01a1n","name:vi":"T\u1ec9nh L\u1ea1ng S\u01a1n","id":1539354503,"name:ja":"\u30e9\u30f3\u30bd\u30f3"},"coordinates":[3781,4029]},{"type":"Point","properties":{"kind":"region","name:en":"Yen Bai province","name":"Y\u00ean B\u00e1i","kind_detail":"state","min_zoom":4.0,"source":"openstreetmap.org","name:fr":"Province de Y\u00ean B\u00e1i","name:vi":"T\u1ec9nh Y\u00ean B\u00e1i","id":1539651107,"name:ja":"\u30a4\u30a8\u30f3\u30d0\u30a4"},"coordinates":[2377,3987]},{"type":"Point","properties":{"admin_level":"4","kind":"region","name:en":"Nakhon Phanom Province","name":"\u0e08\u0e31\u0e07\u0e2b\u0e27\u0e31\u0e14\u0e19\u0e04\u0e23\u0e1e\u0e19\u0e21","kind_detail":"state","source":"openstreetmap.org","min_zoom":4.0,"name:uk":"\u041d\u0430\u043a\u0445\u043e\u043d\u043f\u0445\u0430\u043d\u043e\u043c","name:ru":"\u041d\u0430\u043a\u0445\u043e\u043d\u043f\u0445\u0430\u043d\u043e\u043c","name:pl":"Nakhon Phanom","id":4351691505,"name:ja":"\u30ca\u30b3\u30fc\u30f3\u30d1\u30ce\u30e0\u770c"},"coordinates":[2446,434]},{"type":"Point","properties":{"admin_level":"4","kind":"region","name:en":"Khammouane","name":"\u0e84\u0ecd\u0eb2\u0ea1\u0ec8\u0ea7\u0e99","kind_detail":"state","name:lo":"Khammon","source":"openstreetmap.org","min_zoom":4.0,"name:ru":"\u041a\u0445\u0430\u043c\u043c\u0443\u0430\u043d","id":4343645219,"name:ja":"\u30ab\u30e0\u30e0\u30a2\u30f3"},"coordinates":[2987,666]},{"type":"Point","properties":{"kind":"region","name:en":"Quang Tri province","name":"Qu\u1ea3ng Tr\u1ecb","kind_detail":"state","min_zoom":4.0,"source":"openstreetmap.org","name:fr":"Province de Qu\u1ea3ng Tr\u1ecb","name:uk":"\u041a\u0443\u0430\u043d\u0433\u0447\u0456","name:vi":"T\u1ec9nh Qu\u1ea3ng Tr\u1ecb","id":1535372914,"name:ja":"\u30af\u30a2\u30f3\u30c1"},"coordinates":[4084,171]},{"type":"Point","properties":{"kind":"region","name:en":"Quang Binh province","name":"Qu\u1ea3ng B\u00ecnh","name:lt":"Kvangbinio provincija","kind_detail":"state","min_zoom":4.0,"name:lb":"Prov\u00ebnz Quang Binh","source":"openstreetmap.org","name:fr":"Province de Qu\u1ea3ng B\u00ecnh","name:uk":"\u041a\u0443\u0430\u043d\u0433\u0431\u0456\u043d\u044c","name:et":"Qu\u1ea3ng B\u00ecnhi provints","name:vi":"T\u1ec9nh Qu\u1ea3ng B\u00ecnh","name:pl":"Prowincja Qu\u1ea3ng B\u00ecnh","id":1535458669,"name:ja":"\u30af\u30a2\u30f3\u30d3\u30f3"},"coordinates":[3646,702]},{"type":"Point","properties":{"kind":"region","name:en":"Ha Tinh province","name":"H\u00e0 T\u0129nh","kind_detail":"state","min_zoom":4.0,"source":"openstreetmap.org","name:fr":"Province de H\u00e0 T\u0129nh","name:uk":"\u0425\u0430\u0442\u0456\u043d\u044c","name:vi":"T\u1ec9nh H\u00e0 T\u0129nh","id":1536266025,"name:ja":"\u30cf\u30c6\u30a3\u30f3"},"coordinates":[3302,1275]},{"type":"Point","properties":{"kind":"region","name:en":"Nghe An province","name":"Ngh\u1ec7 An","kind_detail":"state","name:ar":"\u0645\u0642\u0627\u0637\u0639\u0629 \u0646\u063a\u064a \u0622\u0646","min_zoom":4.0,"source":"openstreetmap.org","name:fr":"Province de Ngh\u1ec7 An","name:uk":"\u041d\u0433\u0435\u0430\u043d","name:vi":"T\u1ec9nh Ngh\u1ec7 An","id":1536295648,"name:ja":"\u30b2\u30a2\u30f3"},"coordinates":[2675,2113]},{"type":"Point","properties":{"admin_level":"4","kind":"region","name:en":"Mukdahan Province","name":"\u0e08\u0e31\u0e07\u0e2b\u0e27\u0e31\u0e14\u0e21\u0e38\u0e01\u0e14\u0e32\u0e2b\u0e32\u0e23","kind_detail":"state","source":"openstreetmap.org","min_zoom":4.0,"name:uk":"\u041c\u0443\u043a\u0434\u0430\u0445\u0430\u043d","name:ru":"\u041c\u0443\u043a\u0434\u0430\u0445\u0430\u043d","name:pl":"Mukdahan","id":4351674788,"name:ja":"\u30e0\u30c3\u30af\u30c0\u30fc\u30cf\u30fc\u30f3\u770c"},"coordinates":[2255,47]},{"type":"Point","properties":{"kind":"region","name:en":"Bac Ninh Province","name":"B\u1eafc Ninh","kind_detail":"state","min_zoom":4.0,"source":"openstreetmap.org","name:fr":"Province de B\u1eafc Ninh","name:vi":"T\u1ec9nh B\u1eafc Ninh","id":1539105345,"name:ja":"\u30d0\u30af\u30cb\u30f3"},"coordinates":[3523,3462]},{"type":"Point","properties":{"kind":"region","name:en":"Hung Yen province","name":"H\u01b0ng Y\u00ean","kind_detail":"state","min_zoom":4.0,"source":"openstreetmap.org","name:fr":"Province de H\u01b0ng Y\u00ean","name:uk":"\u0425\u0438\u043d\u0433'\u0454\u043d","name:vi":"T\u1ec9nh H\u01b0ng Y\u00ean","id":1537809080,"name:ja":"\u30d5\u30f3\u30a4\u30a8\u30f3"},"coordinates":[3482,3229]},{"type":"Point","properties":{"kind":"region","name:en":"Hai Duong province","name":"H\u1ea3i D\u01b0\u01a1ng","kind_detail":"state","min_zoom":4.0,"source":"openstreetmap.org","name:fr":"Province de H\u1ea3i D\u01b0\u01a1ng","name:vi":"T\u1ec9nh H\u1ea3i D\u01b0\u01a1ng","id":1539098337,"name:ja":"\u30cf\u30a4\u30ba\u30aa\u30f3"},"coordinates":[3734,3325]},{"type":"Point","properties":{"kind":"region","name:en":"Bac Giang province","name":"B\u1eafc Giang","kind_detail":"state","min_zoom":4.0,"source":"openstreetmap.org","name:fr":"Province de B\u1eafc Giang","name:vi":"T\u1ec9nh B\u1eafc Giang","id":1539333160,"name:ja":"\u30d0\u30af\u30b6\u30f3"},"coordinates":[3908,3607]},{"type":"Point","properties":{"admin_level":"4","kind":"region","name:en":"Loei Province","name":"\u0e08\u0e31\u0e07\u0e2b\u0e27\u0e31\u0e14\u0e40\u0e25\u0e22","kind_detail":"state","source":"openstreetmap.org","min_zoom":4.0,"name:uk":"\u041b\u043e\u0439","name:ru":"\u041b\u0435\u0439","name:pl":"Loei","id":4351656276,"name:ja":"\u30eb\u30fc\u30a4\u770c"},"coordinates":[156,525]},{"type":"Point","properties":{"kind":"region","name:en":"Thanh Hoa province","name":"Thanh H\u00f3a","kind_detail":"state","name:ar":"\u0645\u0642\u0627\u0637\u0639\u0629 \u062b\u0627\u0646\u0647 \u0647\u0648\u0627","min_zoom":4.0,"source":"openstreetmap.org","name:fr":"Province de Thanh H\u00f3a","name:vi":"T\u1ec9nh Thanh H\u00f3a","id":1536369577,"name:ja":"\u30bf\u30a4\u30f3\u30db\u30a2"},"coordinates":[2885,2679]},{"type":"Point","properties":{"kind":"region","name:en":"Ninh Binh province","name":"T\u1ec9nh Ninh B\u00ecnh","kind_detail":"state","min_zoom":4.0,"source":"openstreetmap.org","name:fr":"Province de Ninh B\u00ecnh","id":1537713518,"name:ja":"\u30cb\u30f3\u30d3\u30f3"},"coordinates":[3444,2739]},{"type":"Point","properties":{"admin_level":"4","kind":"region","name:en":"Nam Dinh province","name":"Nam \u0110\u1ecbnh","kind_detail":"state","min_zoom":4.0,"source":"openstreetmap.org","name:fr":"Province de Nam \u0110\u1ecbnh","name:uk":"\u041d\u0430\u043c\u0434\u0456\u043d\u044c","name:vi":"T\u1ec9nh Nam \u0110\u1ecbnh","id":1537739423,"name:ja":"\u30ca\u30e0\u30c7\u30a3\u30f3"},"coordinates":[3578,2806]},{"type":"Point","properties":{"kind":"region","name:en":"Ha Nam province","name":"H\u00e0 Nam","kind_detail":"state","source":"openstreetmap.org","min_zoom":4.0,"name:uk":"\u0425\u0430\u043d\u0430\u043c","name:vi":"T\u1ec9nh H\u00e0 Nam","id":1537752118,"name:ja":"\u30cf\u30ca\u30e0"},"coordinates":[3426,3003]},{"type":"Point","properties":{"kind":"region","name:en":"Thai Binh province","name":"Th\u00e1i B\u00ecnh","kind_detail":"state","min_zoom":4.0,"source":"openstreetmap.org","name:fr":"Province de Th\u00e1i B\u00ecnh","name:uk":"\u0422\u0445\u0430\u0439\u0431\u0456\u043d\u044c","name:vi":"T\u1ec9nh Th\u00e1i B\u00ecnh","id":1537769514,"name:ja":"\u30bf\u30a4\u30d3\u30f3"},"coordinates":[3741,3005]},{"type":"Point","properties":{"source":"naturalearthdata.com","kind":"locality","name":"Haiphong","population":1969000,"min_zoom":5.0,"id":6276},"coordinates":[3953,3238]},{"type":"Point","properties":{"source":"naturalearthdata.com","kind":"locality","name":"Vientiane","country_capital":true,"population":754000,"min_zoom":5.0,"id":7006},"coordinates":[983,1027]},{"type":"Point","properties":{"source":"naturalearthdata.com","kind":"locality","name":"Vinh","population":593645,"region_capital":true,"min_zoom":6.0,"id":4938},"coordinates":[3226,1593]},{"type":"Point","properties":{"source":"naturalearthdata.com","kind":"locality","name":"Thai Nguyen","population":500000,"region_capital":true,"min_zoom":6.0,"id":4935},"coordinates":[3335,3831]},{"type":"Point","properties":{"source":"naturalearthdata.com","kind":"locality","name":"Nam Dinh","population":243186,"min_zoom":6.0,"id":4937},"coordinates":[3604,2920]},{"type":"Point","properties":{"source":"naturalearthdata.com","kind":"locality","name":"Thanh Hoa","population":197551,"region_capital":true,"min_zoom":6.0,"id":4936},"coordinates":[3313,2457]},{"type":"Point","properties":{"source":"naturalearthdata.com","kind":"locality","name":"Dong Hoi","population":189265,"region_capital":true,"min_zoom":6.0,"id":4939},"coordinates":[3896,654]}]},"transit":{"type":"GeometryCollection","geometries":[{"type":"MultiLineString","properties":{"kind":"train","network":"Pan - Asian Rail Network","sort_rank":275,"source":"openstreetmap.org","min_zoom":6.0,"ref":"Eastern Route","osm_relation":true,"name":"Pan - Asian Rail Network"},"arcs":[[528],[529],[530]]}]},"pois":{"type":"GeometryCollection","geometries":[{"type":"Point","properties":{"kind":"national_park","name:en":"Phu Pha Yon National Park","protect_class":"2","area":227823000,"source":"openstreetmap.org","min_zoom":6.87,"tier":1,"id":-6011593,"osm_relation":true,"name":"\u0e2d\u0e38\u0e17\u0e22\u0e32\u0e19\u0e41\u0e2b\u0e48\u0e07\u0e0a\u0e32\u0e15\u0e34\u0e20\u0e39\u0e1c\u0e32\u0e22\u0e25"},"coordinates":[2158,128]},{"type":"Point","properties":{"kind":"national_park","name:en":"Phu Pha Lek National Park","protect_class":"2","area":366590000,"source":"openstreetmap.org","min_zoom":6.53,"tier":1,"id":-6011591,"osm_relation":true,"name":"\u0e2d\u0e38\u0e17\u0e22\u0e32\u0e19\u0e41\u0e2b\u0e48\u0e07\u0e0a\u0e32\u0e15\u0e34\u0e20\u0e39\u0e1c\u0e32\u0e40\u0e2b\u0e25\u0e47\u0e01"},"coordinates":[1760,370]},{"type":"Point","properties":{"kind":"national_park","name:en":"Nam Nao National Park","protect_class":"2","area":1075770000,"source":"openstreetmap.org","min_zoom":5.75,"tier":1,"id":-6009657,"osm_relation":true,"name":"\u0e2d\u0e38\u0e17\u0e22\u0e32\u0e19\u0e41\u0e2b\u0e48\u0e07\u0e0a\u0e32\u0e15\u0e34\u0e19\u0e49\u0e33\u0e2b\u0e19\u0e32\u0e27"},"coordinates":[211,75]},{"type":"Point","properties":{"kind":"national_park","name:en":"Phu Wiang National Park","protect_class":"2","area":344266000,"source":"openstreetmap.org","min_zoom":6.58,"tier":1,"id":400474959,"name":"\u0e2d\u0e38\u0e17\u0e22\u0e32\u0e19\u0e41\u0e2b\u0e48\u0e07\u0e0a\u0e32\u0e15\u0e34\u0e20\u0e39\u0e40\u0e27\u0e35\u0e22\u0e07"},"coordinates":[713,52]}]},"boundaries":{"type":"GeometryCollection","geometries":[{"type":"MultiLineString","properties":{"source":"naturalearthdata.com","kind":"country","sort_rank":262,"kind_detail":"2","min_zoom":0.0,"id":260},"arcs":[[0],[1],[2],[3],[4],[5],[6],[7],[8],[9],[10],[11],[12],[13],[14],[15],[16],[17],[18],[19],[20],[21],[22],[23],[24],[25]]},{"type":"MultiLineString","properties":{"source":"naturalearthdata.com","kind":"country","sort_rank":262,"kind_detail":"2","min_zoom":0.0,"id":80},"arcs":[[26],[27],[28],[29],[30],[31],[32],[33]]},{"type":"MultiLineString","properties":{"source":"naturalearthdata.com","kind":"country","sort_rank":262,"kind_detail":"2","min_zoom":0.0,"id":261},"arcs":[[34],[35],[36],[37],[38],[39],[40],[41],[42],[43],[44],[45],[46],[47],[48],[49],[50],[51],[52],[53],[54],[55],[56],[57],[58],[59],[60],[61],[62],[63],[64],[65],[66],[67],[68],[69],[70],[71],[72],[73],[74],[75],[76],[77],[78],[79],[80],[81],[82],[83],[84],[85],[86],[87],[88],[89],[90],[91],[92],[93],[94],[95],[96],[97],[98],[99],[100],[101],[102],[103],[104],[105],[106]]},{"type":"LineString","properties":{"source":"naturalearthdata.com","kind":"region","sort_rank":256,"kind_detail":"4","min_zoom":6.7,"id":698},"arcs":[107]},{"type":"LineString","properties":{"source":"naturalearthdata.com","kind":"region","sort_rank":256,"kind_detail":"4","min_zoom":6.7,"id":706},"arcs":[108]},{"type":"LineString","properties":{"source":"naturalearthdata.com","kind":"region","sort_rank":256,"kind_detail":"4","min_zoom":6.7,"id":741},"arcs":[109]},{"type":"MultiLineString","properties":{"source":"naturalearthdata.com","kind":"region","sort_rank":256,"kind_detail":"4","min_zoom":6.7,"id":1234},"arcs":[[110],[111],[112]]},{"type":"MultiLineString","properties":{"source":"naturalearthdata.com","kind":"region","sort_rank":256,"kind_detail":"4","min_zoom":6.7,"id":1236},"arcs":[[113],[114],[115]]},{"type":"LineString","properties":{"source":"naturalearthdata.com","kind":"region","sort_rank":256,"kind_detail":"4","min_zoom":6.7,"id":1251},"arcs":[116]},{"type":"MultiLineString","properties":{"source":"naturalearthdata.com","kind":"region","sort_rank":256,"kind_detail":"4","min_zoom":6.7,"id":1262},"arcs":[[117],[118],[119]]},{"type":"LineString","properties":{"source":"naturalearthdata.com","kind":"macroregion","sort_rank":257,"kind_detail":"3","min_zoom":6.0,"id":1285},"arcs":[120]},{"type":"LineString","properties":{"source":"naturalearthdata.com","kind":"region","sort_rank":256,"kind_detail":"4","min_zoom":6.0,"id":7288},"arcs":[121]},{"type":"LineString","properties":{"source":"naturalearthdata.com","kind":"region","sort_rank":256,"kind_detail":"4","min_zoom":6.7,"id":7},"arcs":[122]},{"type":"LineString","properties":{"source":"naturalearthdata.com","kind":"region","sort_rank":256,"kind_detail":"4","min_zoom":6.0,"id":8},"arcs":[123]},{"type":"LineString","properties":{"source":"naturalearthdata.com","kind":"region","sort_rank":256,"kind_detail":"4","min_zoom":6.7,"id":9},"arcs":[124]},{"type":"LineString","properties":{"source":"naturalearthdata.com","kind":"region","sort_rank":256,"kind_detail":"4","min_zoom":6.7,"id":10},"arcs":[125]},{"type":"LineString","properties":{"source":"naturalearthdata.com","kind":"region","sort_rank":256,"kind_detail":"4","min_zoom":6.7,"id":12},"arcs":[126]},{"type":"MultiLineString","properties":{"source":"naturalearthdata.com","kind":"region","sort_rank":256,"kind_detail":"4","min_zoom":6.0,"id":707},"arcs":[[127],[128]]},{"type":"MultiLineString","properties":{"source":"naturalearthdata.com","kind":"region","sort_rank":256,"kind_detail":"4","min_zoom":6.0,"id":751},"arcs":[[129],[130]]},{"type":"LineString","properties":{"source":"naturalearthdata.com","kind":"region","sort_rank":256,"kind_detail":"4","min_zoom":6.7,"id":752},"arcs":[131]},{"type":"MultiLineString","properties":{"source":"naturalearthdata.com","kind":"region","sort_rank":256,"kind_detail":"4","min_zoom":6.7,"id":692},"arcs":[[132],[133],[134]]},{"type":"LineString","properties":{"source":"naturalearthdata.com","kind":"region","sort_rank":256,"kind_detail":"4","min_zoom":6.0,"id":708},"arcs":[135]},{"type":"MultiLineString","properties":{"source":"naturalearthdata.com","kind":"region","sort_rank":256,"kind_detail":"4","min_zoom":6.7,"id":693},"arcs":[[136],[137],[138],[139],[140],[141]]},{"type":"MultiLineString","properties":{"source":"naturalearthdata.com","kind":"region","sort_rank":256,"kind_detail":"4","min_zoom":6.0,"id":694},"arcs":[[142],[143],[144],[145]]},{"type":"MultiLineString","properties":{"source":"naturalearthdata.com","kind":"region","sort_rank":256,"kind_detail":"4","min_zoom":6.7,"id":695},"arcs":[[146],[147],[148],[149],[150]]},{"type":"LineString","properties":{"source":"naturalearthdata.com","kind":"region","sort_rank":256,"kind_detail":"4","min_zoom":6.7,"id":696},"arcs":[151]},{"type":"LineString","properties":{"source":"naturalearthdata.com","kind":"region","sort_rank":256,"kind_detail":"4","min_zoom":6.0,"id":697},"arcs":[152]},{"type":"MultiLineString","properties":{"source":"naturalearthdata.com","kind":"region","sort_rank":256,"kind_detail":"4","min_zoom":6.0,"id":699},"arcs":[[153],[154]]},{"type":"MultiLineString","properties":{"source":"naturalearthdata.com","kind":"region","sort_rank":256,"kind_detail":"4","min_zoom":6.0,"id":700},"arcs":[[155],[156],[157],[158]]},{"type":"LineString","properties":{"source":"naturalearthdata.com","kind":"region","sort_rank":256,"kind_detail":"4","min_zoom":6.7,"id":701},"arcs":[159]},{"type":"MultiLineString","properties":{"source":"naturalearthdata.com","kind":"region","sort_rank":256,"kind_detail":"4","min_zoom":6.7,"id":702},"arcs":[[160],[161],[162]]},{"type":"MultiLineString","properties":{"source":"naturalearthdata.com","kind":"region","sort_rank":256,"kind_detail":"4","min_zoom":6.0,"id":703},"arcs":[[163],[164],[165],[166],[167],[168],[169],[170]]},{"type":"LineString","properties":{"source":"naturalearthdata.com","kind":"region","sort_rank":256,"kind_detail":"4","min_zoom":6.0,"id":704},"arcs":[171]},{"type":"MultiLineString","properties":{"source":"naturalearthdata.com","kind":"region","sort_rank":256,"kind_detail":"4","min_zoom":6.7,"id":705},"arcs":[[172],[173],[174]]},{"type":"MultiLineString","properties":{"source":"naturalearthdata.com","kind":"region","sort_rank":256,"kind_detail":"4","min_zoom":6.0,"id":709},"arcs":[[175],[176],[177]]},{"type":"MultiLineString","properties":{"source":"naturalearthdata.com","kind":"region","sort_rank":256,"kind_detail":"4","min_zoom":6.0,"id":710},"arcs":[[178],[179]]},{"type":"MultiLineString","properties":{"source":"naturalearthdata.com","kind":"region","sort_rank":256,"kind_detail":"4","min_zoom":6.7,"id":711},"arcs":[[180],[181],[182],[183],[184],[185],[186]]},{"type":"MultiLineString","properties":{"source":"naturalearthdata.com","kind":"region","sort_rank":256,"kind_detail":"4","min_zoom":6.7,"id":712},"arcs":[[187],[188],[189],[190],[191]]},{"type":"MultiLineString","properties":{"source":"naturalearthdata.com","kind":"region","sort_rank":256,"kind_detail":"4","min_zoom":6.7,"id":715},"arcs":[[192],[193],[194],[195],[196]]},{"type":"MultiLineString","properties":{"source":"naturalearthdata.com","kind":"region","sort_rank":256,"kind_detail":"4","min_zoom":6.0,"id":716},"arcs":[[197],[198]]},{"type":"MultiLineString","properties":{"source":"naturalearthdata.com","kind":"region","sort_rank":256,"kind_detail":"4","min_zoom":6.0,"id":722},"arcs":[[199],[200]]},{"type":"LineString","properties":{"source":"naturalearthdata.com","kind":"region","sort_rank":256,"kind_detail":"4","min_zoom":6.7,"id":723},"arcs":[201]},{"type":"MultiLineString","properties":{"source":"naturalearthdata.com","kind":"region","sort_rank":256,"kind_detail":"4","min_zoom":6.0,"id":724},"arcs":[[202],[203]]},{"type":"MultiLineString","properties":{"source":"naturalearthdata.com","kind":"region","sort_rank":256,"kind_detail":"4","min_zoom":6.7,"id":730},"arcs":[[204],[205],[206]]},{"type":"LineString","properties":{"source":"naturalearthdata.com","kind":"region","sort_rank":256,"kind_detail":"4","min_zoom":6.7,"id":731},"arcs":[207]},{"type":"MultiLineString","properties":{"source":"naturalearthdata.com","kind":"region","sort_rank":256,"kind_detail":"4","min_zoom":6.7,"id":732},"arcs":[[208],[209]]},{"type":"MultiLineString","properties":{"source":"naturalearthdata.com","kind":"region","sort_rank":256,"kind_detail":"4","min_zoom":6.7,"id":733},"arcs":[[210],[211]]},{"type":"LineString","properties":{"source":"naturalearthdata.com","kind":"region","sort_rank":256,"kind_detail":"4","min_zoom":6.7,"id":749},"arcs":[212]},{"type":"MultiLineString","properties":{"source":"naturalearthdata.com","kind":"region","sort_rank":256,"kind_detail":"4","min_zoom":6.7,"id":734},"arcs":[[213],[214],[215],[216],[217]]},{"type":"MultiLineString","properties":{"source":"naturalearthdata.com","kind":"region","sort_rank":256,"kind_detail":"4","min_zoom":6.0,"id":735},"arcs":[[218],[219],[220]]},{"type":"LineString","properties":{"source":"naturalearthdata.com","kind":"region","sort_rank":256,"kind_detail":"4","min_zoom":6.7,"id":736},"arcs":[221]},{"type":"LineString","properties":{"source":"naturalearthdata.com","kind":"region","sort_rank":256,"kind_detail":"4","min_zoom":6.0,"id":737},"arcs":[222]},{"type":"LineString","properties":{"source":"naturalearthdata.com","kind":"region","sort_rank":256,"kind_detail":"4","min_zoom":6.7,"id":738},"arcs":[223]},{"type":"MultiLineString","properties":{"source":"naturalearthdata.com","kind":"region","sort_rank":256,"kind_detail":"4","min_zoom":6.7,"id":739},"arcs":[[224],[225]]},{"type":"MultiLineString","properties":{"source":"naturalearthdata.com","kind":"region","sort_rank":256,"kind_detail":"4","min_zoom":6.7,"id":740},"arcs":[[226],[227],[228],[229]]},{"type":"LineString","properties":{"source":"naturalearthdata.com","kind":"region","sort_rank":256,"kind_detail":"4","min_zoom":6.7,"id":742},"arcs":[230]},{"type":"LineString","properties":{"source":"naturalearthdata.com","kind":"region","sort_rank":256,"kind_detail":"4","min_zoom":6.0,"id":743},"arcs":[231]},{"type":"LineString","properties":{"source":"naturalearthdata.com","kind":"region","sort_rank":256,"kind_detail":"4","min_zoom":6.7,"id":744},"arcs":[232]},{"type":"MultiLineString","properties":{"source":"naturalearthdata.com","kind":"region","sort_rank":256,"kind_detail":"4","min_zoom":6.7,"id":745},"arcs":[[233],[234]]},{"type":"MultiLineString","properties":{"source":"naturalearthdata.com","kind":"region","sort_rank":256,"kind_detail":"4","min_zoom":6.0,"id":746},"arcs":[[235],[236]]},{"type":"LineString","properties":{"source":"naturalearthdata.com","kind":"region","sort_rank":256,"kind_detail":"4","min_zoom":6.7,"id":747},"arcs":[237]},{"type":"LineString","properties":{"source":"naturalearthdata.com","kind":"region","sort_rank":256,"kind_detail":"4","min_zoom":6.7,"id":748},"arcs":[238]},{"type":"LineString","properties":{"source":"naturalearthdata.com","kind":"region","sort_rank":256,"kind_detail":"4","min_zoom":6.0,"id":750},"arcs":[239]},{"type":"MultiLineString","properties":{"source":"naturalearthdata.com","kind":"region","sort_rank":256,"kind_detail":"4","min_zoom":6.7,"id":753},"arcs":[[240],[241],[242],[243],[244],[245],[246]]},{"type":"LineString","properties":{"source":"naturalearthdata.com","kind":"region","sort_rank":256,"kind_detail":"4","min_zoom":6.7,"id":754},"arcs":[247]},{"type":"LineString","properties":{"source":"naturalearthdata.com","kind":"region","sort_rank":256,"kind_detail":"4","min_zoom":6.0,"id":755},"arcs":[248]},{"type":"MultiLineString","properties":{"source":"naturalearthdata.com","kind":"region","sort_rank":256,"kind_detail":"4","min_zoom":6.7,"id":756},"arcs":[[249],[250],[251],[252],[253]]},{"type":"MultiLineString","properties":{"source":"naturalearthdata.com","kind":"region","sort_rank":256,"kind_detail":"4","min_zoom":6.7,"id":757},"arcs":[[254],[255]]},{"type":"MultiLineString","properties":{"source":"naturalearthdata.com","kind":"region","sort_rank":256,"kind_detail":"4","min_zoom":6.7,"id":758},"arcs":[[256],[257],[258],[259],[260]]},{"type":"MultiLineString","properties":{"source":"naturalearthdata.com","kind":"region","sort_rank":256,"kind_detail":"4","min_zoom":6.7,"id":777},"arcs":[[261],[262],[263]]},{"type":"MultiLineString","properties":{"source":"naturalearthdata.com","kind":"region","sort_rank":256,"kind_detail":"4","min_zoom":6.7,"id":1231},"arcs":[[264],[265],[266]]},{"type":"LineString","properties":{"source":"naturalearthdata.com","kind":"region","sort_rank":256,"kind_detail":"4","min_zoom":6.7,"id":1233},"arcs":[267]},{"type":"MultiLineString","properties":{"source":"naturalearthdata.com","kind":"region","sort_rank":256,"kind_detail":"4","min_zoom":6.7,"id":1235},"arcs":[[268],[269],[270],[271],[272],[273],[274],[275],[276],[277],[278],[279],[280],[281],[282],[283],[284],[285],[286]]},{"type":"MultiLineString","properties":{"source":"naturalearthdata.com","kind":"region","sort_rank":256,"kind_detail":"4","min_zoom":6.7,"id":1237},"arcs":[[287],[288],[289],[290],[291],[292],[293],[294],[295],[296],[297],[298],[299],[300],[301]]},{"type":"MultiLineString","properties":{"source":"naturalearthdata.com","kind":"region","sort_rank":256,"kind_detail":"4","min_zoom":6.7,"id":1248},"arcs":[[302],[303],[304]]},{"type":"LineString","properties":{"source":"naturalearthdata.com","kind":"region","sort_rank":256,"kind_detail":"4","min_zoom":6.7,"id":1250},"arcs":[305]},{"type":"MultiLineString","properties":{"source":"naturalearthdata.com","kind":"region","sort_rank":256,"kind_detail":"4","min_zoom":6.7,"id":1252},"arcs":[[306],[307],[308],[309],[310],[311],[312]]},{"type":"MultiLineString","properties":{"source":"naturalearthdata.com","kind":"region","sort_rank":256,"kind_detail":"4","min_zoom":6.7,"id":1253},"arcs":[[313],[314],[315],[316],[317],[318]]},{"type":"MultiLineString","properties":{"source":"naturalearthdata.com","kind":"region","sort_rank":256,"kind_detail":"4","min_zoom":6.7,"id":1254},"arcs":[[319],[320],[321],[322],[323]]},{"type":"MultiLineString","properties":{"source":"naturalearthdata.com","kind":"region","sort_rank":256,"kind_detail":"4","min_zoom":6.7,"id":1260},"arcs":[[324],[325],[326],[327],[328]]},{"type":"MultiLineString","properties":{"source":"naturalearthdata.com","kind":"region","sort_rank":256,"kind_detail":"4","min_zoom":6.7,"id":1261},"arcs":[[329],[330],[331],[332],[333],[334],[335],[336],[337],[338],[339],[340],[341],[342]]},{"type":"MultiLineString","properties":{"source":"naturalearthdata.com","kind":"region","sort_rank":256,"kind_detail":"4","min_zoom":6.7,"id":1263},"arcs":[[343],[344],[345],[346],[347],[348],[349],[350],[351],[352],[353],[354],[355],[356],[357]]},{"type":"MultiLineString","properties":{"source":"naturalearthdata.com","kind":"region","sort_rank":256,"kind_detail":"4","min_zoom":6.7,"id":1264},"arcs":[[358],[359],[360],[361],[362],[363],[364],[365]]},{"type":"MultiLineString","properties":{"source":"naturalearthdata.com","kind":"region","sort_rank":256,"kind_detail":"4","min_zoom":6.7,"id":1265},"arcs":[[366],[367],[368],[369],[370],[371],[372],[373]]},{"type":"MultiLineString","properties":{"source":"naturalearthdata.com","kind":"macroregion","sort_rank":257,"kind_detail":"3","min_zoom":6.0,"id":1287},"arcs":[[374],[375],[376],[377],[378],[379],[380],[381],[382],[383]]},{"type":"MultiLineString","properties":{"source":"naturalearthdata.com","kind":"region","sort_rank":256,"kind_detail":"4","min_zoom":6.7,"id":1295},"arcs":[[384],[385],[386]]},{"type":"MultiLineString","properties":{"source":"naturalearthdata.com","kind":"macroregion","sort_rank":257,"kind_detail":"3","min_zoom":6.0,"id":1296},"arcs":[[387],[388],[389],[390],[391],[392],[393]]},{"type":"MultiLineString","properties":{"source":"naturalearthdata.com","kind":"region","sort_rank":256,"kind_detail":"4","min_zoom":6.7,"id":1517},"arcs":[[394],[395],[396],[397],[398],[399],[400],[401],[402],[403]]},{"type":"LineString","properties":{"source":"naturalearthdata.com","kind":"region","sort_rank":256,"kind_detail":"4","min_zoom":6.7,"id":1509},"arcs":[404]},{"type":"MultiLineString","properties":{"source":"naturalearthdata.com","kind":"region","sort_rank":256,"kind_detail":"4","min_zoom":6.7,"id":1516},"arcs":[[405],[406],[407],[408],[409]]},{"type":"LineString","properties":{"source":"naturalearthdata.com","kind":"region","sort_rank":256,"kind_detail":"4","min_zoom":6.0,"id":7268},"arcs":[410]},{"type":"MultiLineString","properties":{"source":"naturalearthdata.com","kind":"region","sort_rank":256,"kind_detail":"4","min_zoom":6.0,"id":7269},"arcs":[[411],[412],[413],[414],[415],[416]]},{"type":"MultiLineString","properties":{"source":"naturalearthdata.com","kind":"region","sort_rank":256,"kind_detail":"4","min_zoom":6.0,"id":7270},"arcs":[[417],[418],[419]]},{"type":"MultiLineString","properties":{"source":"naturalearthdata.com","kind":"region","sort_rank":256,"kind_detail":"4","min_zoom":6.0,"id":7271},"arcs":[[420],[421],[422]]},{"type":"MultiLineString","properties":{"source":"naturalearthdata.com","kind":"region","sort_rank":256,"kind_detail":"4","min_zoom":6.0,"id":7272},"arcs":[[423],[424],[425],[426]]},{"type":"LineString","properties":{"source":"naturalearthdata.com","kind":"region","sort_rank":256,"kind_detail":"4","min_zoom":6.0,"id":7273},"arcs":[427]},{"type":"MultiLineString","properties":{"source":"naturalearthdata.com","kind":"region","sort_rank":256,"kind_detail":"4","min_zoom":6.0,"id":7290},"arcs":[[428],[429]]},{"type":"MultiLineString","properties":{"source":"naturalearthdata.com","kind":"region","sort_rank":256,"kind_detail":"4","min_zoom":6.0,"id":7274},"arcs":[[430],[431],[432],[433],[434],[435],[436],[437],[438],[439],[440],[441]]},{"type":"MultiLineString","properties":{"source":"naturalearthdata.com","kind":"region","sort_rank":256,"kind_detail":"4","min_zoom":6.0,"id":7275},"arcs":[[442],[443],[444]]},{"type":"MultiLineString","properties":{"source":"naturalearthdata.com","kind":"region","sort_rank":256,"kind_detail":"4","min_zoom":6.0,"id":7276},"arcs":[[445],[446],[447],[448],[449],[450],[451],[452],[453],[454],[455]]},{"type":"MultiLineString","properties":{"source":"naturalearthdata.com","kind":"region","sort_rank":256,"kind_detail":"4","min_zoom":6.0,"id":7280},"arcs":[[456],[457],[458],[459],[460],[461],[462],[463],[464],[465],[466],[467],[468],[469],[470],[471],[472],[473],[474],[475],[476],[477]]},{"type":"MultiLineString","properties":{"source":"naturalearthdata.com","kind":"region","sort_rank":256,"kind_detail":"4","min_zoom":6.0,"id":7286},"arcs":[[478],[479],[480],[481],[482],[483],[484],[485]]},{"type":"LineString","properties":{"source":"naturalearthdata.com","kind":"region","sort_rank":256,"kind_detail":"4","min_zoom":6.0,"id":7287},"arcs":[486]},{"type":"MultiLineString","properties":{"source":"naturalearthdata.com","kind":"region","sort_rank":256,"kind_detail":"4","min_zoom":6.0,"id":7289},"arcs":[[487],[488],[489],[490],[491]]},{"type":"MultiLineString","properties":{"source":"naturalearthdata.com","kind":"region","sort_rank":256,"kind_detail":"4","min_zoom":6.0,"id":7291},"arcs":[[492],[493],[494]]},{"type":"LineString","properties":{"source":"naturalearthdata.com","kind":"region","sort_rank":256,"kind_detail":"4","min_zoom":6.0,"id":7292},"arcs":[495]},{"type":"MultiLineString","properties":{"source":"naturalearthdata.com","kind":"region","sort_rank":256,"kind_detail":"4","min_zoom":6.0,"id":7293},"arcs":[[496],[497],[498]]},{"type":"MultiLineString","properties":{"source":"naturalearthdata.com","kind":"region","sort_rank":256,"kind_detail":"4","min_zoom":6.0,"id":7294},"arcs":[[499],[500]]},{"type":"MultiLineString","properties":{"source":"naturalearthdata.com","kind":"region","sort_rank":256,"kind_detail":"4","min_zoom":6.0,"id":7296},"arcs":[[501],[502],[503],[504],[505],[506],[507]]},{"type":"MultiLineString","properties":{"source":"naturalearthdata.com","kind":"region","sort_rank":256,"kind_detail":"4","min_zoom":6.0,"id":7297},"arcs":[[508],[509],[510],[511],[512],[513],[514],[515],[516],[517],[518],[519],[520],[521]]},{"type":"MultiLineString","properties":{"source":"naturalearthdata.com","kind":"region","sort_rank":256,"kind_detail":"4","min_zoom":6.0,"id":7298},"arcs":[[522],[523],[524]]},{"type":"LineString","properties":{"source":"naturalearthdata.com","kind":"region","sort_rank":256,"kind_detail":"4","min_zoom":6.0,"id":7299},"arcs":[525]},{"type":"LineString","properties":{"source":"naturalearthdata.com","kind":"region","sort_rank":256,"kind_detail":"4","min_zoom":6.7,"id":9014},"arcs":[526]},{"type":"LineString","properties":{"source":"naturalearthdata.com","kind":"region","sort_rank":256,"kind_detail":"4","min_zoom":6.7,"id":9015},"arcs":[527]}]},"roads":{"type":"GeometryCollection","geometries":[{"type":"LineString","properties":{"source":"naturalearthdata.com","kind":"major_road","sort_rank":379,"kind_detail":"secondary","min_zoom":3.0,"id":33617},"arcs":[548]},{"type":"LineString","properties":{"source":"naturalearthdata.com","kind":"minor_road","sort_rank":355,"kind_detail":"tertiary","min_zoom":5.0,"id":33635},"arcs":[549]},{"type":"LineString","properties":{"source":"naturalearthdata.com","kind":"minor_road","sort_rank":355,"kind_detail":"tertiary","min_zoom":5.0,"id":33638},"arcs":[550]},{"type":"LineString","properties":{"source":"naturalearthdata.com","kind":"highway","sort_rank":383,"kind_detail":"motorway","min_zoom":3.0,"id":33647},"arcs":[551]},{"type":"LineString","properties":{"source":"naturalearthdata.com","kind":"minor_road","sort_rank":355,"kind_detail":"tertiary","min_zoom":6.0,"id":33660},"arcs":[552]},{"type":"LineString","properties":{"source":"naturalearthdata.com","kind":"minor_road","sort_rank":355,"kind_detail":"tertiary","min_zoom":5.0,"id":33670},"arcs":[553]},{"type":"LineString","properties":{"source":"naturalearthdata.com","kind":"minor_road","sort_rank":355,"kind_detail":"tertiary","min_zoom":5.0,"id":33675},"arcs":[554]},{"type":"LineString","properties":{"source":"naturalearthdata.com","kind":"minor_road","sort_rank":355,"kind_detail":"tertiary","min_zoom":5.0,"id":33680},"arcs":[555]},{"type":"LineString","properties":{"source":"naturalearthdata.com","kind":"major_road","sort_rank":379,"kind_detail":"secondary","min_zoom":3.0,"id":33681},"arcs":[556]},{"type":"LineString","properties":{"source":"naturalearthdata.com","kind":"minor_road","kind_detail":"tertiary","sort_rank":355,"landuse_kind":"park","min_zoom":5.0,"id":33687},"arcs":[557]},{"type":"MultiLineString","properties":{"source":"naturalearthdata.com","kind":"minor_road","sort_rank":355,"kind_detail":"tertiary","min_zoom":5.0,"id":33687},"arcs":[[558],[559]]},{"type":"LineString","properties":{"source":"naturalearthdata.com","kind":"minor_road","sort_rank":355,"kind_detail":"tertiary","min_zoom":5.0,"id":33701},"arcs":[560]},{"type":"LineString","properties":{"source":"naturalearthdata.com","kind":"major_road","sort_rank":379,"kind_detail":"secondary","min_zoom":3.0,"id":33704},"arcs":[561]},{"type":"LineString","properties":{"source":"naturalearthdata.com","kind":"minor_road","sort_rank":355,"kind_detail":"tertiary","min_zoom":5.0,"id":33710},"arcs":[562]},{"type":"LineString","properties":{"source":"naturalearthdata.com","kind":"minor_road","sort_rank":355,"kind_detail":"tertiary","min_zoom":6.0,"id":33712},"arcs":[563]},{"type":"LineString","properties":{"source":"naturalearthdata.com","kind":"highway","sort_rank":383,"kind_detail":"motorway","min_zoom":3.0,"id":33718},"arcs":[564]},{"type":"LineString","properties":{"source":"naturalearthdata.com","kind":"minor_road","sort_rank":355,"kind_detail":"tertiary","min_zoom":5.0,"id":33724},"arcs":[565]},{"type":"LineString","properties":{"source":"naturalearthdata.com","kind":"major_road","sort_rank":379,"kind_detail":"secondary","min_zoom":3.0,"id":33727},"arcs":[566]},{"type":"LineString","properties":{"source":"naturalearthdata.com","kind":"minor_road","sort_rank":355,"kind_detail":"tertiary","min_zoom":6.0,"id":33728},"arcs":[567]},{"type":"LineString","properties":{"source":"naturalearthdata.com","kind":"minor_road","sort_rank":355,"kind_detail":"tertiary","min_zoom":6.0,"id":33737},"arcs":[568]},{"type":"LineString","properties":{"source":"naturalearthdata.com","kind":"minor_road","kind_detail":"tertiary","sort_rank":355,"landuse_kind":"urban_area","min_zoom":5.0,"id":33742},"arcs":[569]},{"type":"LineString","properties":{"source":"naturalearthdata.com","kind":"minor_road","sort_rank":355,"kind_detail":"tertiary","min_zoom":5.0,"id":33742},"arcs":[570]},{"type":"LineString","properties":{"source":"naturalearthdata.com","kind":"minor_road","sort_rank":355,"kind_detail":"tertiary","min_zoom":5.0,"id":33746},"arcs":[571]},{"type":"LineString","properties":{"source":"naturalearthdata.com","kind":"minor_road","sort_rank":355,"kind_detail":"tertiary","min_zoom":5.0,"id":33750},"arcs":[572]},{"type":"LineString","properties":{"source":"naturalearthdata.com","kind":"minor_road","sort_rank":355,"kind_detail":"tertiary","min_zoom":5.0,"id":33752},"arcs":[573]},{"type":"LineString","properties":{"source":"naturalearthdata.com","kind":"minor_road","kind_detail":"tertiary","sort_rank":355,"landuse_kind":"urban_area","min_zoom":5.0,"id":33761},"arcs":[574]},{"type":"LineString","properties":{"source":"naturalearthdata.com","kind":"minor_road","sort_rank":355,"kind_detail":"tertiary","min_zoom":5.0,"id":33761},"arcs":[575]},{"type":"LineString","properties":{"source":"naturalearthdata.com","kind":"minor_road","sort_rank":355,"kind_detail":"tertiary","min_zoom":5.0,"id":33788},"arcs":[576]},{"type":"LineString","properties":{"source":"naturalearthdata.com","kind":"major_road","sort_rank":379,"kind_detail":"secondary","min_zoom":3.0,"id":33793},"arcs":[577]},{"type":"LineString","properties":{"source":"naturalearthdata.com","kind":"minor_road","sort_rank":355,"kind_detail":"tertiary","min_zoom":5.0,"id":33805},"arcs":[578]},{"type":"LineString","properties":{"source":"naturalearthdata.com","kind":"minor_road","sort_rank":355,"kind_detail":"tertiary","min_zoom":6.0,"id":33813},"arcs":[579]},{"type":"LineString","properties":{"source":"naturalearthdata.com","kind":"minor_road","sort_rank":355,"kind_detail":"tertiary","min_zoom":5.0,"id":33814},"arcs":[580]},{"type":"LineString","properties":{"source":"naturalearthdata.com","kind":"minor_road","sort_rank":355,"kind_detail":"tertiary","min_zoom":5.0,"id":33817},"arcs":[581]},{"type":"LineString","properties":{"source":"naturalearthdata.com","kind":"highway","sort_rank":383,"kind_detail":"motorway","min_zoom":3.0,"id":33823},"arcs":[582]},{"type":"LineString","properties":{"source":"naturalearthdata.com","kind":"minor_road","sort_rank":355,"kind_detail":"tertiary","min_zoom":6.0,"id":33824},"arcs":[583]},{"type":"LineString","properties":{"source":"naturalearthdata.com","kind":"minor_road","sort_rank":355,"kind_detail":"tertiary","min_zoom":5.0,"id":33826},"arcs":[584]},{"type":"LineString","properties":{"source":"naturalearthdata.com","kind":"minor_road","sort_rank":355,"kind_detail":"tertiary","min_zoom":5.0,"id":33827},"arcs":[585]},{"type":"LineString","properties":{"source":"naturalearthdata.com","kind":"minor_road","sort_rank":355,"kind_detail":"tertiary","min_zoom":6.0,"id":33839},"arcs":[586]},{"type":"LineString","properties":{"source":"naturalearthdata.com","kind":"minor_road","sort_rank":355,"kind_detail":"tertiary","min_zoom":5.0,"id":33848},"arcs":[587]},{"type":"LineString","properties":{"source":"naturalearthdata.com","kind":"minor_road","sort_rank":355,"kind_detail":"tertiary","min_zoom":6.0,"id":33858},"arcs":[588]},{"type":"LineString","properties":{"source":"naturalearthdata.com","kind":"major_road","sort_rank":379,"kind_detail":"secondary","min_zoom":3.0,"id":33878},"arcs":[589]},{"type":"LineString","properties":{"source":"naturalearthdata.com","kind":"highway","sort_rank":383,"kind_detail":"motorway","min_zoom":3.0,"id":33880},"arcs":[590]},{"type":"LineString","properties":{"source":"naturalearthdata.com","kind":"major_road","sort_rank":379,"kind_detail":"secondary","min_zoom":3.0,"id":33886},"arcs":[591]},{"type":"LineString","properties":{"source":"naturalearthdata.com","kind":"highway","sort_rank":383,"kind_detail":"motorway","min_zoom":3.0,"id":33889},"arcs":[592]},{"type":"LineString","properties":{"source":"naturalearthdata.com","kind":"highway","sort_rank":383,"kind_detail":"motorway","min_zoom":3.0,"id":33893},"arcs":[593]},{"type":"LineString","properties":{"source":"naturalearthdata.com","kind":"minor_road","sort_rank":355,"kind_detail":"tertiary","min_zoom":5.0,"id":33911},"arcs":[594]},{"type":"LineString","properties":{"source":"naturalearthdata.com","kind":"minor_road","sort_rank":355,"kind_detail":"tertiary","min_zoom":5.0,"id":33914},"arcs":[595]},{"type":"LineString","properties":{"source":"naturalearthdata.com","kind":"minor_road","sort_rank":355,"kind_detail":"tertiary","min_zoom":6.0,"id":33916},"arcs":[596]},{"type":"LineString","properties":{"source":"naturalearthdata.com","kind":"minor_road","sort_rank":355,"kind_detail":"tertiary","min_zoom":5.0,"id":33919},"arcs":[597]},{"type":"LineString","properties":{"source":"naturalearthdata.com","kind":"minor_road","sort_rank":355,"kind_detail":"tertiary","min_zoom":5.0,"id":33925},"arcs":[598]},{"type":"LineString","properties":{"source":"naturalearthdata.com","kind":"highway","sort_rank":383,"kind_detail":"motorway","min_zoom":3.0,"id":33926},"arcs":[599]},{"type":"LineString","properties":{"source":"naturalearthdata.com","kind":"minor_road","sort_rank":355,"kind_detail":"tertiary","min_zoom":5.0,"id":33944},"arcs":[600]},{"type":"LineString","properties":{"source":"naturalearthdata.com","kind":"minor_road","sort_rank":355,"kind_detail":"tertiary","min_zoom":5.0,"id":33948},"arcs":[601]},{"type":"LineString","properties":{"source":"naturalearthdata.com","kind":"minor_road","sort_rank":355,"kind_detail":"tertiary","min_zoom":6.0,"id":33949},"arcs":[602]},{"type":"LineString","properties":{"source":"naturalearthdata.com","kind":"major_road","sort_rank":379,"kind_detail":"secondary","min_zoom":3.0,"id":33950},"arcs":[603]},{"type":"LineString","properties":{"source":"naturalearthdata.com","kind":"highway","kind_detail":"motorway","sort_rank":383,"landuse_kind":"urban_area","min_zoom":3.0,"id":33962},"arcs":[604]},{"type":"LineString","properties":{"source":"naturalearthdata.com","kind":"highway","sort_rank":383,"kind_detail":"motorway","min_zoom":3.0,"id":33962},"arcs":[605]},{"type":"LineString","properties":{"source":"naturalearthdata.com","kind":"major_road","kind_detail":"secondary","sort_rank":379,"landuse_kind":"urban_area","min_zoom":3.0,"id":33963},"arcs":[606]},{"type":"LineString","properties":{"source":"naturalearthdata.com","kind":"major_road","sort_rank":379,"kind_detail":"secondary","min_zoom":3.0,"id":33963},"arcs":[607]},{"type":"LineString","properties":{"source":"naturalearthdata.com","kind":"highway","kind_detail":"motorway","sort_rank":383,"landuse_kind":"urban_area","min_zoom":3.0,"id":33973},"arcs":[608]},{"type":"LineString","properties":{"source":"naturalearthdata.com","kind":"highway","kind_detail":"motorway","sort_rank":383,"landuse_kind":"urban_area","min_zoom":3.0,"id":33980},"arcs":[609]},{"type":"LineString","properties":{"source":"naturalearthdata.com","kind":"minor_road","kind_detail":"tertiary","sort_rank":355,"landuse_kind":"urban_area","min_zoom":6.0,"id":33981},"arcs":[610]},{"type":"LineString","properties":{"source":"naturalearthdata.com","kind":"minor_road","sort_rank":355,"kind_detail":"tertiary","min_zoom":6.0,"id":33981},"arcs":[611]},{"type":"LineString","properties":{"source":"naturalearthdata.com","kind":"minor_road","sort_rank":355,"kind_detail":"tertiary","min_zoom":5.0,"id":33983},"arcs":[612]},{"type":"LineString","properties":{"source":"naturalearthdata.com","kind":"minor_road","sort_rank":355,"kind_detail":"tertiary","min_zoom":5.0,"id":33992},"arcs":[613]},{"type":"LineString","properties":{"source":"naturalearthdata.com","kind":"minor_road","kind_detail":"tertiary","sort_rank":355,"landuse_kind":"national_park","min_zoom":5.0,"id":33993},"arcs":[614]},{"type":"LineString","properties":{"source":"naturalearthdata.com","kind":"minor_road","sort_rank":355,"kind_detail":"tertiary","min_zoom":5.0,"id":33993},"arcs":[615]},{"type":"LineString","properties":{"source":"naturalearthdata.com","kind":"minor_road","kind_detail":"tertiary","sort_rank":355,"landuse_kind":"urban_area","min_zoom":5.0,"id":33997},"arcs":[616]},{"type":"LineString","properties":{"source":"naturalearthdata.com","kind":"minor_road","sort_rank":355,"kind_detail":"tertiary","min_zoom":5.0,"id":33997},"arcs":[617]},{"type":"LineString","properties":{"source":"naturalearthdata.com","kind":"minor_road","sort_rank":355,"kind_detail":"tertiary","min_zoom":5.0,"id":34002},"arcs":[618]},{"type":"LineString","properties":{"source":"naturalearthdata.com","kind":"minor_road","sort_rank":355,"kind_detail":"tertiary","min_zoom":5.0,"id":34003},"arcs":[619]},{"type":"LineString","properties":{"source":"naturalearthdata.com","kind":"minor_road","sort_rank":355,"kind_detail":"tertiary","min_zoom":5.0,"id":34004},"arcs":[620]},{"type":"LineString","properties":{"source":"naturalearthdata.com","kind":"minor_road","sort_rank":355,"kind_detail":"tertiary","min_zoom":5.0,"id":34006},"arcs":[621]},{"type":"LineString","properties":{"source":"naturalearthdata.com","kind":"minor_road","sort_rank":355,"kind_detail":"tertiary","min_zoom":5.0,"id":34007},"arcs":[622]},{"type":"LineString","properties":{"source":"naturalearthdata.com","kind":"minor_road","sort_rank":355,"kind_detail":"tertiary","min_zoom":5.0,"id":34008},"arcs":[623]},{"type":"LineString","properties":{"source":"naturalearthdata.com","kind":"minor_road","sort_rank":355,"kind_detail":"tertiary","min_zoom":6.0,"id":34009},"arcs":[624]},{"type":"LineString","properties":{"source":"naturalearthdata.com","kind":"minor_road","sort_rank":355,"kind_detail":"tertiary","min_zoom":6.0,"id":34012},"arcs":[625]},{"type":"LineString","properties":{"source":"naturalearthdata.com","kind":"minor_road","sort_rank":355,"kind_detail":"tertiary","min_zoom":5.0,"id":34023},"arcs":[626]},{"type":"LineString","properties":{"source":"naturalearthdata.com","kind":"minor_road","sort_rank":355,"kind_detail":"tertiary","min_zoom":5.0,"id":34030},"arcs":[627]},{"type":"LineString","properties":{"source":"naturalearthdata.com","kind":"minor_road","sort_rank":355,"kind_detail":"tertiary","min_zoom":5.0,"id":34042},"arcs":[628]},{"type":"LineString","properties":{"source":"naturalearthdata.com","kind":"minor_road","kind_detail":"tertiary","sort_rank":355,"landuse_kind":"urban_area","min_zoom":5.0,"id":34045},"arcs":[629]},{"type":"LineString","properties":{"source":"naturalearthdata.com","kind":"minor_road","sort_rank":355,"kind_detail":"tertiary","min_zoom":5.0,"id":34045},"arcs":[630]},{"type":"LineString","properties":{"source":"naturalearthdata.com","kind":"minor_road","kind_detail":"tertiary","sort_rank":355,"landuse_kind":"urban_area","min_zoom":6.0,"id":34046},"arcs":[631]},{"type":"LineString","properties":{"source":"naturalearthdata.com","kind":"minor_road","sort_rank":355,"kind_detail":"tertiary","min_zoom":6.0,"id":34046},"arcs":[632]},{"type":"LineString","properties":{"source":"naturalearthdata.com","kind":"minor_road","sort_rank":355,"kind_detail":"tertiary","min_zoom":5.0,"id":34059},"arcs":[633]},{"type":"LineString","properties":{"source":"naturalearthdata.com","kind":"major_road","kind_detail":"secondary","sort_rank":379,"landuse_kind":"urban_area","min_zoom":3.0,"id":34062},"arcs":[634]},{"type":"LineString","properties":{"source":"naturalearthdata.com","kind":"major_road","sort_rank":379,"kind_detail":"secondary","min_zoom":3.0,"id":34062},"arcs":[635]},{"type":"LineString","properties":{"source":"naturalearthdata.com","kind":"minor_road","sort_rank":355,"kind_detail":"tertiary","min_zoom":5.0,"id":34065},"arcs":[636]},{"type":"LineString","properties":{"source":"naturalearthdata.com","kind":"minor_road","sort_rank":355,"kind_detail":"tertiary","min_zoom":5.0,"id":34069},"arcs":[637]},{"type":"LineString","properties":{"source":"naturalearthdata.com","kind":"major_road","kind_detail":"secondary","sort_rank":379,"landuse_kind":"urban_area","min_zoom":4.0,"id":34076},"arcs":[638]},{"type":"LineString","properties":{"source":"naturalearthdata.com","kind":"major_road","sort_rank":379,"kind_detail":"secondary","min_zoom":4.0,"id":34076},"arcs":[639]},{"type":"LineString","properties":{"source":"naturalearthdata.com","kind":"minor_road","sort_rank":355,"kind_detail":"tertiary","min_zoom":5.0,"id":34077},"arcs":[640]},{"type":"LineString","properties":{"source":"naturalearthdata.com","kind":"minor_road","sort_rank":355,"kind_detail":"tertiary","min_zoom":5.0,"id":34078},"arcs":[641]},{"type":"LineString","properties":{"source":"naturalearthdata.com","kind":"minor_road","sort_rank":355,"kind_detail":"tertiary","min_zoom":5.0,"id":34083},"arcs":[642]},{"type":"LineString","properties":{"source":"naturalearthdata.com","kind":"minor_road","sort_rank":355,"kind_detail":"tertiary","min_zoom":5.0,"id":34093},"arcs":[643]},{"type":"LineString","properties":{"source":"naturalearthdata.com","kind":"minor_road","sort_rank":355,"kind_detail":"tertiary","min_zoom":5.0,"id":34094},"arcs":[644]},{"type":"LineString","properties":{"source":"naturalearthdata.com","kind":"minor_road","sort_rank":355,"kind_detail":"tertiary","min_zoom":5.0,"id":34095},"arcs":[645]},{"type":"LineString","properties":{"source":"naturalearthdata.com","kind":"major_road","sort_rank":379,"kind_detail":"secondary","min_zoom":4.0,"id":34107},"arcs":[646]},{"type":"LineString","properties":{"source":"naturalearthdata.com","kind":"major_road","sort_rank":379,"kind_detail":"secondary","min_zoom":3.0,"id":34113},"arcs":[647]},{"type":"LineString","properties":{"source":"naturalearthdata.com","kind":"minor_road","sort_rank":355,"kind_detail":"tertiary","min_zoom":5.0,"id":34115},"arcs":[648]},{"type":"LineString","properties":{"source":"naturalearthdata.com","kind":"major_road","sort_rank":379,"kind_detail":"secondary","min_zoom":3.0,"id":34124},"arcs":[649]},{"type":"LineString","properties":{"source":"naturalearthdata.com","kind":"major_road","sort_rank":379,"kind_detail":"secondary","min_zoom":4.0,"id":34128},"arcs":[650]},{"type":"LineString","properties":{"source":"naturalearthdata.com","kind":"major_road","sort_rank":379,"kind_detail":"secondary","min_zoom":3.0,"id":34131},"arcs":[651]},{"type":"LineString","properties":{"source":"naturalearthdata.com","kind":"minor_road","sort_rank":355,"kind_detail":"tertiary","min_zoom":5.0,"id":34132},"arcs":[652]},{"type":"LineString","properties":{"source":"naturalearthdata.com","kind":"minor_road","sort_rank":355,"kind_detail":"tertiary","min_zoom":5.0,"id":34147},"arcs":[653]},{"type":"LineString","properties":{"source":"naturalearthdata.com","kind":"major_road","sort_rank":379,"kind_detail":"secondary","min_zoom":4.0,"id":34154},"arcs":[654]},{"type":"LineString","properties":{"source":"naturalearthdata.com","kind":"minor_road","sort_rank":355,"kind_detail":"tertiary","min_zoom":5.0,"id":34155},"arcs":[655]},{"type":"LineString","properties":{"source":"naturalearthdata.com","kind":"major_road","sort_rank":379,"kind_detail":"secondary","min_zoom":4.0,"id":34157},"arcs":[656]},{"type":"LineString","properties":{"source":"naturalearthdata.com","kind":"major_road","kind_detail":"secondary","sort_rank":379,"landuse_kind":"urban_area","min_zoom":4.0,"id":34158},"arcs":[657]},{"type":"LineString","properties":{"source":"naturalearthdata.com","kind":"major_road","sort_rank":379,"kind_detail":"secondary","min_zoom":4.0,"id":34158},"arcs":[658]},{"type":"LineString","properties":{"source":"naturalearthdata.com","kind":"major_road","sort_rank":379,"kind_detail":"secondary","min_zoom":3.0,"id":34176},"arcs":[659]},{"type":"LineString","properties":{"source":"naturalearthdata.com","kind":"minor_road","sort_rank":355,"kind_detail":"tertiary","min_zoom":5.0,"id":34183},"arcs":[660]},{"type":"LineString","properties":{"source":"naturalearthdata.com","kind":"minor_road","sort_rank":355,"kind_detail":"tertiary","min_zoom":5.0,"id":34192},"arcs":[661]},{"type":"LineString","properties":{"source":"naturalearthdata.com","kind":"major_road","kind_detail":"secondary","sort_rank":379,"landuse_kind":"urban_area","min_zoom":4.0,"id":34203},"arcs":[662]},{"type":"LineString","properties":{"source":"naturalearthdata.com","kind":"major_road","sort_rank":379,"kind_detail":"secondary","min_zoom":4.0,"id":34203},"arcs":[663]},{"type":"LineString","properties":{"source":"naturalearthdata.com","kind":"major_road","sort_rank":379,"kind_detail":"secondary","min_zoom":3.0,"id":34204},"arcs":[664]},{"type":"LineString","properties":{"source":"naturalearthdata.com","kind":"major_road","sort_rank":379,"kind_detail":"secondary","min_zoom":3.0,"id":34225},"arcs":[665]},{"type":"LineString","properties":{"source":"naturalearthdata.com","kind":"minor_road","sort_rank":355,"kind_detail":"tertiary","min_zoom":5.0,"id":34230},"arcs":[666]},{"type":"LineString","properties":{"source":"naturalearthdata.com","kind":"minor_road","sort_rank":355,"kind_detail":"tertiary","min_zoom":5.0,"id":34233},"arcs":[667]},{"type":"LineString","properties":{"source":"naturalearthdata.com","kind":"minor_road","sort_rank":355,"kind_detail":"tertiary","min_zoom":5.0,"id":34235},"arcs":[668]},{"type":"LineString","properties":{"source":"naturalearthdata.com","kind":"minor_road","sort_rank":355,"kind_detail":"tertiary","min_zoom":5.0,"id":34248},"arcs":[669]},{"type":"LineString","properties":{"source":"naturalearthdata.com","kind":"minor_road","sort_rank":355,"kind_detail":"tertiary","min_zoom":5.0,"id":34251},"arcs":[670]},{"type":"LineString","properties":{"source":"naturalearthdata.com","kind":"major_road","sort_rank":379,"kind_detail":"secondary","min_zoom":3.0,"id":34263},"arcs":[671]},{"type":"LineString","properties":{"source":"naturalearthdata.com","kind":"minor_road","sort_rank":355,"kind_detail":"tertiary","min_zoom":5.0,"id":34279},"arcs":[672]},{"type":"LineString","properties":{"source":"naturalearthdata.com","kind":"minor_road","sort_rank":355,"kind_detail":"tertiary","min_zoom":5.0,"id":34285},"arcs":[673]},{"type":"LineString","properties":{"source":"naturalearthdata.com","kind":"major_road","sort_rank":379,"kind_detail":"secondary","min_zoom":3.0,"id":34300},"arcs":[674]},{"type":"LineString","properties":{"source":"naturalearthdata.com","kind":"major_road","sort_rank":379,"kind_detail":"secondary","min_zoom":3.0,"id":34304},"arcs":[675]},{"type":"LineString","properties":{"source":"naturalearthdata.com","kind":"minor_road","sort_rank":355,"kind_detail":"tertiary","min_zoom":5.0,"id":34310},"arcs":[676]},{"type":"LineString","properties":{"source":"naturalearthdata.com","kind":"minor_road","sort_rank":355,"kind_detail":"tertiary","min_zoom":5.0,"id":34338},"arcs":[677]},{"type":"LineString","properties":{"source":"naturalearthdata.com","kind":"minor_road","sort_rank":355,"kind_detail":"tertiary","min_zoom":5.0,"id":34360},"arcs":[678]},{"type":"LineString","properties":{"source":"naturalearthdata.com","kind":"minor_road","sort_rank":355,"kind_detail":"tertiary","min_zoom":5.0,"id":34374},"arcs":[679]},{"type":"LineString","properties":{"source":"naturalearthdata.com","kind":"major_road","sort_rank":379,"kind_detail":"secondary","min_zoom":3.0,"id":34378},"arcs":[680]},{"type":"LineString","properties":{"source":"naturalearthdata.com","kind":"minor_road","sort_rank":355,"kind_detail":"tertiary","min_zoom":5.0,"id":34386},"arcs":[681]},{"type":"LineString","properties":{"source":"naturalearthdata.com","kind":"minor_road","sort_rank":355,"kind_detail":"tertiary","min_zoom":5.0,"id":34387},"arcs":[682]},{"type":"LineString","properties":{"source":"naturalearthdata.com","kind":"minor_road","sort_rank":355,"kind_detail":"tertiary","min_zoom":5.0,"id":34391},"arcs":[683]},{"type":"LineString","properties":{"source":"naturalearthdata.com","kind":"minor_road","sort_rank":355,"kind_detail":"tertiary","min_zoom":5.0,"id":34397},"arcs":[684]},{"type":"LineString","properties":{"source":"naturalearthdata.com","kind":"minor_road","sort_rank":355,"kind_detail":"tertiary","min_zoom":5.0,"id":34398},"arcs":[685]},{"type":"LineString","properties":{"source":"naturalearthdata.com","kind":"minor_road","sort_rank":355,"kind_detail":"tertiary","min_zoom":5.0,"id":34405},"arcs":[686]},{"type":"LineString","properties":{"source":"naturalearthdata.com","kind":"minor_road","sort_rank":355,"kind_detail":"tertiary","min_zoom":5.0,"id":34406},"arcs":[687]},{"type":"LineString","properties":{"source":"naturalearthdata.com","kind":"minor_road","sort_rank":355,"kind_detail":"tertiary","min_zoom":5.0,"id":34408},"arcs":[688]},{"type":"LineString","properties":{"source":"naturalearthdata.com","kind":"minor_road","sort_rank":355,"kind_detail":"tertiary","min_zoom":5.0,"id":34411},"arcs":[689]},{"type":"LineString","properties":{"source":"naturalearthdata.com","kind":"minor_road","sort_rank":355,"kind_detail":"tertiary","min_zoom":5.0,"id":34412},"arcs":[690]},{"type":"LineString","properties":{"source":"naturalearthdata.com","kind":"minor_road","sort_rank":355,"kind_detail":"tertiary","min_zoom":5.0,"id":34414},"arcs":[691]},{"type":"LineString","properties":{"source":"naturalearthdata.com","kind":"minor_road","sort_rank":355,"kind_detail":"tertiary","min_zoom":5.0,"id":34422},"arcs":[692]},{"type":"LineString","properties":{"source":"naturalearthdata.com","kind":"minor_road","sort_rank":355,"kind_detail":"tertiary","min_zoom":5.0,"id":34431},"arcs":[693]},{"type":"LineString","properties":{"source":"naturalearthdata.com","kind":"major_road","sort_rank":379,"kind_detail":"secondary","min_zoom":3.0,"id":34436},"arcs":[694]},{"type":"LineString","properties":{"source":"naturalearthdata.com","kind":"minor_road","sort_rank":355,"kind_detail":"tertiary","min_zoom":5.0,"id":34438},"arcs":[695]},{"type":"LineString","properties":{"source":"naturalearthdata.com","kind":"major_road","sort_rank":379,"kind_detail":"secondary","min_zoom":3.0,"id":34457},"arcs":[696]},{"type":"LineString","properties":{"source":"naturalearthdata.com","kind":"minor_road","sort_rank":355,"kind_detail":"tertiary","min_zoom":5.0,"id":34468},"arcs":[697]},{"type":"LineString","properties":{"source":"naturalearthdata.com","kind":"minor_road","sort_rank":355,"kind_detail":"tertiary","min_zoom":5.0,"id":34476},"arcs":[698]},{"type":"LineString","properties":{"source":"naturalearthdata.com","kind":"major_road","sort_rank":379,"kind_detail":"secondary","min_zoom":3.0,"id":34478},"arcs":[699]},{"type":"LineString","properties":{"source":"naturalearthdata.com","kind":"minor_road","sort_rank":355,"kind_detail":"tertiary","min_zoom":5.0,"id":34487},"arcs":[700]},{"type":"LineString","properties":{"source":"naturalearthdata.com","kind":"major_road","sort_rank":379,"kind_detail":"secondary","min_zoom":3.0,"id":34492},"arcs":[701]},{"type":"LineString","properties":{"source":"naturalearthdata.com","kind":"major_road","sort_rank":379,"kind_detail":"secondary","min_zoom":3.0,"id":34497},"arcs":[702]},{"type":"LineString","properties":{"source":"naturalearthdata.com","kind":"minor_road","sort_rank":355,"kind_detail":"tertiary","min_zoom":5.0,"id":34506},"arcs":[703]},{"type":"LineString","properties":{"source":"naturalearthdata.com","kind":"minor_road","sort_rank":355,"kind_detail":"tertiary","min_zoom":5.0,"id":34509},"arcs":[704]},{"type":"LineString","properties":{"source":"naturalearthdata.com","kind":"minor_road","sort_rank":355,"kind_detail":"tertiary","min_zoom":5.0,"id":34510},"arcs":[705]},{"type":"LineString","properties":{"source":"naturalearthdata.com","kind":"minor_road","sort_rank":355,"kind_detail":"tertiary","min_zoom":5.0,"id":34512},"arcs":[706]},{"type":"LineString","properties":{"source":"naturalearthdata.com","kind":"minor_road","sort_rank":355,"kind_detail":"tertiary","min_zoom":5.0,"id":34514},"arcs":[707]},{"type":"LineString","properties":{"source":"naturalearthdata.com","kind":"minor_road","sort_rank":355,"kind_detail":"tertiary","min_zoom":5.0,"id":34518},"arcs":[708]},{"type":"LineString","properties":{"source":"naturalearthdata.com","kind":"major_road","sort_rank":379,"kind_detail":"secondary","min_zoom":3.0,"id":34540},"arcs":[709]},{"type":"LineString","properties":{"source":"naturalearthdata.com","kind":"major_road","kind_detail":"secondary","sort_rank":379,"landuse_kind":"urban_area","min_zoom":3.0,"id":34558},"arcs":[710]},{"type":"MultiLineString","properties":{"source":"naturalearthdata.com","kind":"major_road","sort_rank":379,"kind_detail":"secondary","min_zoom":3.0,"id":34558},"arcs":[[711],[712]]},{"type":"LineString","properties":{"source":"naturalearthdata.com","kind":"minor_road","sort_rank":355,"kind_detail":"tertiary","min_zoom":5.0,"id":34572},"arcs":[713]},{"type":"LineString","properties":{"source":"naturalearthdata.com","kind":"major_road","sort_rank":379,"kind_detail":"secondary","min_zoom":3.0,"id":34573},"arcs":[714]},{"type":"LineString","properties":{"source":"naturalearthdata.com","kind":"major_road","sort_rank":379,"kind_detail":"secondary","min_zoom":3.0,"id":34599},"arcs":[715]},{"type":"LineString","properties":{"source":"naturalearthdata.com","kind":"minor_road","sort_rank":355,"kind_detail":"tertiary","min_zoom":5.0,"id":34607},"arcs":[716]},{"type":"LineString","properties":{"source":"naturalearthdata.com","kind":"major_road","sort_rank":379,"kind_detail":"secondary","min_zoom":3.0,"id":34618},"arcs":[717]},{"type":"LineString","properties":{"source":"naturalearthdata.com","kind":"major_road","sort_rank":379,"kind_detail":"secondary","min_zoom":3.0,"id":34624},"arcs":[718]},{"type":"LineString","properties":{"source":"naturalearthdata.com","kind":"major_road","sort_rank":379,"kind_detail":"secondary","min_zoom":3.0,"id":34629},"arcs":[719]},{"type":"LineString","properties":{"source":"naturalearthdata.com","kind":"minor_road","sort_rank":355,"kind_detail":"tertiary","min_zoom":5.0,"id":34631},"arcs":[720]},{"type":"LineString","properties":{"source":"naturalearthdata.com","kind":"minor_road","sort_rank":355,"kind_detail":"tertiary","min_zoom":5.0,"id":34643},"arcs":[721]},{"type":"LineString","properties":{"source":"naturalearthdata.com","kind":"minor_road","sort_rank":355,"kind_detail":"tertiary","min_zoom":5.0,"id":34696},"arcs":[722]},{"type":"LineString","properties":{"source":"naturalearthdata.com","kind":"major_road","sort_rank":379,"kind_detail":"secondary","min_zoom":3.0,"id":34702},"arcs":[723]},{"type":"LineString","properties":{"source":"naturalearthdata.com","kind":"minor_road","sort_rank":355,"kind_detail":"tertiary","min_zoom":5.0,"id":34720},"arcs":[724]},{"type":"LineString","properties":{"source":"naturalearthdata.com","kind":"minor_road","sort_rank":355,"kind_detail":"tertiary","min_zoom":5.0,"id":34725},"arcs":[725]},{"type":"LineString","properties":{"source":"naturalearthdata.com","kind":"minor_road","kind_detail":"tertiary","sort_rank":355,"landuse_kind":"urban_area","min_zoom":5.0,"id":34751},"arcs":[726]},{"type":"LineString","properties":{"source":"naturalearthdata.com","kind":"minor_road","sort_rank":355,"kind_detail":"tertiary","min_zoom":5.0,"id":34751},"arcs":[727]},{"type":"LineString","properties":{"source":"naturalearthdata.com","kind":"major_road","kind_detail":"secondary","sort_rank":379,"landuse_kind":"urban_area","min_zoom":4.0,"id":34764},"arcs":[728]},{"type":"LineString","properties":{"source":"naturalearthdata.com","kind":"major_road","kind_detail":"secondary","sort_rank":379,"landuse_kind":"urban_area","min_zoom":4.0,"id":34764},"arcs":[729]},{"type":"LineString","properties":{"source":"naturalearthdata.com","kind":"major_road","sort_rank":379,"kind_detail":"secondary","min_zoom":4.0,"id":34764},"arcs":[730]},{"type":"LineString","properties":{"source":"naturalearthdata.com","kind":"minor_road","kind_detail":"tertiary","sort_rank":355,"landuse_kind":"urban_area","min_zoom":5.0,"id":34765},"arcs":[731]},{"type":"LineString","properties":{"source":"naturalearthdata.com","kind":"minor_road","kind_detail":"tertiary","sort_rank":355,"landuse_kind":"urban_area","min_zoom":5.0,"id":34766},"arcs":[732]},{"type":"LineString","properties":{"source":"naturalearthdata.com","kind":"major_road","kind_detail":"secondary","sort_rank":379,"landuse_kind":"urban_area","min_zoom":3.0,"id":34790},"arcs":[733]},{"type":"LineString","properties":{"source":"naturalearthdata.com","kind":"major_road","sort_rank":379,"kind_detail":"secondary","min_zoom":3.0,"id":34790},"arcs":[734]},{"type":"LineString","properties":{"source":"naturalearthdata.com","kind":"major_road","sort_rank":379,"kind_detail":"secondary","min_zoom":3.0,"id":34791},"arcs":[735]},{"type":"LineString","properties":{"source":"naturalearthdata.com","kind":"minor_road","sort_rank":355,"kind_detail":"tertiary","min_zoom":5.0,"id":34808},"arcs":[736]},{"type":"LineString","properties":{"source":"naturalearthdata.com","kind":"major_road","sort_rank":379,"kind_detail":"secondary","min_zoom":3.0,"id":34826},"arcs":[737]},{"type":"LineString","properties":{"source":"naturalearthdata.com","kind":"major_road","sort_rank":379,"kind_detail":"secondary","min_zoom":3.0,"id":34841},"arcs":[738]},{"type":"LineString","properties":{"source":"naturalearthdata.com","kind":"major_road","sort_rank":379,"kind_detail":"secondary","min_zoom":3.0,"id":34875},"arcs":[739]},{"type":"LineString","properties":{"source":"naturalearthdata.com","kind":"major_road","sort_rank":379,"kind_detail":"secondary","min_zoom":3.0,"id":34882},"arcs":[740]},{"type":"LineString","properties":{"source":"naturalearthdata.com","kind":"major_road","sort_rank":379,"kind_detail":"secondary","min_zoom":3.0,"id":34904},"arcs":[741]},{"type":"LineString","properties":{"source":"naturalearthdata.com","kind":"minor_road","sort_rank":355,"kind_detail":"tertiary","min_zoom":5.0,"id":34906},"arcs":[742]},{"type":"LineString","properties":{"source":"naturalearthdata.com","kind":"minor_road","kind_detail":"tertiary","sort_rank":355,"landuse_kind":"urban_area","min_zoom":5.0,"id":34932},"arcs":[743]},{"type":"LineString","properties":{"source":"naturalearthdata.com","kind":"minor_road","sort_rank":355,"kind_detail":"tertiary","min_zoom":5.0,"id":34932},"arcs":[744]},{"type":"LineString","properties":{"source":"naturalearthdata.com","kind":"major_road","kind_detail":"secondary","sort_rank":379,"landuse_kind":"urban_area","min_zoom":3.0,"id":34935},"arcs":[745]},{"type":"LineString","properties":{"source":"naturalearthdata.com","kind":"major_road","sort_rank":379,"kind_detail":"secondary","min_zoom":3.0,"id":34935},"arcs":[746]},{"type":"LineString","properties":{"source":"naturalearthdata.com","kind":"major_road","kind_detail":"secondary","sort_rank":379,"landuse_kind":"urban_area","min_zoom":3.0,"id":34940},"arcs":[747]},{"type":"LineString","properties":{"source":"naturalearthdata.com","kind":"minor_road","sort_rank":355,"kind_detail":"tertiary","min_zoom":5.0,"id":34962},"arcs":[748]},{"type":"LineString","properties":{"source":"naturalearthdata.com","kind":"minor_road","sort_rank":355,"kind_detail":"tertiary","min_zoom":5.0,"id":34964},"arcs":[749]},{"type":"LineString","properties":{"source":"naturalearthdata.com","kind":"minor_road","sort_rank":355,"kind_detail":"tertiary","min_zoom":5.0,"id":34972},"arcs":[750]},{"type":"LineString","properties":{"source":"naturalearthdata.com","kind":"minor_road","kind_detail":"tertiary","sort_rank":355,"landuse_kind":"urban_area","min_zoom":5.0,"id":34973},"arcs":[751]},{"type":"LineString","properties":{"source":"naturalearthdata.com","kind":"minor_road","sort_rank":355,"kind_detail":"tertiary","min_zoom":5.0,"id":34973},"arcs":[752]},{"type":"LineString","properties":{"source":"naturalearthdata.com","kind":"minor_road","sort_rank":355,"kind_detail":"tertiary","min_zoom":5.0,"id":34974},"arcs":[753]},{"type":"LineString","properties":{"source":"naturalearthdata.com","kind":"minor_road","kind_detail":"tertiary","sort_rank":355,"landuse_kind":"urban_area","min_zoom":5.0,"id":34976},"arcs":[754]},{"type":"LineString","properties":{"source":"naturalearthdata.com","kind":"minor_road","sort_rank":355,"kind_detail":"tertiary","min_zoom":5.0,"id":34976},"arcs":[755]},{"type":"LineString","properties":{"source":"naturalearthdata.com","kind":"minor_road","sort_rank":355,"kind_detail":"tertiary","min_zoom":5.0,"id":34980},"arcs":[756]},{"type":"LineString","properties":{"source":"naturalearthdata.com","kind":"minor_road","sort_rank":355,"kind_detail":"tertiary","min_zoom":5.0,"id":34985},"arcs":[757]},{"type":"LineString","properties":{"source":"naturalearthdata.com","kind":"major_road","sort_rank":379,"kind_detail":"secondary","min_zoom":3.0,"id":34991},"arcs":[758]},{"type":"LineString","properties":{"source":"naturalearthdata.com","kind":"minor_road","sort_rank":355,"kind_detail":"tertiary","min_zoom":5.0,"id":34992},"arcs":[759]},{"type":"LineString","properties":{"source":"naturalearthdata.com","kind":"minor_road","kind_detail":"tertiary","sort_rank":355,"landuse_kind":"urban_area","min_zoom":5.0,"id":35002},"arcs":[760]},{"type":"MultiLineString","properties":{"source":"naturalearthdata.com","kind":"minor_road","sort_rank":355,"kind_detail":"tertiary","min_zoom":5.0,"id":35002},"arcs":[[761],[762]]},{"type":"LineString","properties":{"source":"naturalearthdata.com","kind":"major_road","kind_detail":"secondary","sort_rank":379,"landuse_kind":"urban_area","min_zoom":3.0,"id":35009},"arcs":[763]},{"type":"LineString","properties":{"source":"naturalearthdata.com","kind":"major_road","sort_rank":379,"kind_detail":"secondary","min_zoom":3.0,"id":35009},"arcs":[764]},{"type":"LineString","properties":{"source":"naturalearthdata.com","kind":"major_road","sort_rank":379,"kind_detail":"secondary","min_zoom":3.0,"id":35120},"arcs":[765]},{"type":"LineString","properties":{"source":"naturalearthdata.com","kind":"minor_road","sort_rank":355,"kind_detail":"tertiary","min_zoom":5.0,"id":35145},"arcs":[766]},{"type":"LineString","properties":{"source":"naturalearthdata.com","kind":"minor_road","sort_rank":355,"kind_detail":"tertiary","min_zoom":5.0,"id":35167},"arcs":[767]},{"type":"LineString","properties":{"source":"naturalearthdata.com","kind":"minor_road","sort_rank":355,"kind_detail":"tertiary","min_zoom":5.0,"id":35169},"arcs":[768]},{"type":"LineString","properties":{"source":"naturalearthdata.com","kind":"major_road","sort_rank":379,"kind_detail":"secondary","min_zoom":4.0,"id":35174},"arcs":[769]},{"type":"LineString","properties":{"source":"naturalearthdata.com","kind":"minor_road","sort_rank":355,"kind_detail":"tertiary","min_zoom":5.0,"id":35183},"arcs":[770]},{"type":"LineString","properties":{"source":"naturalearthdata.com","kind":"minor_road","sort_rank":355,"kind_detail":"tertiary","min_zoom":5.0,"id":35195},"arcs":[771]},{"type":"LineString","properties":{"source":"naturalearthdata.com","kind":"minor_road","sort_rank":355,"kind_detail":"tertiary","min_zoom":5.0,"id":35198},"arcs":[772]},{"type":"LineString","properties":{"source":"naturalearthdata.com","kind":"major_road","kind_detail":"secondary","sort_rank":379,"landuse_kind":"urban_area","min_zoom":3.0,"id":35199},"arcs":[773]},{"type":"MultiLineString","properties":{"source":"naturalearthdata.com","kind":"major_road","sort_rank":379,"kind_detail":"secondary","min_zoom":3.0,"id":35199},"arcs":[[774],[775]]},{"type":"LineString","properties":{"source":"naturalearthdata.com","kind":"minor_road","sort_rank":355,"kind_detail":"tertiary","min_zoom":5.0,"id":35203},"arcs":[776]},{"type":"LineString","properties":{"source":"naturalearthdata.com","kind":"minor_road","sort_rank":355,"kind_detail":"tertiary","min_zoom":5.0,"id":35235},"arcs":[777]},{"type":"LineString","properties":{"source":"naturalearthdata.com","kind":"minor_road","sort_rank":355,"kind_detail":"tertiary","min_zoom":5.0,"id":35245},"arcs":[778]},{"type":"LineString","properties":{"source":"naturalearthdata.com","kind":"minor_road","sort_rank":355,"kind_detail":"tertiary","min_zoom":5.0,"id":35247},"arcs":[779]},{"type":"LineString","properties":{"source":"naturalearthdata.com","kind":"minor_road","sort_rank":355,"kind_detail":"tertiary","min_zoom":5.0,"id":35267},"arcs":[780]},{"type":"LineString","properties":{"source":"naturalearthdata.com","kind":"major_road","sort_rank":379,"kind_detail":"secondary","min_zoom":3.0,"id":35274},"arcs":[781]}]},"earth":{"type":"GeometryCollection","geometries":[{"type":"MultiPolygon","properties":{"sort_rank":10,"source":"naturalearthdata.com","min_zoom":0.0,"kind":"earth","area":955003613469},"arcs":[[[782]],[[783]]]}]},"landuse":{"type":"GeometryCollection","geometries":[{"type":"MultiPolygon","properties":{"kind":"national_park","protect_class":"2","area":21837091966,"sort_rank":18,"source":"openstreetmap.org","min_zoom":3.0,"tier":1,"osm_relation":true},"arcs":[[[784]],[[785]],[[786]],[[787]],[[788],[789],[790],[791]]]},{"type":"MultiPolygon","properties":{"source":"openstreetmap.org","kind":"park","tier":2,"area":6372924043,"sort_rank":24,"min_zoom":6.0,"osm_relation":true},"arcs":[[[792]],[[793]],[[794]],[[795]]]},{"type":"MultiPolygon","properties":{"source":"openstreetmap.org","kind":"national_park","tier":1,"protect_class":"2","area":5682134069,"sort_rank":18,"min_zoom":3.0},"arcs":[[[796]],[[797]]]},{"type":"MultiPolygon","properties":{"source":"openstreetmap.org","kind":"park","tier":2,"area":1109001523,"sort_rank":24,"min_zoom":6.0},"arcs":[[[798]]]},{"type":"MultiPolygon","properties":{"source":"naturalearthdata.com","kind":"urban_area","name":"","area":3716084958,"sort_rank":11,"min_zoom":4.0},"arcs":[[[799]],[[800]],[[801]],[[802]],[[803]],[[804]],[[805]],[[806]],[[807]],[[808]],[[809]],[[810]]]},{"type":"MultiPolygon","properties":{"kind":"national_park","protect_class":"2","area":1480615346,"sort_rank":18,"source":"openstreetmap.org","min_zoom":5.0,"tier":1,"osm_relation":true},"arcs":[[[811]],[[812]],[[813]],[[814],[815],[816],[817]]]},{"type":"MultiPolygon","properties":{"source":"openstreetmap.org","kind":"nature_reserve","tier":2,"area":3603853482,"sort_rank":23,"min_zoom":4.0,"osm_relation":true},"arcs":[[[818]]]},{"type":"MultiPolygon","properties":{"source":"openstreetmap.org","kind":"park","tier":2,"area":33455377302,"sort_rank":24,"min_zoom":4.0,"osm_relation":true},"arcs":[[[819]],[[820]],[[821]],[[822]],[[823]],[[824]],[[825],[826]],[[827]],[[828]],[[829]],[[830]]]},{"type":"MultiPolygon","properties":{"source":"openstreetmap.org","kind":"nature_reserve","tier":2,"area":788429976,"sort_rank":23,"min_zoom":6.0},"arcs":[[[831]]]},{"type":"MultiPolygon","properties":{"source":"openstreetmap.org","kind":"nature_reserve","tier":2,"area":4333563828,"sort_rank":23,"min_zoom":6.0,"osm_relation":true},"arcs":[[[832]],[[833]],[[834]],[[835]]]}]}},"type":"Topology","transform":{"translate":[101.25,16.6361918784],"scale":[0.001373291,0.0012956186]},"arcs":[[[0,2259],[1,-2],[3,-10],[1,-19],[-4,-22],[-1,-2]],[[0,1912],[30,-27],[19,-22],[7,-23],[-31,-30],[-5,-11],[-7,-25],[-8,-12],[-5,-6]],[[1556,1393],[7,0],[40,-12],[14,-3]],[[1339,1157],[15,5],[13,8],[8,11],[5,17],[4,26],[5,12],[8,9],[6,4],[6,3],[22,3],[16,6],[26,5],[10,3],[6,6],[1,7],[-4,6],[-31,21],[-6,3],[-1,4],[-2,3],[-2,3],[1,5],[7,19],[12,16],[16,11],[18,8],[58,12]],[[1630,1380],[7,0],[18,-5],[19,-2],[42,-11],[11,-8],[6,-6],[6,-4],[42,-19],[10,-2],[42,-3],[13,-2],[12,-4],[11,-6],[11,-8],[8,-9],[5,-10],[6,-7],[12,-3]],[[1617,1378],[3,0],[10,2]],[[1967,1310],[18,-2],[18,-10],[13,-15],[36,-64],[31,-78],[9,-15],[9,-12],[46,-42],[4,-5],[5,-8],[32,-72],[7,-23],[4,-9],[6,-7],[3,-2],[4,-4],[47,-29],[11,-14],[17,-34],[10,-13],[3,-5],[2,-5],[5,-15],[3,-6],[22,-26],[21,-20],[113,-60],[14,-5],[34,-22],[9,-10],[14,-21],[11,-23],[6,-6],[5,-4],[13,-7],[5,-5],[3,-4],[17,-39],[2,-10],[1,-9],[-3,-38],[1,-46],[-2,-35],[-4,-18],[-47,-113],[-3,-17],[4,-46],[2,-25],[3,-9],[7,-16],[3,-8],[0,-9],[-1,-9],[-5,-18],[-1,-2],[-1,-7],[1,-9],[15,-64],[1,-8],[-1,-8],[-10,-29],[-4,-16]],[[1911,1271],[5,1],[3,2],[3,3],[3,5],[12,14],[14,9],[16,5]],[[603,1218],[21,-1],[34,-2],[13,-8],[5,-11],[3,-13],[7,-13],[22,-16],[2,-2],[6,-4],[17,-23],[36,-33],[22,-11]],[[462,1076],[14,5],[111,120],[11,13],[5,4]],[[1342,1162],[-2,-4],[-1,-1]],[[1289,1040],[13,5],[8,11],[7,11],[7,6],[4,7],[-7,45],[2,14],[3,11],[7,7],[5,3],[3,1],[1,1]],[[398,1109],[7,-8],[28,-8],[29,-17]],[[255,940],[8,9],[6,15],[12,7],[68,14],[2,15],[18,51],[7,33],[6,14],[12,11],[4,0]],[[813,1083],[14,-18],[19,-17],[25,-13],[26,-5],[62,0],[24,-12],[9,-31],[-12,-50],[0,-7],[10,-3],[37,-19],[16,-2]],[[791,1081],[22,2]],[[1241,1062],[14,-3],[22,-15],[12,-4]],[[1043,906],[0,6],[-7,11],[-4,14],[4,12],[10,6],[26,6],[11,7],[27,25],[42,23],[4,9],[11,6],[63,29],[11,2]],[[239,951],[16,-11]],[[159,837],[2,2],[2,6],[4,5],[3,6],[14,16],[25,10],[14,10],[-16,14],[8,3],[14,5],[4,7],[4,8],[2,10],[0,12]],[[148,860],[2,0],[1,-4],[1,-4],[7,-15]],[[122,846],[11,1],[9,9],[3,3],[3,1]],[[111,847],[11,-1]],[[93,808],[4,1],[13,17],[1,2],[1,5],[-4,1],[-7,1],[-5,2],[4,7],[11,3]],[[87,808],[6,0]],[[0,740],[78,65],[9,3]],[[398,3525],[6,1],[6,4],[5,5],[1,4],[1,2],[1,8],[-3,10],[-6,8],[-8,7],[-9,6],[-38,14],[-10,9],[-5,13],[0,13],[7,29],[3,76],[11,17],[3,14],[-10,31],[1,13],[11,7],[16,2],[15,4],[9,14],[-2,15],[-10,6],[-14,4],[-11,8],[-2,8],[2,16],[0,8],[-5,6],[-11,10],[-4,5],[0,12],[3,13],[14,44],[0,7],[-18,16],[-4,6],[-9,19],[-17,23],[-2,6],[0,6],[-1,6],[-5,7],[-26,7],[-3,2]],[[0,3513],[7,-6],[11,-4]],[[178,3556],[17,-1],[16,-3],[24,-8],[5,0],[3,-3],[3,-8],[-1,-7],[-4,-8],[-3,-7],[4,-7],[10,-2]],[[18,3503],[13,1],[16,7],[35,24],[14,5],[82,16]],[[381,3528],[17,-3]],[[341,3472],[14,2],[13,5],[8,5],[2,8],[1,8],[-5,11],[-3,8],[10,9]],[[281,3514],[14,0],[11,-9],[13,-24],[12,-9],[10,0]],[[252,3502],[29,12]],[[916,4096],[6,-3],[32,-11],[23,-18],[24,-56],[7,-32],[-3,-45],[1,-18],[4,-17],[5,-12],[5,-8],[2,-1]],[[1134,4013],[14,-11],[6,-35],[-2,-31],[2,-15],[9,-9]],[[1022,3875],[3,1],[38,1],[8,2],[23,15],[16,20],[9,25],[2,62],[13,12]],[[1233,3938],[3,-1],[6,-10],[3,-9],[1,-8],[0,-53],[2,-19],[7,-17],[1,-2],[0,-2],[0,-3],[-1,-2],[-14,-14],[-27,-33],[-16,-15],[-33,-54]],[[1163,3912],[13,1],[52,22],[5,3]],[[1205,3718],[10,-2],[-1,-9],[-24,-39],[-3,-16],[-1,-35],[-3,-13],[-8,-9],[-25,-6],[-12,-9],[-8,-15],[5,-3]],[[1165,3696],[11,6],[14,9],[15,7]],[[1149,3563],[16,-1],[11,-4],[10,-6],[7,-9],[3,-9],[0,-7],[-7,-15],[0,-8],[5,-7],[5,-2],[6,0],[7,-5],[8,-13],[7,-30],[5,-13],[4,-7],[3,-6],[6,-2]],[[1135,3562],[14,1]],[[1255,3420],[19,-8],[11,-13],[16,-34],[23,-50],[13,-23],[21,-25],[11,-11],[5,-3],[7,-4],[13,-2],[8,-1],[6,-4],[10,-7],[7,-2],[8,0]],[[1245,3419],[10,1]],[[2070,3338],[5,-3],[11,-8],[6,-3],[7,-1],[16,0],[8,-1],[21,-8],[5,-3],[4,-6],[8,-16],[2,-4]],[[1984,3293],[26,4],[34,39],[26,2]],[[1975,3293],[9,0]],[[1869,3250],[7,1],[7,3],[11,10],[6,3],[53,18],[15,6],[7,2]],[[2192,3290],[6,-2],[8,-4],[6,-4],[5,-5],[9,-11],[12,-24],[9,-12],[6,-4],[12,-4],[5,-4],[4,-6],[6,-13],[6,-6],[15,-4]],[[2163,3285],[6,0],[16,5],[7,0]],[[1854,3252],[15,-2]],[[1767,3103],[6,1],[9,3],[8,4],[4,4],[0,6],[-7,15],[-1,7],[3,10],[5,3],[6,1],[9,3],[15,10],[3,5],[-3,7],[-1,16],[2,13],[6,15],[8,15],[7,8],[8,3]],[[1454,3237],[12,-3],[41,-22],[20,-7],[8,-1],[4,0]],[[1433,3233],[6,1],[9,3],[6,0]],[[1585,3230],[10,-4],[9,-9],[13,-26],[8,-10],[6,-4],[5,-3],[7,-2],[7,0]],[[1539,3204],[19,5],[1,1],[15,8],[5,5],[2,5],[4,2]],[[2317,3187],[15,-1],[10,-11],[7,-24],[12,-13],[38,-18],[41,-14],[10,-11],[0,-3],[-5,-18],[-47,-64],[-16,-13],[-18,-6]],[[2301,3187],[16,0]],[[1650,3172],[45,-10],[14,-8],[28,-31],[16,-14],[3,-3],[3,-2],[8,-1]],[[1650,3172]],[[2364,2991],[-20,4],[-17,14]],[[2327,3009],[-16,-30],[-42,-29],[-5,-14],[24,-15],[29,-7]],[[2422,2916],[10,-6],[16,-23],[12,-8],[28,-11],[10,-9],[3,-6],[2,-8],[1,-9],[0,-7],[-5,-11],[-6,-2]],[[2317,2914],[105,2]],[[2493,2816],[-6,1]],[[2487,2817],[-6,-5],[-3,-10],[-1,-16],[1,-15],[3,-11],[25,-12]],[[2599,2767],[65,-35],[0,-6],[-4,-8],[1,-18],[10,-14],[28,-19],[6,-12],[-3,-3],[-10,-2],[-2,-2],[0,-5],[2,-6],[1,-15],[2,-9],[2,-10],[-3,-10],[-3,-3],[-7,-6],[-10,-1]],[[2506,2748],[31,6],[33,11],[29,2]],[[2674,2583],[-21,2]],[[2653,2585],[-14,-2],[-4,-4],[-1,-7],[-7,-10],[-16,-13],[-40,-24],[-14,-17],[-4,-14],[3,-5],[22,-1],[14,-5],[5,-4],[0,-7],[-1,-13],[-7,-24],[-15,-11],[-18,-8],[-17,-16],[-14,-4],[-10,-1],[-9,-3],[-11,-8],[-10,-11],[-6,-10],[-23,-61],[-6,-9],[-7,0]],[[2217,2330],[-13,22],[-25,9],[-10,8]],[[2169,2369],[-21,-5],[-30,-9],[-16,0],[-4,-4],[-5,-5],[-5,-11],[-6,-5],[-15,-2]],[[2383,2287],[-12,3],[-41,25],[-19,8],[-6,4],[-10,10],[-7,10],[-9,6],[-14,2]],[[2265,2355],[-14,-3],[-34,-22]],[[2067,2328],[-14,4],[-35,18],[-8,3]],[[2010,2353],[-7,-3],[-4,-12],[2,-10],[14,-40],[9,-11],[22,-14],[9,-7],[4,-13],[1,-13],[3,-12],[8,-11],[-3,-9],[-6,-4],[-8,-1],[-7,-5],[-5,-8],[-3,-18],[-3,-8],[-5,-10],[-1,-1]],[[2443,2293],[-12,7],[-7,1]],[[2424,2301],[-6,-2],[-11,-7],[-7,-3],[-17,-2]],[[2030,2143],[-2,3]],[[2028,2146],[-11,-1],[-17,-6],[-16,-9],[-16,-4],[-8,-7],[-15,-22],[-11,-9],[-26,-11],[-10,-8],[-6,-13],[7,-4]],[[1913,2053],[11,-2],[10,-18],[4,-6],[5,-3],[18,-10],[22,-16]],[[1899,2052],[14,1]],[[2014,2006],[15,-4],[81,-36],[29,-21],[8,-7],[2,-15],[0,-14],[7,-7]],[[1983,1998],[1,0],[15,7],[15,1]],[[2177,1909],[15,-4],[10,-8],[10,-10],[11,-10],[14,-6],[12,-4],[12,-6],[12,-11],[21,-31],[9,-8],[13,-2]],[[2156,1902],[21,7]],[[2339,1811],[14,-4],[12,-7],[9,-9],[25,-38],[8,-8],[25,-14],[10,-8],[20,-20],[11,-8],[7,-2],[14,-1],[8,-3],[4,-4],[8,-13],[6,-5],[8,-3],[30,-4],[28,-9],[10,-1]],[[2316,1809],[23,2]],[[2638,1653],[19,-6],[8,-19],[7,-8],[13,-3]],[[2596,1650],[42,3]],[[2712,1621],[12,-3],[36,-21],[18,-7]],[[2685,1617],[14,0],[13,4]],[[2804,1595],[9,-3],[20,-35],[16,-11],[5,-7],[0,-9],[0,-3],[-5,-13],[-8,-1]],[[2778,1590],[9,1],[8,2],[9,2]],[[2841,1513],[-8,3]],[[2833,1516],[-9,-1],[-11,-14],[-9,-23],[-11,-43],[-4,-32],[8,-21],[17,-17],[23,-17],[12,-13],[0,-9],[-5,-10],[1,-17],[7,-10],[35,-22],[4,-5],[7,-12],[4,-5],[8,-2]],[[2940,1248],[4,0],[5,-9],[1,-8],[-5,-19],[1,-8],[7,-12],[12,-8],[13,-6],[12,-3],[5,-3],[2,-3],[2,-1]],[[2910,1243],[8,1],[19,2],[3,2]],[[3029,1208],[16,-1],[14,-6],[12,-9],[4,-7],[6,-21],[0,-4],[-1,-4],[-2,-3],[-1,-2],[4,-3],[8,-2],[3,-2],[12,-27],[6,-6],[13,-7],[6,-6],[4,-8],[2,-18],[3,-8],[5,-5],[17,-10],[10,-20],[2,-4],[-9,-59],[8,-26],[29,-26],[18,-37],[17,-22],[6,-13],[9,-29],[7,-12],[9,-8],[38,-17],[24,-15],[19,-19],[47,-62],[15,-17]],[[2999,1168],[7,5],[3,5],[3,17],[4,8],[13,5]],[[3410,663],[63,-78],[121,-106],[16,-8],[10,-1]],[[3409,663],[1,0]],[[3657,505],[9,-4],[2,-7],[-1,-8],[2,-9],[3,-6],[10,-10],[3,-5],[-1,-7],[-5,-12],[-1,-8],[4,-12],[22,-37],[35,-33],[7,-14],[0,-4],[-5,-8],[0,-4],[12,-25],[4,-7],[1,-7],[0,-1],[7,-5],[12,-6],[14,-6],[13,-2],[17,-5]],[[3620,470],[9,5],[10,11],[4,7],[1,6],[4,5],[9,1]],[[3841,273],[6,-13],[0,-17],[1,-206],[5,-19],[6,-17],[1,-1]],[[3821,253],[20,20]],[[2812,3911],[47,-28],[41,-37],[34,-38],[28,-43]],[[1667,4096],[8,-43]],[[3763,3151],[-117,-18]],[[1580,1038],[2,0],[3,1],[4,4],[3,2]],[[1565,1042],[3,0],[5,-2],[7,-2]],[[1565,950],[6,10],[-1,11],[-5,8],[-5,11],[0,5],[0,3],[5,2],[2,2],[0,2],[-2,5],[-8,10],[-5,10],[-1,5],[1,3],[2,1],[2,2],[2,0],[2,1],[5,1]],[[2146,193],[31,8]],[[2106,199],[13,-1],[6,0],[6,-2],[5,-3],[10,0]],[[2056,152],[20,3],[8,7],[7,9],[2,3],[1,3],[1,7],[1,5],[3,6],[3,3],[4,1]],[[2134,0],[-1,10],[0,3],[4,11],[-2,3],[-3,3],[-4,5],[-2,5],[0,5],[-2,4],[-4,5],[-13,22],[-5,12],[-3,5],[-3,4],[-2,1],[-2,2],[-3,3],[-12,17],[-3,5],[-3,5],[-5,6],[-10,16]],[[580,788],[-2,1],[-2,1],[-2,5],[-2,5],[-8,47],[0,4],[1,5],[5,21],[1,3],[2,1],[5,3],[1,2],[1,4],[-2,6],[0,5],[5,17],[1,3],[0,6],[-2,21],[-4,11],[-1,2],[-3,4],[0,3],[-2,15],[-6,29],[-1,15],[-1,6],[-1,3],[1,2],[3,2],[3,1],[3,2],[1,5],[1,11],[2,7],[6,16],[2,7],[1,4],[3,28]],[[634,731],[-4,6],[-2,5],[-3,6],[-2,2],[-1,2],[-2,2],[-4,3],[-2,2],[-2,2],[-1,4],[-2,6],[-1,2],[-8,31],[-2,7],[-3,3]],[[595,814],[-1,-1],[-1,-3],[-1,-3],[0,-3],[-3,-4],[-1,-3],[0,-3],[-1,-3],[-2,-2],[-2,-1],[-3,0]],[[365,26],[4,9],[13,14],[9,20],[1,4],[0,5],[-1,3],[3,20]],[[1340,1158]],[[3891,3095]],[[3933,3382]],[[3484,2593]],[[3318,2036]],[[3836,1019]],[[3900,3388],[28,-6]],[[3928,3382],[5,0]],[[3317,3656],[31,-7],[35,-23],[18,-5]],[[3293,3648],[9,6],[5,1],[10,1]],[[3423,2856],[-35,20],[-30,25],[-15,19]],[[3501,2781],[-7,1],[-14,14],[-7,4],[-20,2],[-11,4],[-10,8],[-7,22],[-2,20]],[[3542,2622],[28,72],[7,36],[0,13],[-2,11],[-3,10],[-4,6],[-5,4],[-6,1],[-12,1],[-4,2],[-4,3],[-4,5],[-3,3],[-3,2],[-4,0]],[[3523,2791],[-4,-1],[-6,-3],[-6,-4],[-6,-2]],[[3484,2593],[0,3],[18,14],[4,4],[3,4],[1,4],[0,6],[-2,7],[-5,8],[-8,5],[-12,3],[-24,2],[-13,4],[-13,8],[-15,11],[-18,12],[-42,12],[-31,16],[-47,32],[-154,132]],[[3629,2913],[-10,3],[-4,8],[0,11],[3,17],[-1,6],[-2,5],[-4,4],[-5,2],[-5,1],[-4,2],[-4,3]],[[3661,2851],[-7,1],[-3,10],[3,10],[5,8],[4,8],[-1,11],[-5,11],[-8,4]],[[3649,2914],[-20,-1]],[[3805,2815],[-10,0],[-5,1],[-3,2],[-30,22],[-11,13],[-6,6],[-23,12],[-4,7],[-11,1]],[[3702,2879],[-8,-4],[-15,-15],[-8,-6],[-10,-3]],[[3825,2828],[-1,0],[-6,-8],[-4,-3],[-5,-1],[-4,-1]],[[3343,2920],[-25,4],[-26,13],[-8,0]],[[3284,2937],[-9,-3],[-25,-14],[-5,-5],[-1,-4],[1,-7],[4,-11],[3,-13],[1,-14],[-1,-11],[-6,-8],[-9,-3]],[[3237,2844],[-15,3],[-14,7],[-39,33],[-12,6],[-9,2]],[[3148,2895],[-8,-1],[-14,-14]],[[3763,3151],[10,-37],[13,-33],[8,-14],[6,-7]],[[3889,3096],[2,-1]],[[3838,3065],[6,1],[6,3],[5,4],[2,5],[1,4],[2,4],[3,3],[5,1],[15,3],[6,3]],[[3819,3066],[19,-1]],[[3800,3060],[5,1],[9,3],[5,2]],[[2812,3911],[-10,11],[-5,9],[-4,16],[2,13],[9,22],[-5,15],[-13,18],[-48,52],[-10,14],[1,15]],[[3043,3581],[5,3],[8,5],[3,4],[5,7],[0,9],[-5,9],[-23,29],[-13,28],[-7,9],[-12,5],[-8,1],[-9,7],[-6,7],[-19,61]],[[3017,3751],[49,1],[21,4],[36,14],[12,6],[16,12]],[[2962,3765],[55,-14]],[[2847,3319],[-16,3],[-16,7],[-54,46],[-72,34],[-11,9],[-6,6],[-8,22]],[[2955,3377],[6,-9],[5,-6],[5,-8],[2,-20],[0,-29],[-12,-3]],[[2961,3302],[-15,1],[-62,17],[-12,1]],[[2872,3321],[-25,-2]],[[2812,3911],[-29,-19],[-14,-5],[-40,-9],[-19,-6],[-18,-10],[-18,-15],[-14,-19],[-9,-22],[-2,-34],[6,-29],[16,-50],[1,-18],[-8,-14],[-10,-11],[-48,-27]],[[2664,3446],[-19,-30],[-2,-12],[1,-6],[-1,-12],[9,-11],[8,-14],[8,-21],[60,-67],[6,-3],[7,-10],[53,-36],[3,-5],[1,-10],[-3,-1],[-5,-7],[-3,-9],[-18,-3],[-4,-4],[-10,-10],[-14,-8],[-14,-5],[-15,-2]],[[2712,3160],[-64,3]],[[2648,3163],[-12,-1],[-9,-4],[-7,-8],[-6,-16],[-1,-32],[3,-23]],[[2126,3877],[-112,20],[-66,27]],[[2345,3648],[-18,4],[-64,38],[-21,21],[-9,19],[-4,21],[1,23],[4,29],[8,28],[15,42],[0,13],[-5,11],[-12,11],[-14,8]],[[2226,3916],[-14,-1],[-13,-7],[-28,-23],[-20,-7],[-25,-1]],[[2505,3662],[-12,1],[-15,6],[-20,12],[-16,6]],[[2442,3687],[-16,0],[-17,-7],[-49,-30],[-15,-2]],[[2592,3620],[-10,1],[-12,6],[-10,14],[-6,12],[-7,12],[-9,5]],[[2538,3670],[-11,0],[-22,-8]],[[2606,3623],[-14,-3]],[[2664,3446],[-10,12],[-12,10],[-3,6],[-2,9],[3,43],[-7,35],[-27,62]],[[1675,4053],[5,-103],[9,-62],[-1,-24],[-5,-25],[-11,-20],[-15,-18],[-33,-28],[-10,-15],[-5,-13],[-4,-18],[-6,-10],[-7,-7],[-29,-12],[-8,-7],[-6,-9],[-1,-9],[3,-6],[5,-4],[5,-4],[2,-7],[-2,-11],[1,-9],[5,-7],[27,-21],[5,-12],[3,-18],[-2,-30],[-5,-22],[-14,-30],[-2,-11],[2,-12],[11,-29],[1,-16],[-5,-8],[-10,-5],[-13,-2]],[[1565,3409],[-14,0],[-13,2],[-12,6],[-11,8],[-9,6],[-9,2]],[[1497,3433],[-8,-1],[-5,-4],[-2,-6],[1,-8],[3,-12],[1,-15],[-3,-10],[-7,-8],[-15,-9],[-7,-9],[-3,-11],[-3,-28],[-8,-28],[-3,-26],[1,-21],[0,-3]],[[2779,3040],[-93,12],[-14,6],[-33,16],[-23,5]],[[3126,2880],[-19,0],[-19,5],[-26,9],[-106,54],[-70,49],[-12,11],[-23,34],[-10,7],[-10,3]],[[2831,3052],[-16,-2],[-22,-9],[-14,-1]],[[2556,3039],[-12,3],[-12,6],[-26,20],[-11,10],[-24,14],[-21,0]],[[2616,3079],[-24,-27],[-10,-6],[-14,-6],[-12,-1]],[[3277,1564],[-17,-6],[-9,-5],[-4,-7],[-2,-7],[-4,-2],[-5,-1],[-4,-3],[0,-5],[2,-7],[2,-5]],[[3031,1506],[-20,4],[-81,26]],[[2930,1536],[-57,-5],[-19,-1]],[[3237,1517],[-11,-19],[-13,-5]],[[3236,1516],[1,1]],[[3213,1493],[-17,5],[-5,3],[-9,1],[-4,0],[-81,11]],[[3097,1513],[-31,-2],[-17,-4],[-18,-1]],[[2932,2221],[-3,4],[-1,14],[1,32],[-1,16],[-6,16],[-11,15],[-42,37],[-16,21],[-16,33],[-6,23],[-1,18],[3,13],[5,11],[18,18],[5,10],[0,10],[-7,11],[-13,8],[-43,12],[-21,8],[-36,22],[-37,14],[-13,3]],[[3048,2187],[-14,3],[-11,8],[-23,32],[-10,11],[-10,7],[-10,1]],[[2970,2249],[-8,-3],[-7,-6],[-16,-17],[-7,-2]],[[3318,2036],[-31,15],[-47,7],[-9,5],[-40,41],[-15,10],[-10,5],[-8,5],[-7,7],[-19,30],[-12,14],[-20,12],[-17,3]],[[3083,2190],[-35,-3]],[[2322,4096],[-2,-7],[-8,-12],[-10,-10],[-12,-5]],[[2146,4053],[-7,1],[-7,7],[-9,6],[-11,5],[-13,2],[-31,3],[-15,2],[-13,6],[-13,8],[-3,3]],[[1978,4096],[-5,-13],[-15,-23],[-13,-14],[-5,-7],[-2,-6],[1,-6],[24,-37],[5,-10],[1,-10],[-3,-11],[-9,-21],[-9,-14]],[[2290,4062],[-15,0],[-17,6],[-60,27],[-2,1]],[[2164,4096],[0,-3],[0,-11],[-4,-12],[-8,-13],[-6,-4]],[[1914,3915],[-16,6],[-16,13],[-90,99],[-14,25],[-14,38]],[[1948,3924],[-21,-6],[-13,-3]],[[3004,3386],[45,-4],[20,-5],[16,-9],[13,-10],[10,-12],[7,-13],[3,-11],[1,-10],[-1,-9],[-17,-29],[-2,-12],[1,-12],[6,-14],[12,-11],[59,-41],[12,-15],[8,-15],[10,-33],[7,-15],[12,-18],[8,-8],[10,-5],[11,-3],[13,-5],[12,-7],[23,-25]],[[2955,3377],[49,9]],[[3286,3449],[-10,3],[-8,4],[-21,18],[-28,16],[-10,2],[-104,5],[-7,2],[-7,3],[-13,10],[-8,8],[-7,9],[-12,21],[-4,13],[-4,18]],[[3043,3581],[-2,13],[-8,11],[-15,4]],[[3018,3609],[-15,-2],[-15,-6],[-3,-7],[-5,-10],[-2,-5],[3,-27],[-12,-13],[-18,-9],[-13,-14],[-2,-16],[6,-12],[8,-11],[3,-11],[-2,-17],[-11,-23],[-2,-16],[5,-12],[12,-21]],[[3609,3111],[11,5],[9,4],[17,13]],[[3571,3112],[38,-1]],[[3541,3084],[0,14],[9,7],[10,6],[11,1]],[[3464,3147],[-12,1],[-7,2],[-9,11],[-3,30],[-6,13],[-6,3],[-14,4],[-6,4],[-4,6],[-2,8],[-1,8],[1,7],[3,13],[5,12],[1,12],[-10,8],[-7,4],[-4,4],[0,5]],[[3515,3370],[55,-4]],[[3462,3361],[13,5],[40,4]],[[4096,3505],[-37,-12],[-47,0]],[[4012,3493],[-156,25]],[[3462,3361],[6,20],[1,11],[-3,11],[-8,14],[-11,8],[-23,17],[-10,10],[-7,14],[-5,18],[-2,17],[-1,15],[2,13],[3,10],[15,20]],[[3918,3839],[21,-2],[17,-7],[26,-28],[10,-9],[11,-1]],[[3749,3685],[27,5],[18,11],[13,13],[9,17],[23,58],[13,18],[14,14],[15,10],[19,5],[18,3]],[[4062,3829],[8,-3],[4,-10],[3,-13],[6,-17],[11,-19],[2,-2]],[[4003,3792],[8,4],[17,16],[10,7],[12,7],[12,3]],[[3581,3809],[-7,-20],[1,-11],[4,-11],[9,-7],[14,-4],[24,-3],[23,-6],[22,-10],[45,-42],[15,-7],[18,-3]],[[3419,3559],[61,-27],[13,-5]],[[3511,3528],[10,-2],[13,-5],[81,-13],[10,-3],[17,-7],[8,-6],[13,-13],[13,-7]],[[3493,3527],[18,1]],[[3135,4096],[-4,-24],[-11,-35],[-12,-150],[0,-28],[3,-22],[11,-22],[6,-9],[7,-8],[16,-10]],[[3293,3648],[-6,17],[-6,12],[-11,13],[-76,55],[-43,43]],[[3542,4096],[3,-35],[5,-20],[8,-20],[2,-9],[0,-17],[2,-5],[5,-3],[6,-1],[8,-4],[10,-8],[52,-69],[3,-8],[-1,-6],[-18,-16],[-17,-20],[-29,-46]],[[3298,4096],[2,-6],[1,-8],[0,-10],[-2,-11],[-1,-12],[4,-19],[1,-15],[1,-8],[6,-16],[1,-8],[3,-7],[4,-6],[5,0]],[[3323,3970],[5,3],[4,8],[5,8],[5,8],[8,4],[11,1],[13,1],[12,3],[11,6],[35,29],[11,6],[17,6],[5,5],[8,14],[5,7],[7,5],[11,5],[8,4],[16,3]],[[3507,3857],[44,-6],[13,-4],[8,-7],[4,-7],[5,-24]],[[3461,3686],[12,0],[12,6],[11,11],[12,21],[3,16],[0,16],[-23,82],[-1,9],[2,6],[7,3],[11,1]],[[3452,3687],[9,-1]],[[3401,3621],[37,63],[7,3],[7,0]],[[3763,3151],[31,2],[7,4],[8,5],[40,38],[5,10],[-1,7],[-17,8],[-8,6],[-8,7],[-4,10],[4,12],[10,8],[13,6],[5,8],[1,10],[-2,12],[2,15],[6,9],[9,6],[13,2],[9,4],[5,8],[0,8],[9,32]],[[3856,3518],[-9,-17],[-12,-17],[-8,-9],[-8,-7],[-9,-5],[-18,-6],[-8,-6],[-4,-7],[-1,-9],[1,-10],[3,-7],[9,-6],[15,-3],[72,-9],[21,-12]],[[3570,3366],[5,-55],[-20,-43],[-5,-15],[-2,-14],[3,-15],[9,-13],[23,-18],[15,-10],[48,-50]],[[3624,3357],[16,1],[21,3],[13,8],[8,9],[5,14],[2,15],[-1,16],[-12,49]],[[3570,3366],[54,-9]],[[3792,3548],[22,-4],[19,-8],[11,-8],[12,-10]],[[3676,3472],[23,41],[16,14],[25,13],[26,6],[26,2]],[[3286,3449],[-1,13],[12,27],[2,17],[-10,65],[5,50],[-1,27]],[[3462,3361],[-52,-9],[-7,-4],[-8,-6],[-6,-14],[-1,-6],[-3,-7],[-2,-13]],[[3401,3621],[15,-30],[4,-18],[-1,-14]],[[3593,2975],[-22,-2]],[[3571,2973],[-11,1]],[[3560,2974],[-26,-5]],[[3534,2969],[-11,2]],[[3523,2971],[-13,-2],[-10,-7],[-12,-21],[-5,-15],[-5,-11],[-9,-6],[-7,0]],[[3462,2909],[-4,3],[-5,12],[-4,3]],[[3449,2927],[-5,-2],[-8,-5],[-12,-22],[-1,-42]],[[3541,3084],[9,-5],[2,-7],[2,-21],[4,-11],[16,-13],[7,-9],[3,-11],[4,-22],[5,-10]],[[3343,2920],[-23,57],[-17,58]],[[3464,3147],[-14,-20],[-8,-5],[-16,-5]],[[3426,3117],[-25,3]],[[3401,3120],[-40,-17],[-11,0]],[[3350,3103],[-9,2],[-4,3]],[[3337,3108],[-5,-2],[-6,-10],[-6,-20],[-17,-41]],[[3464,3147],[10,-1],[7,-3],[2,-5],[-1,-6],[-3,-7],[-2,-9],[2,-8],[3,-7],[16,-24],[4,-5],[13,-1]],[[3515,3071],[26,13]],[[3662,982],[-23,1],[-79,15],[-45,13],[-11,7],[-3,6],[0,7],[2,8],[-1,9],[-4,11],[-8,12],[-10,11],[-14,10],[-17,7],[-43,8]],[[3406,1107],[-26,-1],[-23,-4],[-29,-12],[-47,-14],[-14,-6],[-19,-17],[-21,-15],[-35,-6],[-22,-3]],[[3830,1019],[-31,7],[-59,6]],[[3740,1032],[-26,-5],[-13,-9],[-8,-12],[-8,-12],[-7,-9],[-16,-3]],[[3836,1019],[-6,0]],[[4004,251],[27,4],[23,9],[9,13],[10,16],[10,23],[13,18]],[[3887,259],[117,-8]],[[3847,243],[18,6],[22,10]],[[598,192],[-12,-10],[-2,-2],[-4,-2],[-6,-2],[-9,-1],[-6,-2],[-5,-2],[-11,-8],[-3,-2],[-4,-1]],[[536,160],[-6,1],[-8,3],[-2,0]],[[520,164],[-3,0],[-3,-1],[-16,-8],[-46,-31],[-58,-23]],[[589,1121],[10,39],[5,11],[4,2],[7,5],[6,6],[2,4],[2,4],[0,22],[-1,3]],[[1646,1102],[7,-1]],[[1592,1045],[2,1],[9,1],[2,0],[4,2],[6,6],[5,6],[2,4],[2,3],[0,3],[0,3],[-2,12],[1,2],[1,2],[2,1],[5,2],[3,1],[2,2],[3,3],[2,2],[3,1],[2,0]],[[1663,1101],[3,0],[3,-1],[8,-4],[6,-3],[2,-1],[2,-2],[1,-2],[2,-1],[3,-1]],[[1653,1101],[10,0]],[[1698,1086],[3,-1],[2,-1],[3,-4],[5,-7],[6,-7],[1,-1],[3,-1],[13,-2],[2,-1],[2,-1],[0,-2],[0,-1],[-2,-2],[-2,-1],[-6,-2],[-1,0],[-2,-1],[-1,-2],[0,-3],[0,-2],[2,-8],[1,-3],[1,-2],[8,-5],[4,-2]],[[1693,1086],[5,0]],[[1748,1024],[4,-1],[3,-1],[0,-3],[0,-2],[1,-2],[4,-2],[9,-1],[5,-1],[3,-2],[2,-1],[1,-2],[3,-1],[4,-1],[2,-1],[2,-2],[5,-6],[7,-6],[5,-3],[5,-2]],[[1740,1024],[8,0]],[[1827,1010],[2,0],[1,-2],[-1,-5],[-1,-2],[0,-3],[2,-2],[6,-2],[2,-3],[1,-2],[-2,-4],[0,-3],[0,-2],[1,-3],[2,-4],[0,-2],[0,-2],[-1,-2],[-2,-1],[-4,-2],[-2,-1],[-2,-2],[-1,-2],[0,-2],[0,-3],[2,-4],[3,-3],[7,-6],[1,-1],[6,-5],[6,-3],[4,-1]],[[1813,984],[2,1],[1,2],[2,10],[0,3],[1,2],[2,3],[2,2],[4,3]],[[1929,956],[2,0],[1,-2],[-1,-2],[-1,-2],[-1,-2],[0,-2],[-1,-5],[-1,-3],[0,-3],[1,-2],[2,-2]],[[1907,942],[2,1],[1,2],[2,4],[2,2],[4,2],[7,3],[4,0]],[[1896,956],[2,-1],[1,-2],[1,-5],[2,-3],[2,-2],[3,-1]],[[1878,949],[4,0],[2,0],[2,1],[4,4],[4,2],[2,0]],[[1864,951],[14,-2]],[[1857,931],[3,1],[1,2],[-1,2],[-1,2],[-3,5],[-1,2],[0,3],[4,3],[5,0]],[[1941,937],[3,0],[1,-1],[1,-5],[0,-6],[-2,-5],[0,-2],[-1,-3],[0,-2],[1,-3],[0,-2],[2,-2],[1,-1],[6,-4],[2,-1],[0,-2],[0,-8],[3,-3],[4,-2],[9,-3],[4,-3],[3,-2],[2,-3],[1,0]],[[1930,931],[2,0],[2,1],[2,2],[2,1],[3,2]],[[1981,874],[2,0],[4,6],[1,1],[2,1],[5,2],[2,1],[1,2],[0,2],[1,5],[11,5]],[[2022,864],[-3,0],[-2,4],[-2,6],[-1,13],[-4,12]],[[2042,848],[-2,1],[-1,5],[-1,5],[0,1],[-6,6],[-2,1]],[[2030,867],[-2,0],[-4,-2],[-2,-1]],[[2067,572],[-3,0],[-3,1],[-2,1],[-2,2],[-2,1],[-3,0],[-3,1],[-4,1],[-5,4],[-3,3],[-1,3],[-2,6],[-1,3],[-23,45],[-1,2],[0,3],[1,3],[1,2],[7,14],[8,15],[2,9],[0,6],[1,13],[3,8],[4,10],[2,5],[0,4],[-1,3],[-1,3],[-1,2],[-3,4],[-2,2],[-5,16],[0,3],[1,3],[3,1],[2,1],[6,0],[5,2],[3,2],[3,3],[10,20],[0,3],[-2,2],[-3,1],[-1,3],[0,4],[3,5],[0,3],[-1,5],[-2,4],[-2,10],[-2,4],[-2,3]],[[2046,849],[-2,-1],[-2,0]],[[2263,604],[-25,3]],[[2238,607],[-10,-1],[-2,0],[-3,-1],[-6,-1],[-9,-1],[-3,0],[-2,-2],[-5,-2],[-2,-1],[-18,-2],[-8,-2],[-3,0]],[[2177,201],[27,20],[10,6],[5,1],[4,2],[3,4],[2,5],[7,17],[2,5],[1,2],[9,5],[34,21],[8,9],[1,9],[0,3],[-1,1],[-4,2],[-9,6],[-9,4],[-1,4],[-1,5],[1,13],[2,5],[2,4],[3,1],[1,1],[7,8],[10,10],[3,4],[1,4],[-1,14],[3,21],[9,24],[2,5],[5,5],[4,5],[7,7],[1,5],[1,4],[0,1],[-2,5],[-4,9],[-2,5],[-1,4],[1,14],[-1,4],[0,2],[-3,4],[-1,4],[0,4],[1,12],[-1,4],[-2,5],[-1,2],[-5,6],[-1,15],[1,21],[0,8],[-1,5],[-3,0]],[[2301,606],[-38,-2]],[[2139,596],[-19,2]],[[2120,598],[-3,0],[-2,-1],[-3,-1],[-1,-2],[-3,-4],[-4,-11],[-2,-2],[-2,-1],[-2,0]],[[2167,594],[-3,0],[-9,2],[-3,0]],[[2152,596],[-13,0]],[[2098,576],[-2,0],[-2,1],[-2,1],[-4,2],[-3,2],[-2,3],[-2,1],[-3,2],[-2,1],[-3,0]],[[2073,589],[-1,-1],[0,-2],[0,-2],[1,-3],[1,-2],[-1,-3],[-1,-2],[-2,-1],[-3,-1]],[[1357,214],[13,-15],[2,-7],[0,-1],[-1,-3],[-4,-9],[-2,-5],[-1,-6],[0,-13],[1,-5],[2,-3],[3,-1]],[[1395,175],[4,-1],[7,-2],[3,-5],[5,-14],[2,-9],[-1,-14],[-3,-14],[-2,-6],[-3,-4],[-3,-4],[-4,-3],[-2,-3],[-1,-5],[0,-22],[0,-3],[-1,-12],[1,-16],[0,-8],[-1,-5],[-1,-3],[-1,-3],[-1,-13]],[[1370,146],[2,1],[3,1],[2,1],[4,3],[3,4],[2,2],[1,2],[1,3],[0,2],[1,6],[0,3],[2,1],[4,0]],[[1417,0],[-3,2],[-13,1],[-8,3]],[[1748,315],[-2,-5],[-2,-2],[-1,-3],[0,-3],[1,-2],[2,-2],[2,-2],[4,-1]],[[1773,300],[5,-2],[6,-3],[10,-8],[6,-6],[1,0],[0,-1],[14,-10],[7,-6],[19,-13],[4,-4],[2,-3],[0,-3],[0,-3],[-3,-8],[-1,-5],[0,-3],[1,-6],[0,-3],[2,-5],[3,-5],[4,-6],[2,-2],[19,-10],[4,-3],[3,-3],[3,-4],[2,-8],[1,-3],[1,-2],[2,-2],[23,-16],[3,-1],[16,-7],[3,-2],[1,-1],[6,-6],[5,-5],[4,-3],[3,-4],[3,-4],[2,-1]],[[1752,295],[6,1],[7,1],[3,1],[5,2]],[[2019,169],[4,-1],[8,-4],[9,-2],[4,-2],[12,-8]],[[1981,139],[3,0],[2,3],[4,7],[3,3],[4,2],[7,2],[4,2],[3,2],[1,2],[5,6],[2,1]],[[1977,140],[4,-1]],[[1959,110],[3,1],[4,5],[1,4],[3,13],[2,5],[2,1],[3,1]],[[956,97],[12,3],[6,1],[12,1],[4,1],[2,0],[1,4],[10,43],[35,87]],[[738,197],[9,-2],[4,-2],[4,-3],[4,-1],[2,-2],[2,-4],[2,-2],[3,-2],[2,-2],[0,-2],[1,-2],[1,-2],[2,-2],[2,0],[2,-1],[2,-1],[1,-3],[0,-2],[0,-2],[1,-2],[3,-4],[1,-2],[1,-2],[1,-5],[1,-2],[2,-1],[4,-1],[6,-1],[5,-2],[2,-1],[3,-1],[7,-2],[2,0],[0,-1],[1,0],[11,-4],[13,-8],[8,-3],[3,0],[4,0]],[[688,170],[4,1],[4,1],[8,6],[2,2],[2,2],[2,2],[5,1],[2,2],[2,2],[3,3],[1,2],[2,1],[3,1],[4,0],[6,1]],[[598,192],[26,-2],[14,-3],[8,-1],[2,-1],[2,0],[10,-6],[4,-2],[10,-2],[2,-1],[7,-3],[2,0],[3,-1]],[[889,125],[3,0],[23,-3],[11,-3],[5,-2],[5,-2],[4,-3],[2,-2],[3,-4],[4,-6],[1,-2],[3,-1],[3,0]],[[860,118],[11,2],[12,4],[3,1],[3,0]],[[634,731],[15,-44],[0,-14],[-6,-6],[-6,-13],[-4,-5],[-6,-3],[-11,-8],[-15,-8],[-5,-2],[-4,-1]],[[592,627],[-6,1],[-9,2]],[[577,630],[-6,0],[-6,-1]],[[565,629],[-16,0]],[[549,629],[-8,-1],[-4,-3],[-2,-4],[-1,-3],[0,-3],[0,-3],[0,-3],[1,-6],[2,-5],[2,-5],[5,-8],[1,-2],[11,-11],[3,-4],[2,-2],[1,-2],[0,-3],[0,-3],[-2,-8],[0,-3],[1,-3],[2,-5],[0,-4],[0,-5],[-1,-3],[-1,-3],[-3,-3],[-6,-5],[-13,-14],[-4,-5],[-2,-4],[-1,-3],[-1,-3],[1,-15],[-1,-3],[-2,-3],[-2,-2],[-3,-3],[-13,-17],[-3,-5],[-1,-5],[5,-19],[3,-5],[15,-16],[9,-5],[3,-1],[9,-2],[5,-2],[10,-7],[3,-1],[3,-1],[9,-1],[5,-2],[6,-4],[5,-3],[3,-1],[5,0],[5,-2],[3,-2],[3,-4],[5,-8],[2,-8],[3,-11],[1,-4],[2,-1],[6,-4],[2,-2],[2,-2],[1,-2],[1,-3],[1,-2],[2,-2],[7,-4],[2,-2],[3,-3],[0,-3],[-1,-1],[-2,-1],[-23,-9],[-5,-3],[-11,-13],[-3,-3],[-2,-1],[-5,-3],[-25,-9],[-2,-2],[-3,-2],[-2,-3],[-1,-3],[1,-3],[12,-25],[3,-5],[7,-8],[1,-2],[3,-7]],[[1068,338],[3,-1],[2,-3],[0,-4],[1,-7],[0,-3],[2,-4],[2,-2],[4,-3],[38,-20],[8,-5],[1,-2],[2,-2],[1,-2],[3,-5],[2,-2],[2,-2],[10,-6],[3,-3],[1,-3],[0,-2],[-2,-2],[-4,-3],[-2,-1],[0,-3],[1,-2],[3,-6],[1,-3],[1,-3],[0,-6],[-2,-13],[1,-3],[2,-14],[1,-4],[-1,-3],[0,-3],[1,-3],[3,-2],[5,0]],[[1038,237],[5,11],[1,3],[1,3],[0,6],[5,25],[0,19],[0,3],[1,3],[1,2],[3,4],[6,9],[4,10],[1,2],[2,1]],[[1235,158],[7,0],[115,56]],[[1183,187],[11,0],[7,-3],[9,-6],[9,-12],[4,-3],[2,-2],[2,-1],[5,-2],[3,0]],[[1161,183],[14,4],[8,0]],[[589,1121],[13,-14],[3,-4],[6,-5],[2,0]],[[626,1099],[3,-1],[2,-4],[2,-7],[2,-2],[1,-2],[2,-2],[3,-2],[9,-4],[2,-3],[0,-2],[-2,-2],[-1,-3],[0,-3],[1,-2],[2,-4],[1,-2],[1,-1],[2,-4],[2,-2],[3,0]],[[613,1098],[3,0],[6,1],[4,0]],[[693,1067],[2,0],[5,-6],[2,-2],[2,-1],[6,-2],[13,-3],[12,-10],[2,-2],[7,-3],[13,-5],[3,-1],[2,-2],[8,-6],[14,-10],[2,-2],[1,-2],[1,-3],[2,-5],[3,-4],[8,-6],[12,-6],[2,-2],[2,-2],[1,-2],[1,-2],[2,-2],[8,-5],[2,-2],[2,-2],[4,-6],[3,-8],[1,-3],[1,-12],[0,-3],[1,-3],[1,-2],[2,-2],[2,-1],[1,-1],[3,-6],[3,-3],[3,-2],[8,-3],[3,-3],[1,-2],[-1,-3],[0,-3],[-3,-4],[0,-3],[0,-3],[1,-2],[2,-2],[8,-10],[2,-2],[1,-2],[1,-2],[1,-3],[1,-1],[2,-2],[6,-2],[48,-3],[4,-6],[3,-3],[17,-16],[11,-7],[13,-11],[2,-2],[1,-2],[0,-3],[0,-3],[-2,-5],[0,-3],[0,-6],[3,-11],[0,-6],[0,-3],[0,-4],[-1,-2],[-2,-5],[0,-2],[3,-2],[8,-1],[18,-3],[2,-1],[2,-2],[2,-2],[3,-7],[5,-1]],[[661,1047],[4,2],[2,1],[2,2],[2,3],[6,8],[3,1],[8,1],[3,2],[2,0]],[[1196,965],[8,0],[20,-3],[8,-2],[6,-2],[3,-4],[1,-3],[1,-2],[2,-5],[2,-2],[1,-2],[2,-2],[2,-2],[1,-2],[2,-4],[3,-11],[1,-2],[3,-1]],[[1082,744],[5,2],[6,3],[13,9],[5,5],[2,4],[0,3],[3,8],[1,6],[0,3],[1,2],[2,2],[5,6],[2,1],[29,15],[5,4],[2,4],[1,6],[1,3],[2,2],[5,5],[1,2],[1,3],[0,2],[-2,5],[0,2],[1,3],[2,4],[0,2],[1,15],[0,3],[-1,2],[-1,2],[-3,2],[-1,2],[-1,2],[-2,7],[-2,6],[0,3],[0,2],[2,4],[2,3],[3,4],[2,5],[2,2],[2,2],[5,4],[2,2],[1,2],[1,3],[4,7],[0,3],[0,2],[-2,5],[-1,3],[0,2],[1,3],[2,2],[5,1]],[[1315,965],[2,0],[8,-7],[4,-3],[2,-2],[0,-1],[1,-1],[1,-2],[1,-2],[2,-1],[8,-2],[3,-2],[3,-4],[2,-2],[4,-2],[2,-2],[1,-2],[1,-2],[0,-1],[2,-1],[2,-2],[9,-3],[3,-1],[4,-3],[2,-1],[4,-7],[1,-2],[8,-7],[2,0]],[[1262,916],[3,0],[6,3],[3,2],[2,2],[1,1],[4,4],[2,2],[2,4],[1,2],[4,4],[2,5],[1,2],[2,2],[2,2],[3,1],[10,3],[3,3],[1,3],[0,2],[1,2]],[[1467,959],[4,-2],[2,-2],[2,-3],[9,-15],[6,-8],[6,-5],[3,-1]],[[1397,900],[4,0],[4,4],[3,3],[1,3],[2,12],[4,8],[1,2],[1,2],[5,6],[4,3],[7,3],[19,7],[8,4],[2,1],[3,1],[2,0]],[[1499,923],[3,0],[5,2],[14,11],[10,4],[34,10]],[[1068,747],[6,-1],[5,-1],[3,-1]],[[1031,741],[8,0],[20,5],[9,1]],[[1561,923],[2,0],[2,1],[2,1],[3,0],[3,1],[0,2],[-1,1],[-5,2],[-4,2],[-1,2],[0,3],[1,2],[2,10]],[[1555,928],[1,-1],[3,-3],[2,-1]],[[1559,861],[-4,2],[-4,4],[-7,11],[-2,6],[0,3],[3,4],[1,1],[0,3],[0,2],[0,3],[1,5],[0,5],[1,2],[2,1],[0,2],[0,6],[0,3],[1,2],[2,1],[2,1]],[[1561,741],[2,0],[1,2],[-1,7],[0,8],[0,3],[-1,17],[1,8],[1,7],[-2,12],[0,3],[1,5],[5,17],[0,4],[0,6],[-2,11],[-2,8],[-1,1],[-2,1]],[[1561,861],[-2,0]],[[1558,741],[3,0]],[[1539,730],[2,0],[3,1],[2,1],[4,5],[2,1],[2,1],[2,1],[2,1]],[[1530,733],[2,-1],[4,-1],[3,-1]],[[1570,448],[-3,0],[-4,2],[-42,24],[-14,3],[-9,4],[-5,1],[-17,2],[-3,1],[-2,2],[-2,4],[-2,4],[-9,13],[-2,6],[-2,4],[0,3],[0,3],[3,3],[5,5],[2,1],[1,2],[1,2],[1,8],[2,4],[1,2],[2,4],[3,7],[0,3],[2,2],[3,3],[5,4],[1,2],[1,1],[0,2],[0,2],[0,2],[-11,18],[-3,7],[-1,4],[-1,4],[1,3],[0,2],[3,6],[1,2],[2,8],[1,12],[0,2],[1,3],[4,5],[2,8],[1,2],[9,8],[1,2],[1,2],[5,17],[1,2],[2,2],[2,1],[1,2],[1,1],[4,13],[2,4],[2,3],[2,2],[3,2],[4,2],[3,1]],[[1687,405],[-4,1],[-5,3],[-19,18],[-9,5],[-22,11],[-8,5],[-4,4],[-3,5],[-1,1]],[[1612,458],[-1,0],[-3,-4],[-1,-1],[-4,-3],[-2,-1],[-2,-1],[-5,-1],[-2,0]],[[1592,447],[-3,0],[-2,1],[-5,1],[-2,1]],[[1580,450],[-3,-1],[-4,-1],[-3,0]],[[1748,315],[5,2],[-1,34],[-1,8],[-2,4],[-3,1],[-6,1],[-4,2],[-4,3],[-11,18],[-7,8],[-10,9],[-3,2],[-4,1]],[[1697,408],[-3,0],[-2,-1],[-3,-1],[-2,-1]],[[1748,315],[-2,4],[-5,5],[-2,3],[-5,8],[-9,13],[-1,1],[-2,1],[-4,3],[-12,2],[-7,3]],[[1699,358],[-5,-1],[-7,-3],[-22,-13],[-4,-3],[-1,-2],[-3,-4],[-5,-7],[-1,-2],[-1,-2],[-2,-1],[-2,-2],[-2,-1],[-1,-2],[0,-2],[0,-3],[3,-6],[0,-3],[0,-21],[-1,-3],[-1,-2],[-1,-2],[-3,-5],[-3,-7],[-7,-8],[-2,-2],[-1,-2],[-2,-13],[-1,-5],[2,-11],[0,-9],[0,-2],[-1,-3],[-1,-2],[-2,-3],[-3,-4],[-3,-3],[-1,-2],[-3,-6],[-3,-4],[-4,-4],[-2,-2],[-1,-2],[-3,-7],[-2,-3],[0,-2],[0,-5],[-1,-2],[-1,-2],[-2,-4],[-1,-1]],[[1592,148],[-2,0],[-2,3],[-1,3],[-5,13],[0,3],[0,3],[1,6],[1,6],[-1,2],[-1,3],[-6,7],[-11,9],[-3,2],[-8,3],[-11,6],[-13,6],[-15,4],[-16,2],[-6,2],[-5,2],[-1,2],[-4,4],[-2,1],[-4,2],[-8,3],[-5,3],[-7,2],[-10,2]],[[1447,252],[-4,-1],[-4,-1],[-7,-4],[-7,-1],[-5,0]],[[1404,244],[-4,0],[-6,1],[-8,3],[-4,0],[-2,0]],[[1380,248],[-2,0],[-5,-6],[-16,-28]],[[1420,245],[-4,0]],[[1416,245],[-3,0],[-9,-1]],[[718,775],[17,-7],[15,-2],[25,-6],[10,-6],[10,-3]],[[681,751],[6,2],[6,4],[11,13],[6,4],[8,1]],[[816,761],[3,-4],[2,-7],[-2,-26],[0,-9],[8,-18],[5,-34],[27,-55],[4,-14],[3,-15],[0,-9],[-1,-6],[-2,-5],[-3,-6],[0,-7],[3,-14],[5,-7],[7,-4],[19,-2],[6,-8],[1,-11],[-5,-8],[-4,-16],[0,-6],[0,-5],[6,-3],[7,-3],[6,-7],[3,-6],[6,-8],[6,0]],[[795,751],[8,2],[13,8]],[[663,758],[7,-5],[4,-2],[7,0]],[[634,731],[19,23],[10,4]],[[979,454],[6,-3],[0,-3],[-9,-5],[-3,-3],[-1,-10],[-1,-4],[-3,-4],[-14,-11],[-4,-2],[-4,0],[-9,-1],[-7,-1],[-3,-2],[-3,-2],[-4,-6],[-2,-2],[0,-5],[2,-6],[13,-26],[10,-23],[8,-11],[87,-87]],[[926,438],[17,8],[16,5],[20,3]],[[0,358],[17,-8],[22,-8],[3,-2],[4,-5],[2,-3],[3,-1]],[[148,341],[5,-1],[6,-3],[21,-14],[4,-1],[10,-4],[3,-2],[2,-2],[13,-32],[2,-1],[9,-4],[4,-1],[4,-1]],[[132,333],[2,0],[12,7],[2,1]],[[108,340],[3,-1],[5,-1],[8,-4],[4,-1],[4,0]],[[99,335],[3,0],[2,2],[1,2],[3,1]],[[75,338],[3,0],[3,0],[12,-3],[6,0]],[[51,331],[5,1],[8,4],[5,2],[6,0]],[[283,318],[3,-1],[3,-3],[5,-17],[21,-47],[3,-4],[13,-14],[3,-4],[3,-9],[3,-12],[1,-12],[-3,-43],[1,-3],[5,-15],[1,-4],[0,-3],[-3,-11],[-1,-7],[0,-3],[1,-3],[1,-3],[3,-3],[2,-1],[3,-1]],[[231,275],[6,1],[5,1],[3,1],[9,5],[2,1],[2,2],[2,2],[1,2],[1,3],[2,5],[2,5],[6,8],[2,2],[2,1],[4,3],[3,1]],[[351,95],[11,0],[32,6]],[[392,5],[-3,1],[-5,5],[-8,5],[-11,10]],[[478,0],[-40,17],[-6,1],[-6,1]],[[426,19],[-6,-1],[-3,0],[-22,-13],[-3,0]],[[254,53],[3,-1],[2,-1],[2,-2],[1,-2],[3,-4],[2,-1],[2,-2],[2,-1],[2,-2],[3,0],[3,-1]],[[221,27],[3,1],[2,1],[1,2],[6,7],[2,2],[2,2],[7,4],[5,5],[3,1],[2,1]],[[299,41],[9,-1],[9,-1],[5,-2],[2,-2],[2,-1],[11,-13],[5,-4],[4,-2],[2,0]],[[279,36],[3,1],[8,2],[9,2]],[[198,35],[3,0],[3,-1],[2,-1],[7,-4],[5,-2],[3,0]],[[195,0],[-1,3],[-3,4],[-1,3],[-1,4],[-1,8],[0,5],[2,3],[1,2],[2,2],[3,0],[2,1]],[[348,15],[2,1],[2,1],[3,4],[4,3],[6,2]],[[2177,201],[20,-22],[15,-9],[12,-3]],[[2268,181],[10,-3],[17,-11],[8,-2]],[[2224,167],[9,4],[8,5],[10,4],[17,1]],[[2324,174],[6,-3],[12,-8],[6,-4]],[[2303,165],[5,1],[5,3],[5,3],[6,2]],[[2363,165],[7,-6],[9,-15],[9,-6],[8,0]],[[2348,159],[15,6]],[[2437,152],[35,-2],[16,-2],[10,-5],[2,-7],[1,-6],[0,-4],[-2,-10],[-1,-5],[1,-3],[2,-4],[29,-15],[7,-2]],[[2396,138],[7,3],[6,5],[11,3],[17,3]],[[2537,87],[4,1],[5,4],[1,5],[-1,6],[-7,12],[-2,4],[0,6],[0,5],[3,4],[2,2],[9,4],[3,1]],[[1393,0],[0,6]],[[2125,1052],[2,0],[2,1],[1,0],[15,11],[6,3]],[[2101,1053],[3,0],[21,-1]],[[2076,947],[5,0],[2,2],[2,3],[4,10],[7,11],[3,5],[1,5],[0,3],[-2,11],[-1,7],[2,12],[0,2],[-1,3],[-1,2],[-2,1],[-3,2],[-2,1],[-1,2],[-1,4],[1,5],[2,9],[2,6],[1,0],[2,0],[5,0]],[[2032,1002],[2,0],[2,-2],[1,-2],[2,-9],[1,-2],[3,-4],[7,-8],[0,-2],[1,-3],[0,-2],[0,-3],[1,-3],[2,-2],[2,-2],[2,-1],[8,-5],[7,-4],[3,-1]],[[2010,899],[2,18],[-2,7],[-2,4],[-5,5],[-7,12],[-2,5],[0,4],[1,3],[3,4],[1,4],[2,7],[2,12],[2,6],[2,3],[2,2],[17,7],[3,0],[3,0]],[[1375,2531],[-3,33],[2,55],[3,17],[-1,12],[5,10],[9,6],[7,9],[-4,10],[-26,31],[-10,18],[25,36],[49,49],[15,20],[1,30],[-3,28],[4,10],[5,11],[-14,0],[-12,5],[-15,21],[-9,21],[17,20],[11,45],[-4,46],[3,37],[9,31],[17,12],[19,10],[42,13],[38,20],[2,4],[1,4],[0,4]],[[1162,3472],[58,5]],[[1150,3476],[12,-4]],[[1017,3328],[12,24],[10,6],[49,20],[1,4],[3,6],[6,2],[21,3],[7,12],[0,20],[6,37],[7,14],[11,0]],[[771,3339],[27,-13],[24,-14],[21,-1],[21,-4],[10,-9],[3,-15],[40,-16]],[[993,3332],[24,-4]],[[917,3267],[42,50],[15,11],[19,4]],[[771,3339],[1,-21],[24,-31],[6,-20],[0,-16],[-11,-31],[3,-18],[-1,-11],[7,-10],[5,-13],[-1,-15],[-11,-36],[-26,-27],[-49,-8],[-3,-18],[-19,-41],[-14,-41],[-32,-70],[-2,-23],[10,-13],[12,-12],[3,-21],[-10,-21],[-2,-33],[22,-29],[10,-25],[-5,-27],[-19,-17],[-12,-24],[-24,-2],[-41,-24],[-12,-3]],[[580,2638],[-40,4]],[[540,2642],[-12,-4],[-18,-15],[-38,-43],[-24,-17],[-26,-7],[-59,-5],[-30,-8]],[[416,3539],[13,-7],[34,-26],[13,-4],[11,-7],[8,-8],[57,-16],[22,-11],[34,-46],[21,-19],[25,-15],[25,-2]],[[703,3385],[25,-10],[25,-15],[18,-21]],[[679,3378],[24,7]],[[272,3268],[4,12],[-9,11],[2,30],[25,21],[28,15],[28,10],[16,24],[11,28],[9,58],[-8,15]],[[240,3268],[32,0]],[[19,2840],[73,5],[57,26],[24,45],[13,18],[14,13],[11,16],[21,61],[-6,61],[-6,12],[-26,21],[-8,19],[-71,24],[27,14],[26,51],[33,30],[28,7],[11,5]],[[0,2841],[19,-1]],[[1089,2067],[-30,-31],[-40,-12],[-54,-26]],[[2192,1905],[-2,-15],[-7,-24],[4,-27],[0,-27],[-15,-14],[-16,-14],[-5,-20],[-10,-17],[-18,-15],[-16,-18],[-16,-24],[-23,-9],[-20,-2]],[[2048,1679],[-18,0],[-11,6],[-9,8],[-64,30],[-27,7]],[[1833,2618],[20,0],[39,-23],[29,-37],[-1,-19],[4,-18],[-5,-23],[-8,-20],[19,-10],[6,-6],[14,-25],[8,-5],[10,-4]],[[1755,2539],[19,3],[1,23],[6,25],[33,26],[19,2]],[[1733,2549],[22,-10]],[[1617,2495],[19,5],[15,13],[20,7],[21,2],[25,7],[16,20]],[[1441,2543],[15,-16],[19,-11]],[[1375,2531],[32,10],[34,2]],[[1511,2531],[16,-9],[15,-12],[37,-4],[38,-11]],[[1475,2516],[36,15]],[[2152,2521],[3,-37],[-17,-52],[2,-19],[7,-23],[1,-26]],[[2114,2473],[15,7],[13,11],[3,17],[7,13]],[[2063,2492],[23,-16],[28,-3]],[[1968,2428],[62,18],[10,8],[3,15],[9,13],[11,10]],[[1207,2378],[27,6],[5,36],[1,36],[19,14],[22,10],[16,11],[18,8],[36,2],[15,13],[9,17]],[[1177,2380],[30,-2]],[[1089,2067],[-15,44],[-17,21],[-20,18],[-10,40],[8,41],[33,25],[12,17],[14,14],[43,30],[34,30],[9,14],[-3,19]],[[1089,2067],[10,-18],[25,-11],[11,-7],[0,-1],[10,-2],[22,-24],[21,-10],[17,-14],[12,-3]],[[1242,1982],[62,-15],[16,-6],[21,-22],[26,-5],[27,-1],[72,-14]],[[1217,1977],[11,3],[14,2]],[[1622,1943],[22,-3],[19,-15],[17,-19],[18,-15],[22,-2],[32,-12]],[[1593,1919],[5,17],[12,5],[12,2]],[[1528,1935],[16,-3],[16,-1],[15,-12],[18,0]],[[1466,1919],[9,2],[8,4],[25,1],[20,9]],[[1799,1880],[29,-16],[23,-10]],[[1752,1877],[47,3]],[[1878,1856],[23,-7],[18,-18],[6,-50],[-6,-51]],[[1851,1854],[27,2]],[[3454,315],[-76,5],[-59,19],[-58,26],[-27,6]],[[3234,371],[-27,-5],[-4,-32],[-11,-20]],[[2919,323],[-22,1],[-17,13],[-13,18],[-16,12]],[[2851,367],[-18,-8],[-17,-12],[-22,-9]],[[3707,288],[-41,14],[-22,4],[-20,9],[-33,34],[-20,12],[-20,3]],[[3551,364],[-4,-12],[-3,-12],[-8,-8],[-9,-6],[-73,-11]],[[3192,314],[-29,8],[-80,36]],[[3083,358],[-44,-4]],[[2794,338],[-25,4],[-16,15]],[[2753,357],[-38,-9]],[[2715,348],[-20,8]],[[2695,356],[-16,-8],[-11,-12]],[[3039,354],[-37,2]],[[3002,356],[-20,-22],[-28,-12]],[[2668,336],[-18,4],[-19,7]],[[2631,347],[-17,-7],[-2,-22],[-15,-11],[-15,-17],[-1,-14]],[[2954,322],[-18,6]],[[2936,328],[-9,-2],[-8,-3]],[[3753,292],[-46,-4]],[[2595,286],[13,-13],[10,-44],[-10,-20]],[[2581,276],[14,10]],[[2608,209],[-40,5],[-22,23]],[[724,2115],[-11,9],[-10,12],[-19,4]],[[684,2140],[-19,-1],[-26,-4],[-22,-14],[-11,-47],[-11,-10],[-11,-10],[-8,-10],[-10,-8],[-14,-5],[-8,-10],[-8,-32],[-21,-46],[-36,-34],[-22,-4],[-6,-6],[-7,-8],[-15,-11],[-21,-17]],[[860,2107],[-21,2],[-12,7],[-11,9]],[[816,2125],[-21,-8],[-24,-13]],[[771,2104],[-22,16]],[[749,2120],[-25,-5]],[[965,1998],[-25,19],[-24,22],[-6,18],[-9,15],[-15,4],[-15,7],[6,12],[4,14]],[[881,2109],[-21,-2]],[[1340,1157],[0,1]],[[1690,1786],[30,-30],[22,-7],[21,-11],[18,-15],[21,-12],[17,-12],[20,-8]],[[1335,1449],[62,11],[88,4],[57,14],[51,30],[20,16],[16,17],[8,28],[0,32],[-3,26],[-6,24],[-3,25],[7,18],[11,1],[8,5],[-3,6],[-8,2],[-9,21],[-4,22],[0,20],[39,13],[24,2]],[[1839,1691],[20,5],[16,13],[21,12],[23,9]],[[1193,1458],[142,-9]],[[1144,1447],[49,11]],[[2918,1244],[-12,-56],[-35,-49],[-25,-44],[-19,-49],[-28,-32],[-39,-7]],[[2760,1007],[-82,12],[-17,16],[-24,16],[-29,5],[-5,28],[-23,27],[-72,41],[-57,44],[-27,12],[-21,22]],[[2403,1230],[-16,-10],[-6,-1],[-6,-3],[0,-9],[-28,-8],[-29,-4],[-23,-39],[-13,-46],[-9,-22],[-6,-22],[-47,-80],[-12,-40]],[[1204,1279],[8,39],[-9,38],[-17,16],[-15,17],[-27,58]],[[391,2329],[-21,1],[-8,20],[-1,47],[7,14],[13,35],[-1,37],[-8,15],[-12,11],[-11,13],[-16,21]],[[408,1863],[7,75],[6,26],[2,16],[-5,45],[0,15],[5,10],[16,26],[4,15],[6,12],[24,25],[5,8],[-7,8],[-29,13],[-11,8],[-9,10],[-6,10],[-3,11],[-2,103],[7,27],[-7,5]],[[411,2331],[-20,-2]],[[333,2543],[-8,-7],[-22,-21],[-7,-4],[-11,-4],[-16,-8],[-9,-8],[9,-6],[-16,-19],[-28,-6],[-219,-2]],[[6,2458],[-6,2]],[[408,1863],[-1,-13],[-3,-9],[-1,-8],[3,-7],[3,-6],[2,-7],[2,-16],[-1,-18],[-7,-29],[-2,-14],[4,-12],[31,-33],[7,-26],[-5,-23],[-22,-46],[-3,-16],[-3,-33],[-4,-14],[-23,-41],[-11,-15],[-15,-37],[-8,-8],[-2,-2],[-16,-14],[-8,-3],[-10,-2]],[[315,1411],[-9,1],[-8,4]],[[298,1416],[-11,-10],[-13,-28],[-8,-12],[-16,-12],[-11,-4],[-3,-7],[0,-9],[-2,-7],[-7,-11],[-11,-12],[-12,-11],[-13,-4],[-16,-3],[-7,-7],[-3,-10],[-7,-11],[-34,-40],[-12,-25],[-3,-31],[3,-11],[14,-24],[3,-10],[4,-55],[-1,-23],[-5,-21],[-1,-20],[16,-27],[3,-7],[5,-6],[11,-2]],[[179,959],[6,-2],[4,-12]],[[161,956],[18,3]],[[219,956],[5,-8],[-2,-6],[-13,-23],[0,-5],[5,-4],[1,-1]],[[189,945],[5,0],[5,5],[10,5],[10,1]],[[838,1287],[-21,4],[-30,12],[-31,9],[-24,17],[-8,26],[-13,17],[-14,15],[-23,1]],[[674,1388],[-23,-5],[-14,-15],[-16,-9]],[[621,1359],[-20,11],[-18,5]],[[583,1375],[-5,-16],[11,-18],[0,-20],[-15,-62],[2,-40],[4,-7],[3,-7],[3,-4],[1,0]],[[1204,1279],[-38,12]],[[1166,1291],[-60,-12],[-20,-10],[-27,-9],[-29,-4],[-33,-29]],[[878,1280],[-10,6],[-9,4]],[[859,1290],[-21,-3]],[[939,1236],[-1,3],[0,13],[-4,9],[-8,4],[-8,1],[-4,4],[-12,12]],[[902,1282],[-24,-2]],[[961,1233],[-20,4]],[[941,1237],[-2,-1]],[[997,1227],[-15,0],[-11,9]],[[971,1236],[-10,-3]],[[1204,1279],[37,-12],[30,-21],[6,-16],[5,-13],[0,-15],[2,-5],[-2,-7],[-2,-8],[-2,-5],[-3,-5],[-3,-5],[1,-9],[5,-9],[6,-4]],[[1324,1182],[13,-22],[1,0]],[[1284,1145],[8,1],[8,4],[9,14],[7,15],[8,3]],[[1338,1160]],[[1490,1282],[0,-2]],[[1490,1280],[3,-18],[-7,-14],[7,-13],[22,-3],[22,-10],[8,-23],[-7,-18],[-23,-15],[-11,-23],[5,-31],[26,-27],[32,-19],[25,-21]],[[2454,4096],[137,-114],[30,-58],[63,-35],[28,-69],[135,-133],[207,-87]],[[3054,3598],[132,4],[196,-147]],[[3370,3408],[21,19]],[[985,169],[2,-5],[5,-83],[-5,-37],[-2,-9],[-10,-14],[-2,-9],[-2,-3],[-6,-3],[-3,-2],[0,-4],[-24,0],[-1,30],[12,1],[13,15],[8,19],[-3,13],[-7,0],[-10,-4],[-9,-1],[-4,8],[-2,10],[-5,9],[-7,7],[-8,2],[-7,1],[-15,4],[-6,1],[-26,-5],[-11,-1],[-5,3],[-19,14],[-4,5],[3,9],[8,6],[4,6],[-4,10],[11,-4],[8,-26],[10,-6],[9,3],[5,10],[7,10],[14,2],[-3,-8],[3,-4],[9,-2],[11,-1],[6,1],[10,4],[7,0],[3,-2],[5,-11],[4,-2],[12,1],[6,7],[7,23],[-4,9],[-1,5],[3,2],[6,-1],[4,-3]],[[4096,3206],[0,-2727],[-81,61],[-64,72],[-9,14],[-3,2],[-1,3],[-14,12],[-3,1],[-6,12],[-9,25],[-35,61],[-20,23],[-17,33],[-8,10],[-16,10],[-24,10],[-23,3],[-17,-7],[4,-4],[2,-3],[4,-9],[-21,12],[3,16],[14,9],[14,-6],[5,0],[0,6],[-35,10],[-25,3],[-17,4],[-17,7],[-11,8],[5,4],[11,-4],[50,-6],[26,-14],[11,-1],[7,-4],[10,-19],[21,-9],[8,-1],[7,6],[-2,6],[-15,15],[-4,8],[-7,40],[-6,22],[-7,14],[5,8],[1,7],[-3,5],[-8,2],[0,6],[14,-1],[8,7],[6,10],[8,9],[14,12],[15,10],[0,5],[-5,5],[-58,74],[-8,16],[-4,16],[8,15],[1,8],[-9,4],[-13,-17],[-7,-5],[-7,0],[-5,2],[-5,2],[-8,-4],[-4,-5],[-3,-8],[-3,-9],[0,-9],[-7,15],[-2,7],[5,9],[-10,-1],[-2,-1],[-4,-3],[-9,5],[4,8],[9,6],[9,2],[7,-5],[6,0],[-6,14],[-10,10],[-25,18],[-20,27],[-6,4],[-16,6],[-5,3],[-38,30],[-11,5],[-18,-3],[-16,-6],[-12,-2],[-7,5],[14,4],[-2,9],[-9,11],[-38,33],[-27,36],[-6,5],[-17,13],[-7,10],[-6,13],[-5,16],[-2,14],[-25,2],[-26,29],[-39,64],[-17,55],[-5,9],[-3,10],[-1,22],[-5,22],[-14,9],[2,-2],[2,-47],[0,-18],[-14,-7],[3,11],[2,16],[-1,14],[-6,7],[-4,5],[11,32],[-4,11],[-8,11],[-15,17],[-5,2],[-13,-1],[-5,2],[-2,3],[-8,18],[7,-1],[6,-3],[4,-5],[3,-7],[11,11],[0,5],[-17,5],[-18,11],[-15,14],[-10,13],[-4,9],[-5,25],[-1,11],[-2,6],[-4,7],[1,10],[8,23],[13,29],[18,19],[20,-7],[5,7],[7,5],[18,9],[-5,20],[1,28],[9,47],[2,5],[10,-2],[9,1],[6,22],[6,1],[6,1],[6,4],[1,1],[2,5],[1,15],[-3,2],[-6,-2],[-3,8],[-2,8],[15,-11],[-1,12],[-14,25],[-3,22],[-3,9],[-9,7],[0,5],[10,-5],[10,21],[10,-6],[-3,29],[8,59],[0,28],[-3,1],[-1,3],[0,9],[-2,7],[-4,7],[-2,-4],[-5,-7],[-3,-5],[0,12],[9,8],[10,-3],[1,-17],[4,9],[0,21],[1,12],[6,12],[16,26],[3,13],[5,10],[10,1],[11,-1],[4,6],[3,12],[13,17],[4,11],[-10,-5],[-20,-2],[-10,-5],[-5,6],[20,11],[11,8],[4,8],[8,-8],[2,-3],[3,9],[-1,22],[3,11],[15,21],[0,8],[-5,12],[0,7],[4,12],[7,7],[32,30],[8,10],[4,10],[5,0],[5,-9],[10,-8],[12,-7],[11,-3],[4,7],[11,34],[2,12],[5,0],[-2,-15],[-5,-14],[-2,-12],[4,-12],[12,8],[27,7],[11,6],[6,9],[9,23],[5,11],[5,-6],[-3,-4],[-7,-17],[11,7],[18,20],[17,11],[17,25],[16,11],[26,32],[9,21],[5,5],[15,7],[5,4],[-5,5],[0,6],[7,3],[3,1],[5,1],[0,-5],[-5,0],[0,-6],[48,6],[9,2],[24,2],[17,4],[9,3],[9,-1],[12,5],[2,12],[-5,11],[-7,13],[-3,6],[-3,4],[-17,13],[-3,-7],[-6,-3],[-6,2],[-1,2],[-3,6],[4,0],[13,4],[11,-3],[9,-8],[7,-10],[16,-17],[8,9],[-3,21],[-2,15],[-1,12],[-3,10],[-2,6],[-13,13],[3,0],[2,1],[1,2],[-1,3],[1,-4],[4,-7],[8,10],[5,18],[3,33],[-8,8],[-16,-2],[-17,-7],[-10,-7],[-5,0],[4,6],[5,7],[5,6],[4,2],[2,2],[21,8],[4,0],[3,14],[-7,11],[-5,11],[9,13],[0,5],[-21,-12],[-11,0],[-13,7],[47,19],[16,14],[12,5],[3,3],[2,4],[0,5],[0,8],[-3,2],[-3,0],[-4,3],[-11,12],[-4,6],[-1,2],[-4,11],[8,-6],[11,-15],[6,-5],[12,-1],[12,2],[11,5],[10,5],[15,12],[0,10],[-12,7],[-18,8],[0,5],[10,1],[21,-6],[9,0],[6,2],[5,2],[7,1],[2,3],[8,6],[8,3],[4,-4],[3,-6],[7,-6],[15,-12],[-13,41],[-7,12],[-5,-5],[-12,9],[-12,14],[-11,16],[-4,14],[13,-10],[9,7],[3,17],[-6,17],[-13,10],[-14,7],[-5,10],[13,16],[14,-16],[5,0],[2,9],[7,10],[1,10],[-2,14],[-7,3],[-9,0],[-16,7],[-18,1],[-8,4],[-3,8],[-2,9],[-3,8],[-7,7],[0,5],[15,-3],[5,-2],[0,5],[-22,9],[-1,0],[-7,2],[12,3],[16,-3],[28,-11],[0,5],[-6,0],[0,6],[15,7],[11,-4],[12,-7],[17,-2],[-2,3],[-2,6],[-1,2],[8,0],[6,-2],[6,-4],[4,-5],[-10,-8],[3,-6],[8,-3],[5,-4],[0,-7],[-2,-5],[-8,-3],[-13,-1],[-12,-6],[8,-11],[17,-8],[15,4],[5,0],[1,-5],[1,-2],[-2,-4],[13,-10],[6,-16],[6,-5],[5,7],[0,-48],[-21,28],[-4,10],[-3,18],[-9,10],[-28,12],[-9,-20],[-6,-22],[4,-14],[10,-5],[11,-2],[9,-6],[6,0],[-4,7],[-1,7],[1,6],[4,7],[2,-18],[14,-31],[4,-12],[6,-4],[13,-2],[1,0]],[[3415,2116],[-3,3],[-3,1],[-2,-2],[-3,0],[-3,-3],[0,-6],[3,-4],[3,-3],[5,1],[3,4],[1,4],[-1,5]],[[4052,3225],[-2,3],[-3,-1],[-5,0],[-10,5],[-15,17],[-4,-3],[1,-8],[2,-5],[11,-11],[5,-3],[6,-1],[9,2],[5,5]],[[3999,3272],[-6,5],[-4,-4],[-2,-2],[0,-1],[2,0],[0,-3],[2,-2],[3,0],[2,-2],[3,-2],[4,0],[1,1],[0,-3],[4,-6],[8,-2],[1,0],[-4,7],[-6,11],[-4,2],[-4,1]],[[4012,3346],[-2,1],[2,0],[3,0],[-1,5],[-6,8],[-7,4],[-4,1],[-4,-2],[-4,-5],[0,-5],[4,-6],[-5,-3],[-12,3],[-6,3],[-2,4],[-5,3],[-4,-3],[-1,-6],[6,-10],[6,-5],[8,-2],[11,1],[8,-2],[15,-3],[4,5],[0,5],[0,3],[-1,4],[-3,2]],[[4096,3320],[0,-4],[-1,4],[1,0]],[[4096,3365],[0,-21],[-15,18],[4,1],[3,-1],[2,-5],[5,9],[1,-1]],[[1135,1477],[92,-5],[19,-4],[-18,-4],[-65,0],[-50,-7],[-28,4],[-12,-2],[-15,-9],[-7,-8],[-1,-3],[1,-4],[-2,-10],[-5,-11],[-18,-27],[-38,24],[-20,32],[-20,79],[-3,5],[-9,7],[-3,5],[-1,5],[1,13],[0,6],[-13,43],[-5,7],[-13,13],[-3,6],[0,12],[4,4],[8,-2],[8,-8],[3,10],[5,0],[6,-6],[5,-11],[4,4],[2,-1],[1,-2],[3,-3],[0,-2],[8,-8],[8,-8],[2,2],[0,-12],[-2,-15],[2,-9],[15,3],[-10,-9],[0,-10],[5,-5],[11,5],[5,10],[3,21],[7,4],[8,-6],[5,-12],[3,-13],[-1,-9],[-7,-7],[-8,0],[-5,-2],[1,-9],[13,-14],[16,7],[26,28],[62,44],[-5,-12],[-12,-23],[-3,-13],[-4,-4],[-16,-4],[-6,-7],[2,-16],[14,-10],[18,-8],[13,-9],[-1,-3],[-3,-4],[0,-5],[13,-6],[10,-2]],[[4096,479],[-81,61],[-64,72],[-9,14],[-3,2],[-1,3],[-14,12],[-3,1],[-6,12],[-9,25],[-35,61],[-20,23],[-17,33],[-8,10],[-16,10],[-24,10],[-23,3],[-17,-7],[4,-4],[2,-3],[4,-9],[-21,12],[3,16],[14,9],[14,-6],[5,0],[0,6],[-35,10],[-25,3],[-17,4],[-17,7],[-11,8],[5,4],[11,-4],[50,-6],[26,-14],[11,-1],[7,-4],[10,-19],[21,-9],[8,-1],[7,6],[-2,6],[-15,15],[-4,8],[-7,40],[-6,22],[-7,14],[5,8],[1,7],[-3,5],[-8,2],[0,6],[14,-1],[8,7],[6,10],[8,9],[14,12],[15,10],[0,5],[-5,5],[-58,74],[-8,16],[-4,16],[8,15],[1,8],[-9,4],[-13,-17],[-7,-5],[-7,0],[-5,2],[-5,2],[-8,-4],[-4,-5],[-3,-8],[-3,-9],[0,-9],[-7,15],[-2,7],[5,9],[-10,-1],[-2,-1],[-4,-3],[-9,5],[4,8],[9,6],[9,2],[7,-5],[6,0],[-6,14],[-10,10],[-25,18],[-20,27],[-6,4],[-16,6],[-5,3],[-38,30],[-11,5],[-18,-3],[-16,-6],[-12,-2],[-7,5],[14,4],[-2,9],[-9,11],[-38,33],[-27,36],[-6,5],[-17,13],[-7,10],[-6,13],[-5,16],[-2,14],[-25,2],[-26,29],[-39,64],[-17,55],[-5,9],[-3,10],[-1,22],[-5,22],[-14,9],[2,-2],[2,-47],[0,-18],[-14,-7],[3,11],[2,16],[-1,14],[-6,7],[-4,5],[11,32],[-4,11],[-8,11],[-15,17],[-5,2],[-13,-1],[-5,2],[-2,3],[-8,18],[7,-1],[6,-3],[4,-5],[3,-7],[11,11],[0,5],[-17,5],[-18,11],[-15,14],[-10,13],[-4,9],[-5,25],[-1,11],[-2,6],[-4,7],[1,10],[8,23],[13,29],[18,19],[20,-7],[5,7],[7,5],[18,9],[-5,20],[1,28],[9,47],[2,5],[10,-2],[9,1],[6,22],[6,1],[6,1],[6,4],[1,1],[2,5],[1,15],[-3,2],[-6,-2],[-3,8],[-2,8],[15,-11],[-1,12],[-14,25],[-3,22],[-3,9],[-9,7],[0,5],[10,-5],[10,21],[10,-6],[-3,29],[8,59],[0,28],[-3,1],[-1,3],[0,9],[-2,7],[-4,7],[-2,-4],[-5,-7],[-3,-5],[0,12],[9,8],[10,-3],[1,-17],[4,9],[0,21],[1,12],[6,12],[16,26],[3,13],[5,10],[10,1],[11,-1],[4,6],[3,12],[13,17],[4,11],[-10,-5],[-20,-2],[-10,-5],[-5,6],[20,11],[11,8],[4,8],[8,-8],[2,-3],[3,9],[-1,22],[3,11],[15,21],[0,8],[-5,12],[0,7],[4,12],[7,7],[32,30],[8,10],[4,10],[5,0],[5,-9],[10,-8],[12,-7],[11,-3],[4,7],[11,34],[2,12],[5,0],[-2,-15],[-5,-14],[-2,-12],[4,-12],[12,8],[27,7],[11,6],[6,9],[9,23],[5,11],[5,-6],[-3,-4],[-7,-17],[11,7],[18,20],[17,11],[17,25],[16,11],[26,32],[9,21],[5,5],[15,7],[5,4],[-5,5],[0,6],[7,3],[3,1],[5,1],[0,-5],[-5,0],[0,-6],[48,6],[9,2],[24,2],[17,4],[9,3],[9,-1],[12,5],[2,12],[-5,11],[-7,13],[-3,6],[-3,4],[-17,13],[-3,-7],[-6,-3],[-6,2],[-1,2],[-3,6],[4,0],[13,4],[11,-3],[9,-8],[7,-10],[16,-17],[8,9],[-3,21],[-2,15],[-1,12],[-3,10],[-2,6],[-13,13],[3,0],[2,1],[1,2],[-1,3],[1,-4],[4,-7],[8,10],[5,18],[3,33],[-8,8],[-16,-2],[-17,-7],[-10,-7],[-5,0],[4,6],[5,7],[5,6],[4,2],[2,2],[21,8],[4,0],[3,14],[-7,11],[-5,11],[9,13],[0,5],[-21,-12],[-11,0],[-13,7],[47,19],[16,14],[12,5],[3,3],[2,4],[0,5],[0,8],[-3,2],[-3,0],[-4,3],[-11,12],[-4,6],[-1,2],[-4,11],[8,-6],[11,-15],[6,-5],[12,-1],[12,2],[11,5],[10,5],[15,12],[0,10],[-12,7],[-18,8],[0,5],[10,1],[21,-6],[9,0],[6,2],[5,2],[7,1],[2,3],[8,6],[8,3],[4,-4],[3,-6],[7,-6],[15,-12],[-13,41],[-7,12],[-5,-5],[-12,9],[-12,14],[-11,16],[-4,14],[13,-10],[9,7],[3,17],[-6,17],[-13,10],[-14,7],[-5,10],[13,16],[14,-16],[5,0],[2,9],[7,10],[1,10],[-2,14],[-7,3],[-9,0],[-16,7],[-18,1],[-8,4],[-3,8],[-2,9],[-3,8],[-7,7],[0,5],[15,-3],[5,-2],[0,5],[-22,9],[-1,0],[-7,2],[12,3],[16,-3],[28,-11],[0,5],[-6,0],[0,6],[15,7],[11,-4],[12,-7],[17,-2],[-2,3],[-2,6],[-1,2],[8,0],[6,-2],[6,-4],[4,-5],[-10,-8],[3,-6],[8,-3],[5,-4],[0,-7],[-2,-5],[-8,-3],[-13,-1],[-12,-6],[8,-11],[17,-8],[15,4],[5,0],[1,-5],[1,-2],[-2,-4],[13,-10],[6,-16],[6,-5],[5,7]],[[4096,3316],[-1,4],[1,0]],[[4096,3344],[-15,18],[4,1],[3,-1],[2,-5],[5,9],[1,-1]],[[985,169],[2,-5],[5,-83],[-5,-37],[-2,-9],[-10,-14],[-2,-9],[-2,-3],[-6,-3],[-3,-2],[0,-4]],[[938,0],[-1,30],[12,1],[13,15],[8,19],[-3,13],[-7,0],[-10,-4],[-9,-1],[-4,8],[-2,10],[-5,9],[-7,7],[-8,2],[-7,1],[-15,4],[-6,1],[-26,-5],[-11,-1],[-5,3],[-19,14],[-4,5],[3,9],[8,6],[4,6],[-4,10],[11,-4],[8,-26],[10,-6],[9,3],[5,10],[7,10],[14,2],[-3,-8],[3,-4],[9,-2],[11,-1],[6,1],[10,4],[7,0],[3,-2],[5,-11],[4,-2],[12,1],[6,7],[7,23],[-4,9],[-1,5],[3,2],[6,-1],[4,-3]],[[1135,1477],[92,-5],[19,-4],[-18,-4],[-65,0],[-50,-7],[-28,4],[-12,-2],[-15,-9],[-7,-8],[-1,-3],[1,-4],[-2,-10],[-5,-11],[-18,-27],[-38,24],[-20,32],[-20,79],[-3,5],[-9,7],[-3,5],[-1,5],[1,13],[0,6],[-13,43],[-5,7],[-13,13],[-3,6],[0,12],[4,4],[8,-2],[8,-8],[3,10],[5,0],[6,-6],[5,-11],[4,4],[2,-1],[1,-2],[3,-3],[0,-2],[8,-8],[8,-8],[2,2],[0,-12],[-2,-15],[2,-9],[15,3],[-10,-9],[0,-10],[5,-5],[11,5],[5,10],[3,21],[7,4],[8,-6],[5,-12],[3,-13],[-1,-9],[-7,-7],[-8,0],[-5,-2],[1,-9],[13,-14],[16,7],[26,28],[62,44],[-5,-12],[-12,-23],[-3,-13],[-4,-4],[-16,-4],[-6,-7],[2,-16],[14,-10],[18,-8],[13,-9],[-1,-3],[-3,-4],[0,-5],[13,-6],[10,-2]],[[4071,3275],[-3,18],[-9,10],[-28,12],[-9,-20],[-6,-22],[4,-14],[10,-5],[11,-2],[9,-6],[6,0],[-4,7],[-1,7],[1,6],[4,7],[2,-18],[14,-31],[4,-12],[6,-4],[13,-2],[1,0]],[[4096,3237],[-21,28],[-4,10]],[[3961,4096],[0,-8]],[[51,4043],[-24,10],[-27,13]],[[105,4043],[-30,0],[-24,0]],[[3961,4088],[15,-16],[12,-7],[6,-9],[18,-13],[9,-22]],[[2880,4002],[-15,0],[-15,12],[0,13],[-12,3],[-6,19],[3,16],[-6,23],[-7,8]],[[2883,3982],[-3,20]],[[2895,3967],[-12,15]],[[1561,3947],[-12,10],[-21,-3],[-6,3],[-6,19],[-15,16],[-6,13],[0,22],[-3,6],[0,26],[-15,19],[-15,13],[-3,5]],[[2694,3944],[6,10],[-18,9],[-9,10],[-6,13],[-27,25],[-33,51],[-21,29],[-6,5]],[[999,4049],[-26,-6],[-15,10],[-9,0],[-12,-16],[-18,0],[-9,12],[-21,-6],[-18,-16],[-12,-13],[3,-9],[9,-13],[0,-6],[-6,-10],[-25,-10]],[[840,3966],[-5,-3],[-9,4],[-9,6],[-33,13],[-9,-4],[-6,-9],[-43,-22],[-30,-19]],[[1125,4096],[-5,-5],[-12,-3],[-18,-4],[-9,-9],[-24,-7],[-27,-15],[-18,-4],[-12,0],[-1,0]],[[2895,3967],[18,3],[24,-3],[9,-7],[15,-13],[12,-12],[27,-26]],[[2787,3897],[-6,0],[-21,-7],[-9,0],[-12,13],[-6,16],[-3,6],[-18,13],[-9,0],[-9,6]],[[1600,3884],[-12,6],[-6,16],[-12,6],[0,13],[-6,10],[-3,12]],[[3000,3909],[12,-6],[15,-3],[15,6],[12,-3],[21,3],[21,-13],[15,-6],[12,3],[30,-13]],[[3895,3865],[21,32],[21,12],[3,26],[15,16],[6,22],[9,9],[15,10],[9,16],[12,10],[15,3]],[[2862,3862],[3,9],[21,10],[3,25],[15,16],[-3,16],[-9,13],[3,16]],[[2862,3862],[-18,3],[-18,-7],[-15,4],[-9,6],[-3,13],[-12,16]],[[3153,3877],[24,-3],[30,-19],[9,10],[18,0],[6,0],[21,-7],[27,4]],[[3321,3833],[-15,22],[-18,7]],[[3336,3833],[-11,0]],[[3325,3833],[-4,0]],[[534,3830],[-9,16],[-9,0],[-6,9],[-9,-6],[-12,9]],[[1600,3884],[-12,-22],[-12,-39]],[[534,3830],[12,-7],[12,7],[21,16],[9,6],[21,16],[9,9],[21,13],[6,13],[15,3],[9,10],[12,0],[15,16]],[[3350,3818],[-5,9],[-9,6]],[[3360,3801],[-6,10],[-4,7]],[[234,3728],[-6,6],[-36,38],[-15,23],[-15,28],[-9,26],[-15,22],[-21,10],[-21,0],[-3,25],[3,35],[3,73],[6,29]],[[2910,3718],[-15,23],[0,6],[-12,16],[-3,19],[-9,6],[-3,23],[0,19],[-6,12],[0,20]],[[57,3709],[9,-7]],[[3366,3693],[0,48],[-3,22],[9,19],[-3,16],[-9,3]],[[66,3702],[12,-6],[24,-3],[21,6],[12,-3],[12,3],[51,-6],[12,3],[12,6],[12,26]],[[1576,3823],[9,-12],[15,-4],[15,4],[12,6],[9,-3],[18,-7],[13,0],[15,-12],[18,-4],[15,-9],[18,0],[6,-6],[21,-29],[3,-22],[18,-23],[9,-6],[36,-3],[12,-3]],[[3676,3683],[9,32],[12,19],[30,26],[18,25],[27,10],[21,0],[36,16],[39,38],[15,3],[12,13]],[[3676,3683],[-12,0],[-18,10],[-24,6],[-9,10],[-18,3],[-18,-3]],[[489,3858],[-9,-6],[-21,-48],[3,-9],[-9,-16],[-9,-10],[-3,-13],[-9,-9],[-6,-10],[-15,-12],[-12,-4],[-6,-6],[-24,-13],[-36,4],[-12,-7],[-12,-9],[-6,-16]],[[303,3674],[-21,0],[-18,6],[-9,13],[-9,28],[-12,7]],[[3366,3651],[-3,26],[3,16]],[[1937,3629],[-9,0],[-21,13],[-33,3],[-9,6],[-12,10],[-3,16],[-12,13]],[[3360,3616],[6,35]],[[3150,3600],[-21,-9]],[[3625,3591],[15,16],[15,44],[21,32]],[[3129,3591],[-21,-10],[-30,0],[-18,7],[-21,28],[-36,29],[-6,6],[-18,13],[-9,13],[-12,6],[-15,23],[-18,-4],[-15,16]],[[3586,3572],[12,3],[27,16]],[[3550,3565],[12,4],[24,3]],[[2024,3537],[-18,22],[-12,6],[-3,10],[-15,13],[-30,22],[-3,16],[-6,3]],[[6,3527],[9,10],[9,16],[15,22],[15,41],[3,20],[-3,22],[12,22],[0,22]],[[3348,3524],[9,57],[3,35]],[[0,3526],[6,1]],[[2081,3515],[-24,3],[-33,19]],[[3514,3508],[21,22],[6,10],[6,16],[3,9]],[[2123,3470],[-9,10],[-24,28],[-9,7]],[[2141,3454],[-18,16]],[[3357,3454],[-6,3],[-3,23],[-3,25],[3,19]],[[3357,3454],[-21,3],[-27,-6],[-12,0],[-12,13],[-3,22],[-15,16],[-21,25],[-6,10],[-54,57],[-21,13],[-15,-7]],[[3396,3422],[9,8]],[[3405,3430],[9,8],[18,13],[33,16],[28,19],[21,22]],[[3396,3422],[-8,12]],[[3388,3434],[-7,10],[-24,10]],[[3372,3403],[18,10],[6,9]],[[3348,3381],[0,6],[24,16]],[[3417,3390],[-6,4],[-39,9]],[[3435,3378],[-18,12]],[[4090,3371],[6,2]],[[126,3343],[-12,-7]],[[82,3355],[-19,0],[-33,7],[-9,16],[-9,28],[-12,0]],[[114,3336],[-9,13],[-21,6],[-2,0]],[[3342,3381],[-27,-29],[-24,-18]],[[3291,3334],[-15,-10]],[[357,3320],[-12,10]],[[345,3330],[-15,-3],[-24,3],[-27,0],[-18,-10],[-18,4],[-18,25],[-12,0],[-18,-3],[-12,-7],[-21,0],[-24,10],[-12,-6]],[[3700,3320],[-9,0]],[[3691,3320],[-21,-3]],[[4036,3317],[6,7],[15,3],[21,16],[0,16],[12,12]],[[3670,3317],[-21,0]],[[3649,3317],[-18,3],[-27,-3],[-27,-6]],[[3577,3311],[-33,-7],[-9,0],[-42,20],[-12,9],[-28,29],[-18,16]],[[3276,3324],[-15,-13],[-12,-7],[-15,0],[-9,7],[-21,-7],[-9,-6],[-33,-3],[-6,-6]],[[381,3279],[-12,22],[-6,7],[-6,12]],[[2456,3253],[-18,10],[-12,19],[-45,7],[-18,9],[-21,29],[-30,16],[-18,28],[-18,16],[-45,19],[-36,7],[-15,16],[0,15],[-21,10],[-18,0]],[[3955,3253],[2,16]],[[3957,3269],[1,10],[0,19],[12,16],[24,3],[18,0]],[[3955,3253],[-26,6]],[[3929,3259],[-7,1],[-36,16],[-33,32],[-12,19],[-12,6],[-12,3],[-24,-6],[-21,9],[-12,0],[-30,-15],[-18,-7],[-12,3]],[[2531,3231],[-27,7],[-9,6],[-39,9]],[[3356,3332],[-2,20],[-6,29]],[[3387,3222],[-18,51],[-12,44],[-1,15]],[[3156,3289],[-12,-10],[-21,-10],[-15,0],[-9,4],[-9,16],[-12,3],[-9,9],[-15,0],[-21,-6],[-15,-10],[-21,-9],[-9,-13],[12,-16],[3,-6],[-12,-10],[-6,-19]],[[2985,3212],[-6,-9]],[[3955,3253],[-10,-14]],[[3945,3239],[-5,-8],[-21,-16],[-15,-6],[-36,16],[-15,-7],[-9,-9],[-12,-19]],[[2979,3203],[-12,-7],[-30,-13],[-15,-3]],[[2922,3180],[-36,3],[-18,4],[-18,9],[-9,0],[-18,-6],[-21,6],[-15,-6],[-12,-10]],[[2775,3180],[-12,-6],[-27,-3],[-15,9],[-18,23],[-51,15],[-12,-6],[-18,0],[-15,-6],[-27,0],[-34,9],[-12,7],[-3,9]],[[612,3171],[-3,-7],[-12,-3],[-27,-19],[-15,-3]],[[555,3139],[-24,9],[-15,13],[0,16],[-12,19],[-21,7],[-12,12],[-15,0],[-9,10],[-18,9],[0,13],[-3,10],[-12,3],[-15,9],[-15,4],[-3,6]],[[2282,3136],[6,6],[27,-3],[12,16],[21,3],[0,-10],[21,7],[12,9],[18,16],[21,0],[12,7],[0,16],[9,12],[-3,10],[3,9],[15,19]],[[3832,3190],[-9,-26],[0,-19],[-6,-12],[-9,-7],[-15,-19],[-18,-13]],[[3399,3085],[-6,38],[9,25],[3,26],[-3,13],[-15,35]],[[874,3075],[-6,16]],[[3399,3034],[3,13],[-3,38]],[[3775,3094],[-30,-22],[-12,-16],[-9,-25],[-3,-13]],[[3399,3012],[0,22]],[[868,3091],[-36,7],[-12,-10],[-9,-3],[-12,-16],[0,-16],[-6,-6],[-12,-4],[-9,-9],[-12,6],[-55,-19],[-9,-13],[-21,4],[0,9],[12,22],[-3,13],[0,19],[-6,13],[6,6],[9,16],[-3,10],[-27,13],[-12,12],[0,10],[-9,3],[-15,13],[-15,0]],[[2132,2954],[18,0],[21,7],[15,12],[12,0],[27,-3],[15,3],[18,13],[18,22],[33,10],[15,13],[-9,9],[-6,35],[-21,19],[-6,42]],[[3721,3018],[3,-48],[-6,-25],[-9,-10]],[[2132,2954],[-24,3],[-21,-3],[-6,-3],[-12,-16]],[[3709,2935],[-9,-3],[-42,3],[-27,-6],[-9,3]],[[3603,2941],[-14,-15]],[[3622,2932],[-18,10],[-1,-1]],[[3405,2859],[-3,38],[0,41],[3,13],[-3,32],[-3,29]],[[874,3075],[0,-13],[-21,-25],[-18,-10],[-9,-19],[-12,-12],[-6,-16],[-15,-16],[-3,-19],[-6,-7],[-3,-22],[0,-9],[-9,-16],[3,-16],[-12,-10],[-10,-16],[-18,-6],[-3,-16]],[[2069,2935],[-9,-13],[-18,-9],[-21,-19],[-12,-19],[0,-16],[12,-16],[9,-7],[12,-25]],[[3589,2926],[-5,-5]],[[3584,2921],[-25,-30],[-15,-20],[-24,-15],[-18,-7],[-21,-19],[-40,-44]],[[3441,2786],[-18,41],[-18,32]],[[3441,2786],[-6,-16],[-3,-16],[-6,-13],[-24,-16]],[[2042,2811],[-27,-38],[-18,-10],[-27,3],[-12,-12],[-6,-13],[-15,-6],[-21,-4],[-12,-9],[-9,-3],[-18,9],[-30,-3],[-3,-9]],[[1727,2709],[-9,-3]],[[1844,2716],[-15,-4],[-9,-9],[-12,3],[-15,0],[-12,16],[-9,6],[-15,-3],[-18,-13],[-12,-3]],[[1639,2636],[9,6],[22,3],[12,4],[6,19],[24,19],[9,19],[6,3]],[[732,2827],[18,-22],[13,-4],[21,4],[9,-7],[6,-9],[-3,-16],[-6,-10],[-12,-44],[-9,-19],[12,-20],[-3,-22],[-18,-32]],[[3402,2725],[-12,-6],[-9,-16],[-27,-19],[0,-23],[6,-16],[-6,-25],[3,-32]],[[1582,2521],[18,32],[3,22],[18,26],[6,22],[12,13]],[[657,2493],[0,6],[12,13],[21,16],[12,3],[21,13],[9,6],[12,35],[9,16],[0,13],[7,12]],[[3357,2588],[-27,-41],[-12,-22],[0,-58],[-12,-32]],[[3306,2435],[0,-12]],[[672,2400],[-3,16],[3,16],[18,35],[-9,13],[-18,0],[-6,13]],[[1582,2521],[-9,-16],[3,-9],[-9,-10],[6,-22],[9,-16],[-3,-16],[3,-22],[18,-19],[9,-3],[6,-10],[15,-9],[6,-23],[34,-22],[6,-16]],[[1676,2308],[-31,6],[-15,4],[-24,-10],[-3,-13],[-12,-16],[-6,-12],[-9,-10],[-27,-3]],[[1342,2238],[-6,3],[-24,-6],[-12,9],[-24,4]],[[3315,2232],[3,57],[-6,54],[-6,13],[0,67]],[[1549,2254],[-18,-16],[-3,-10],[-27,-22],[-15,3],[-18,-6]],[[1363,2200],[-12,25],[-9,13]],[[657,2493],[-42,-13],[-15,-6],[-9,-13],[-9,-3],[-18,3],[-12,-22],[-12,-10],[-9,-16],[-12,-9],[-24,-20],[-18,-25],[-33,-29],[-21,-6],[-9,-13],[0,-35],[24,-67],[3,-3],[15,0],[0,-13]],[[456,2193],[-6,-6]],[[1375,2181],[0,9],[-12,10]],[[1276,2248],[-12,-4],[-15,7],[-15,0],[-12,-7],[-21,-12],[-12,0],[-33,3],[-33,-10],[-30,-16],[-18,-12],[-21,-7],[-18,3],[-15,4],[-6,9],[-15,7],[-6,-20],[-12,-3],[-6,-9],[-18,0],[-12,9],[-9,-3],[-18,3],[-12,-9],[-9,-13],[-39,-6]],[[859,2162],[-3,12],[3,26],[-9,6],[-3,13],[-12,19],[-15,10],[-15,3],[-6,12],[-15,-3],[-9,7],[-9,-4],[-13,7],[-9,0],[-21,-10],[-9,13],[0,10],[-12,6],[0,13],[-9,3],[0,19],[6,6],[-3,13],[6,10],[-3,12],[-6,7],[-3,19],[-18,9]],[[1390,2158],[-15,23]],[[1417,2136],[-15,10],[-12,12]],[[1468,2203],[-12,-25],[-21,-13],[-6,-7],[-3,-19],[-9,-3]],[[1420,2130],[-3,6]],[[1546,2076],[-9,9],[-27,10],[-12,6],[-27,10],[-9,3],[-15,0],[-6,6],[-12,3],[-9,7]],[[450,2187],[-15,-22],[-9,-22],[-21,-26],[-24,-32],[-6,-13],[-12,-15],[-6,-23],[-15,-6]],[[3315,2232],[0,-29],[-9,-32],[-21,-38],[-21,-41],[3,-45],[-6,-22]],[[2315,2034],[-9,-12],[-21,-4],[-12,7],[-15,3],[-6,6],[-9,16],[-9,16],[-27,16],[-21,6],[-18,16],[-27,13],[-24,10],[-6,25],[-12,0],[-9,10],[-27,3],[-18,9],[-15,16],[-15,7],[-15,-4],[-9,0],[-21,13],[-33,0],[-18,10],[-30,9],[-12,16],[3,16],[-6,26],[-24,6],[-12,-3],[-6,-7],[-36,-3],[-18,3],[-9,7],[-36,-3],[-18,3],[-39,22]],[[3261,2025],[-51,-70],[-21,-23]],[[2570,1907],[-12,0],[-9,9],[-21,4],[-12,12],[-18,7],[-24,19],[-21,0],[-12,13],[-18,0],[-12,9],[-18,19],[-18,3],[-21,13],[-15,3],[-24,16]],[[1546,2076],[-6,-7],[3,-9],[-3,-23],[-6,-19],[3,-12],[-6,-10],[6,-35],[-6,-22],[0,-13],[-9,-19],[9,-19]],[[3189,1932],[-3,-9],[-15,-42]],[[1531,1888],[3,-16],[24,-16],[33,-16],[30,3],[12,10]],[[3171,1881],[-9,-28],[3,-22]],[[3165,1831],[9,-29]],[[3174,1802],[-9,-6],[-18,0],[-36,-23],[-27,-6]],[[2856,1770],[-15,0],[-15,-9],[-42,9],[-24,32],[-15,0],[-12,3],[-15,13],[0,13],[-18,6],[-51,16],[-18,13],[-21,3],[-6,6],[-15,6],[-19,26]],[[3084,1767],[-21,-6]],[[2958,1745],[-9,0],[-21,12],[-21,-6],[-18,13],[-33,6]],[[3063,1761],[-48,-13],[-12,-7]],[[3003,1741],[-15,-3],[-30,7]],[[3174,1802],[9,-51],[-9,-22],[3,-7],[18,-9],[12,-16],[3,-13],[-3,-22]],[[3224,1604],[4,-3],[0,-19],[3,-19],[2,0]],[[3207,1662],[0,-16],[6,-26],[3,-9],[8,-7]],[[3233,1563],[16,-6],[6,-13]],[[1799,1487],[9,9],[3,19],[0,13],[-21,29],[-12,22],[-3,16],[3,29],[-9,19],[-6,63],[33,29],[6,13],[-6,6],[-33,19],[-21,16],[-15,3],[-18,13],[-15,22],[-15,13],[-19,0],[-18,13],[-9,0]],[[3255,1544],[-3,-16],[-9,-13],[-6,-19],[3,-12]],[[3240,1484],[12,-32],[15,-13],[33,-38]],[[1742,1363],[3,31],[0,13],[6,16],[21,26],[6,12],[21,26]],[[3300,1401],[18,-23],[18,-19],[48,-44]],[[3384,1315],[9,-7]],[[3393,1308],[3,-6]],[[1742,1363],[12,-10],[33,0],[15,-10],[30,-6],[12,-6],[15,0],[18,-10],[18,-9],[6,-10],[15,-3],[27,13],[15,12]],[[1495,1270],[15,32],[3,22],[12,23],[6,19],[6,6],[27,3],[9,7],[18,-13],[21,-6],[15,3],[12,-3],[15,3],[25,-13],[15,-3],[24,-3],[21,-13],[0,-10]],[[1958,1324],[30,-6],[9,-10],[12,-15],[12,0],[15,-16],[15,-10],[12,0],[21,13],[18,-3],[6,-10],[15,-13],[18,-22],[12,-16],[30,-41],[6,-13],[12,-16],[9,-19]],[[3396,1302],[33,-35],[33,-29],[28,-9],[30,-13],[54,-9],[36,-20],[21,-9],[3,-3],[39,-64]],[[1333,1067],[6,6],[-3,16],[24,57],[12,16],[24,10],[3,6],[0,13],[6,16],[-3,22],[12,9],[27,10],[12,6],[15,-3],[12,3],[15,16]],[[1324,1057],[9,10]],[[1123,974],[3,3],[12,11]],[[1138,988],[39,34],[30,6],[33,16],[18,0],[24,-12],[24,-7],[18,32]],[[1061,968],[11,3]],[[1000,1012],[2,-9]],[[1002,1003],[4,-19],[9,-7],[3,-9],[12,-10],[9,0],[21,10],[1,0]],[[1087,955],[-15,16]],[[1087,955],[18,3],[9,13],[9,3]],[[1091,948],[-4,7]],[[1111,872],[-3,19],[-9,42],[-8,15]],[[3781,869],[-6,29],[3,48],[-3,15],[18,10],[15,22],[-3,16],[-6,10],[9,3],[-3,6],[3,7],[-3,9],[-15,13],[-36,13],[-9,9],[-15,7],[-30,3],[-12,6],[-15,16]],[[2210,1127],[12,-29],[6,-16],[6,-25],[9,-25],[18,-36],[21,-25],[33,-29],[15,-25],[12,-13],[15,-6],[12,-29],[21,-22],[15,-10],[24,-3]],[[1126,793],[-15,35],[3,22],[-3,22]],[[3835,770],[-3,13],[-15,22],[-21,32],[-15,32]],[[3835,770],[12,-15],[3,-32],[12,-19]],[[1129,688],[3,41],[-12,26],[0,22],[6,16]],[[3862,704],[33,-32],[9,-29],[6,-9]],[[348,656],[-12,3],[-36,-9],[-21,0],[-66,-10],[-21,-6]],[[2565,635],[9,-11],[18,-16],[15,-13]],[[2429,834],[15,-16],[9,-22],[36,-29],[6,-19],[15,-28],[3,-20],[12,-9],[27,-32],[9,-19],[4,-5]],[[1120,589],[3,32],[6,25],[-1,7]],[[1128,653],[-2,12],[3,23]],[[1120,583],[0,6]],[[381,519],[0,6],[-21,64],[-12,35],[0,32]],[[387,516],[-6,3]],[[2357,500],[-21,6],[-21,16],[-9,3],[-66,13]],[[2574,589],[-4,-3]],[[2570,586],[-18,-13],[-39,0],[-18,-3],[-36,-22],[-15,-4],[-15,-9],[-18,-10],[-27,-22],[-9,-6],[-18,3]],[[0,557],[30,29],[15,19],[21,22],[18,10],[48,-3],[21,-4],[21,0],[18,4]],[[2601,589],[7,-7]],[[2608,582],[26,-22],[12,-9],[39,-35],[24,-22],[6,3],[6,-10]],[[2240,538],[-24,-13],[-27,-19],[-36,-28],[-15,-4]],[[387,516],[-3,-19],[0,-13],[15,-19],[3,-10],[15,-12]],[[4096,435],[-90,68],[-12,16],[-15,13],[-9,12],[-15,13],[-6,10],[-18,19],[-9,19],[-6,19],[-6,10]],[[2138,474],[-36,10],[-12,-3],[-3,-10],[-6,-25],[-9,-13]],[[2082,428],[11,-5],[20,-17]],[[2072,433],[10,-5]],[[2113,406],[1,-2]],[[1120,583],[10,-15]],[[1130,568],[101,-148],[-3,-35]],[[1228,385],[-15,-70],[-24,-35],[6,-12],[-3,-13],[-12,-23],[-3,-15],[0,-13],[-9,-35]],[[3,124],[3,13],[6,16],[0,13],[-12,24]],[[2721,487],[3,-6],[0,-19],[12,-13],[3,-13],[-15,-41],[-3,-19],[3,-13],[-3,-16],[6,-22],[3,-16],[-6,-10],[-39,-25],[-9,-10],[-9,-25],[-3,-45],[-6,-16],[3,-35],[3,-12],[-3,-35]],[[0,121],[3,3]],[[1168,169],[-15,-22],[-6,-23],[-18,-41],[-3,-10]],[[2114,404],[-54,-25],[-39,-10],[-15,-3],[-15,-19],[-9,-16],[-3,-38],[-21,-29],[-27,-3],[-3,-6],[6,-19],[0,-19],[15,-16],[9,-26],[-12,-6],[-12,-13],[-9,-16],[-21,-13],[-21,-6],[-24,-16],[-18,-9],[-3,-7],[-24,-41]],[[2715,32],[-18,35],[-21,16],[-15,13]],[[2730,29],[-15,3]],[[1126,38],[0,-4]],[[1126,34],[0,-5]],[[1126,73],[0,-35]],[[2628,19],[27,0],[18,-6],[12,3],[30,16]],[[2628,19],[-16,-19]],[[417,443],[24,-39],[3,-16],[12,-22],[0,-13],[-6,-19],[6,-9],[3,-16],[9,-16],[18,-19],[12,-19],[0,-16],[-3,-16],[-15,-16],[-3,-10],[6,-9],[18,-10],[30,-6],[6,-10],[3,-35],[12,-15],[3,-13],[-12,-26],[-3,-28],[-9,-23],[2,-22]],[[1814,48],[-21,-38],[-6,-10]],[[2742,0],[3,10],[-12,9],[-3,10]],[[1126,29],[0,-23],[2,-6]],[[4096,3237],[0,-31],[-1,0],[-13,2],[-6,4],[-4,12],[-14,31],[-2,18],[-4,-7],[-1,-6],[1,-7],[4,-7],[-6,0],[-9,6],[-11,2],[-10,5],[-4,14],[6,22],[9,20],[28,-12],[9,-10],[3,-18],[4,-10],[21,-28]],[[4096,479],[0,-479],[-4096,0],[0,1608],[0,2488],[3615,0],[481,0],[0,-731],[-1,1],[-5,-9],[-2,5],[-3,1],[-4,-1],[15,-18],[0,-24],[-1,0],[1,-4],[0,-31],[-5,-7],[-6,5],[-6,16],[-13,10],[2,4],[-1,2],[-1,5],[-5,0],[-15,-4],[-17,8],[-8,11],[12,6],[13,1],[8,3],[2,5],[0,7],[-5,4],[-8,3],[-3,6],[10,8],[-4,5],[-6,4],[-6,2],[-8,0],[1,-2],[2,-6],[2,-3],[-17,2],[-12,7],[-11,4],[-15,-7],[0,-6],[6,0],[0,-5],[-28,11],[-16,3],[-12,-3],[7,-2],[1,0],[22,-9],[0,-5],[-5,2],[-15,3],[0,-5],[7,-7],[3,-8],[2,-9],[3,-8],[8,-4],[18,-1],[16,-7],[9,0],[7,-3],[2,-14],[-1,-10],[-7,-10],[-2,-9],[-5,0],[-14,16],[-13,-16],[5,-10],[14,-7],[13,-10],[6,-17],[-3,-17],[-9,-7],[-13,10],[4,-14],[11,-16],[12,-14],[12,-9],[5,5],[7,-12],[13,-41],[-15,12],[-7,6],[-3,6],[-4,4],[-8,-3],[-8,-6],[-2,-3],[-7,-1],[-5,-2],[-6,-2],[-9,0],[-21,6],[-10,-1],[0,-5],[18,-8],[12,-7],[0,-10],[-15,-12],[-10,-5],[-11,-5],[-12,-2],[-12,1],[-6,5],[-11,15],[-8,6],[4,-11],[1,-2],[4,-6],[11,-12],[4,-3],[3,0],[3,-2],[0,-8],[0,-5],[-2,-4],[-3,-3],[-12,-5],[-16,-14],[-47,-19],[13,-7],[11,0],[21,12],[0,-5],[-9,-13],[5,-11],[7,-11],[-3,-14],[-4,0],[-21,-8],[-2,-2],[-4,-2],[-5,-6],[-5,-7],[-4,-6],[5,0],[10,7],[17,7],[16,2],[8,-8],[-3,-33],[-5,-18],[-8,-10],[-4,7],[-1,4],[1,-3],[-1,-2],[-2,-1],[-3,0],[13,-13],[2,-6],[3,-10],[1,-12],[2,-15],[3,-21],[-8,-9],[-16,17],[-7,10],[-9,8],[-11,3],[-13,-4],[-4,0],[3,-6],[1,-2],[6,-2],[6,3],[3,7],[17,-13],[3,-4],[3,-6],[7,-13],[5,-11],[-2,-12],[-12,-5],[-9,1],[-9,-3],[-17,-4],[-24,-2],[-9,-2],[-48,-6],[0,6],[5,0],[0,5],[-5,-1],[-3,-1],[-7,-3],[0,-6],[5,-5],[-5,-4],[-15,-7],[-5,-5],[-9,-21],[-26,-32],[-16,-11],[-17,-25],[-17,-11],[-16,-19],[-2,-1],[-11,-7],[7,17],[3,4],[-5,6],[-5,-11],[-9,-23],[-6,-9],[-11,-6],[-27,-7],[-12,-8],[-4,12],[2,12],[5,14],[2,15],[-5,0],[-2,-12],[-11,-34],[-4,-7],[-11,3],[-12,7],[-10,8],[-5,9],[-5,0],[-4,-10],[-8,-10],[-32,-30],[-7,-7],[-4,-12],[0,-7],[5,-12],[0,-8],[-15,-21],[-3,-11],[1,-22],[-3,-9],[-2,3],[-8,8],[-4,-8],[-11,-8],[-20,-11],[5,-6],[10,5],[20,2],[10,5],[-4,-11],[-13,-17],[-3,-12],[-4,-6],[-11,1],[-10,-1],[-5,-10],[-3,-13],[-16,-26],[-6,-12],[-1,-12],[0,-21],[-4,-9],[-1,17],[-10,3],[-9,-8],[0,-12],[3,5],[5,7],[2,4],[4,-7],[2,-7],[0,-9],[1,-3],[3,-1],[0,-28],[-8,-59],[3,-29],[-10,6],[-10,-21],[-10,5],[0,-5],[9,-7],[3,-9],[3,-22],[14,-25],[1,-12],[-15,11],[2,-8],[3,-8],[6,2],[3,-2],[-1,-15],[-2,-5],[-1,-1],[-6,-4],[-6,-1],[-6,-1],[-6,-22],[-9,-1],[-10,2],[-2,-5],[-9,-47],[-1,-28],[5,-20],[-18,-9],[-7,-5],[-5,-7],[-20,7],[-18,-19],[-13,-29],[-8,-23],[-1,-10],[4,-7],[2,-6],[1,-11],[5,-25],[4,-9],[10,-13],[15,-14],[18,-11],[17,-5],[0,-5],[-11,-11],[-3,7],[-4,5],[-6,3],[-7,1],[8,-18],[2,-3],[5,-2],[13,1],[5,-2],[15,-17],[8,-11],[4,-11],[-11,-32],[4,-5],[3,-4],[3,-3],[1,-14],[-2,-16],[-3,-11],[14,7],[0,18],[-1,19],[-1,28],[-2,2],[14,-9],[5,-21],[0,-1],[1,-22],[3,-10],[5,-9],[17,-55],[39,-64],[26,-29],[25,-2],[2,-14],[5,-16],[6,-13],[7,-10],[17,-13],[6,-5],[27,-36],[38,-33],[9,-11],[2,-9],[-14,-4],[7,-5],[12,2],[16,6],[18,3],[11,-5],[24,-19],[14,-11],[5,-3],[16,-6],[6,-4],[20,-27],[25,-18],[10,-10],[6,-14],[-6,0],[-7,5],[-9,-2],[-9,-6],[-4,-8],[9,-5],[4,3],[2,1],[10,1],[-5,-9],[2,-7],[7,-15],[0,9],[3,9],[3,8],[4,5],[8,4],[5,-2],[5,-2],[7,0],[7,5],[13,17],[9,-4],[-1,-8],[-8,-15],[4,-16],[8,-16],[58,-74],[5,-5],[0,-5],[-15,-10],[-14,-12],[-8,-9],[-6,-10],[-8,-7],[-14,1],[0,-6],[8,-2],[3,-5],[-1,-7],[-5,-8],[7,-14],[6,-22],[7,-40],[4,-8],[15,-15],[2,-6],[-7,-6],[-8,1],[-21,9],[-10,19],[-7,4],[-11,1],[-26,14],[-50,6],[-11,4],[-5,-4],[11,-8],[17,-7],[17,-4],[25,-3],[35,-10],[0,-6],[-5,0],[-14,6],[-14,-9],[-3,-16],[21,-12],[-4,9],[-2,3],[-4,4],[17,7],[23,-3],[24,-10],[16,-10],[8,-10],[17,-33],[20,-23],[35,-61],[9,-25],[6,-12],[3,-1],[14,-12],[1,-3],[3,-2],[9,-14],[64,-72],[81,-61]],[[0,1600],[17,-16],[-17,-24],[0,40]],[[0,3497],[182,63],[83,-15],[-21,-29],[18,-12],[-55,-58],[-57,0],[-77,-60],[12,-41],[-29,-33],[25,-25],[-41,-26],[52,-32],[68,51],[1,-68],[-13,-24],[-48,4],[21,-65],[-46,-49],[-75,-30],[0,449]],[[249,0],[-121,0],[7,19],[-33,0],[-18,29],[59,17],[28,40],[-15,44],[-36,-21],[-15,18],[10,61],[41,-3],[27,38],[43,5],[34,-71],[-23,-24],[26,-65],[90,-73],[-7,-14],[-76,0],[0,8],[-21,0],[0,-8]],[[2013,219],[62,27],[15,-22],[34,14],[6,-32],[54,75],[72,-52],[138,-48],[-62,-65],[-33,24],[-51,-9],[2,40],[-14,-25],[-43,2],[-49,60],[-57,-44],[-3,32],[-41,-13],[-30,36]],[[1580,488],[9,20],[71,-38],[13,-12],[-50,-1],[59,-48],[18,16],[-24,31],[61,-36],[46,-73],[34,1],[21,-50],[26,-4],[-24,-40],[-28,-18],[-20,51],[-70,10],[-18,-17],[3,58],[46,17],[-12,32],[-32,-15],[-3,31],[-15,-5],[-90,55],[-21,35]],[[1715,408],[1,-4],[4,-2],[6,1],[-11,5]],[[1809,255],[5,-8],[8,8],[-3,3],[-10,-3]],[[1601,480],[5,-2],[2,0],[-5,9],[-2,-7]],[[3247,660],[32,1],[11,41],[72,-42],[-15,54],[-60,7],[14,82],[298,-307],[-141,-19],[-73,53],[0,43],[-66,1],[-37,34],[8,25],[-43,27]],[[697,1380],[121,97],[-24,-60],[19,-13],[-52,-75],[84,-47],[26,-131],[-1,-69],[-21,-17],[-50,26],[-71,112],[6,94],[-37,83]],[[2212,2691],[5,21],[92,2],[144,58],[114,-22],[58,-40],[-108,-43],[-13,-43],[-34,-6],[-61,29],[12,26],[-136,-25],[-73,43]],[[3009,3884],[43,17],[16,-21],[13,20],[59,-41],[-8,-23],[25,12],[-5,-33],[110,-117],[-13,-68],[-5,48],[-37,-23],[-46,69],[-29,-1],[-12,59],[-14,-11],[-71,81],[12,20],[-38,12]],[[715,0],[-49,0],[30,55],[3,100],[21,23],[86,-85],[6,-45],[-18,34],[-50,-4],[-29,-78]],[[774,0],[-31,0],[58,20],[-27,-20]],[[697,1380],[121,97],[-24,-60],[19,-13],[-52,-75],[84,-47],[26,-131],[-1,-69],[-21,-17],[-50,26],[-71,112],[6,94],[-37,83]],[[1111,19],[-24,8],[8,43],[33,-34],[-17,-17]],[[1233,87],[-29,5],[-12,21],[38,-12],[3,-14]],[[2131,405],[-46,2],[-3,23],[18,0],[31,-25]],[[2554,635],[38,1],[32,-47],[-48,-21],[-22,67]],[[1150,561],[-47,15],[25,77],[30,-66],[-8,-26]],[[3254,1582],[-31,-28],[-16,25],[24,35],[23,-32]],[[3599,2954],[10,-29],[-22,-8],[-15,21],[27,16]],[[3969,3278],[35,-37],[-73,-3],[-4,39],[32,-8],[0,25],[10,-16]],[[3320,3450],[88,-20],[9,-40],[-73,-70],[-65,17],[0,103],[41,10]],[[3368,3843],[-17,-26],[-31,9],[8,12],[40,5]],[[1144,996],[-33,-47],[-64,-4],[32,51],[65,0]],[[1043,1056],[-20,-60],[-82,26],[32,34],[90,18],[-20,-18]],[[2114,158],[13,29],[26,-8],[43,-33],[-7,-38],[7,-12],[2,44],[77,-13],[7,-61],[-46,4],[-13,26],[-56,-27],[-53,89]],[[0,1958],[5,-37],[73,-58],[-16,-35],[-62,13],[0,117]],[[889,129],[41,28],[40,-39],[-1,63],[24,-32],[37,111],[34,15],[4,-40],[-53,-55],[-22,-93],[-61,-1],[-3,26],[-40,17]],[[844,218],[20,68],[38,15],[23,-85],[-64,-44],[-17,30],[10,-15],[11,2],[-11,19],[21,5],[1,8],[-32,-3]],[[871,234],[4,-12],[7,-1],[-3,25],[-8,-12]],[[896,247],[8,-8],[5,18],[-12,-5],[-1,-5]],[[880,239],[9,-7],[3,16],[-9,4],[-3,-13]],[[2151,1777],[47,31],[-11,43],[25,65],[79,-48],[36,-56],[61,1],[38,-65],[90,-50],[-10,-76],[26,-19],[-70,-17],[-106,60],[-146,-21],[-59,152]],[[2961,318],[111,19],[69,-16],[247,-168],[21,16],[73,-19],[52,-62],[-48,-31],[-69,46],[-38,-44],[-147,2],[11,17],[-40,79],[-17,-12],[0,62],[-86,22],[-17,47],[-103,4],[-19,38]],[[3300,812],[32,39],[127,-102],[-8,25],[26,13],[60,-22],[66,26],[2,-25],[32,21],[2,-57],[44,0],[-26,-49],[29,-32],[53,-2],[-13,-66],[-28,-13],[-4,28],[-176,-29],[-218,245]],[[3748,0],[-135,0],[6,31],[129,-31]],[[0,1560],[17,24],[-17,163],[48,62],[38,-18],[9,-51],[78,2],[7,-154],[-24,-84],[-142,-226],[-14,282]],[[2291,1860],[155,60],[29,-28],[-9,-36],[45,-13],[16,-39],[54,1],[43,-43],[42,35],[54,-74],[-41,-65],[-94,-4],[-159,94],[-38,65],[-61,-1],[-36,48]],[[955,4096],[61,-66],[6,-105],[-31,-35],[-64,-13],[-36,17],[-8,71],[-46,1],[-40,95],[-76,19],[234,16]],[[1277,2573],[113,149],[0,57],[-44,65],[53,44],[32,-2],[15,34],[-23,12],[34,33],[65,-18],[6,-27],[21,152],[-24,57],[53,21],[17,72],[44,-46],[75,-6],[59,-64],[138,8],[-4,-62],[-62,-72],[33,-27],[-7,-47],[-104,-42],[20,-65],[-68,-60],[-148,-14],[-9,27],[9,-44],[-52,-12],[-25,21],[13,20],[-38,-1],[34,-182],[-40,-6],[-28,-60],[-71,-18],[-68,38],[-19,65]],[[1536,2877],[5,-22],[3,18],[-8,4]],[[1013,1371],[32,40],[-10,36],[99,23],[288,-9],[14,24],[105,10],[85,-40],[-1,-29],[-77,4],[-190,-59],[-13,-37],[37,-23],[-61,-83],[-163,14],[-145,129]],[[1979,1471],[45,67],[120,26],[100,-99],[8,-62],[194,-190],[-68,15],[-72,-31],[-79,19],[-77,76],[-68,28],[-103,151]],[[2304,1062],[35,54],[223,-1],[161,-295],[122,-72],[-20,-81],[25,-18],[-20,-26],[-108,13],[-89,42],[-61,79],[21,20],[-22,31],[-110,90],[-77,24],[-80,140]],[[2759,1028],[78,85],[-16,42],[64,13],[-19,83],[-60,14],[-4,24],[44,63],[25,-1],[-4,-48],[42,-23],[9,-33],[33,-13],[18,18],[-4,-45],[54,-41],[27,51],[45,-9],[10,-60],[98,-101],[-26,-89],[48,-24],[2,-39],[49,-57],[13,-46],[-29,-61],[-222,13],[-71,28],[-90,107],[-78,61],[-31,-2],[-5,90]],[[3110,2885],[75,5],[75,-102],[-105,28],[-45,69]],[[3531,352],[52,2],[36,-41],[85,-25],[65,10],[55,-34],[-10,-41],[-99,-33],[-17,45],[-72,14],[-11,39],[-66,27],[-18,37]],[[2414,1610],[144,-29],[17,-57],[26,19],[-20,-61],[18,-37],[-47,-28],[69,6],[10,-21],[-31,-17],[40,-78],[-35,35],[-35,-13],[-119,60],[-16,61],[11,24],[49,-8],[-39,39],[35,22],[-72,42],[-5,41]],[[2506,1622],[14,76],[68,-44],[82,5],[18,-36],[140,-17],[47,-59],[-61,-78],[-8,-71],[40,-47],[-22,-28],[-62,39],[-63,-18],[-20,30],[7,32],[61,-12],[-51,69],[60,43],[-14,39],[-85,58],[-56,-33],[2,42],[-71,-9],[-26,19]],[[1825,2325],[36,91],[-51,-10],[-37,48],[-47,-22],[2,-39],[-23,-8],[-41,29],[17,31],[-22,52],[54,65],[20,-28],[47,7],[-12,44],[63,43],[80,-56],[1,-64],[-24,-21],[43,-12],[18,-35],[55,14],[27,51],[46,-20],[59,25],[-28,-71],[20,-46],[-15,-54],[-82,26],[-62,-30],[-43,17],[-101,-27]]]}