{"objects":{"water":{"type":"GeometryCollection","geometries":[{"type":"Polygon","properties":{"kind":"lake","name":"Ubolratna Reservoir","reservoir":true,"area":228292992,"sort_rank":200,"source":"naturalearthdata.com","min_zoom":0.0,"id":1045},"arcs":[[576]]},{"type":"MultiPolygon","properties":{"source":"naturalearthdata.com","kind":"ocean","area":1576712559132672,"sort_rank":200,"min_zoom":0.0,"id":1},"arcs":[[[577],[578],[579],[580],[581],[582]]]},{"type":"Polygon","properties":{"source":"naturalearthdata.com","kind":"lake","name":"Tonle Sap","area":2687235840,"sort_rank":200,"min_zoom":0.0,"id":494},"arcs":[[583]]},{"type":"Point","properties":{"label_placement":true,"kind":"lake","name":"Tonle Sap","area":2687235840,"sort_rank":200,"source":"naturalearthdata.com","min_zoom":0.0,"id":494},"coordinates":[2023,1231]},{"type":"LineString","properties":{"source":"naturalearthdata.com","kind":"ocean","sort_rank":205,"boundary":true,"min_zoom":0.0,"id":79},"arcs":[584]},{"type":"LineString","properties":{"source":"naturalearthdata.com","kind":"lake","sort_rank":367,"boundary":true,"min_zoom":0.0,"id":494},"arcs":[585]},{"type":"LineString","properties":{"source":"naturalearthdata.com","kind":"lake","reservoir":true,"sort_rank":367,"boundary":true,"min_zoom":0.0,"id":1045},"arcs":[586]},{"type":"LineString","properties":{"source":"naturalearthdata.com","kind":"ocean","sort_rank":205,"boundary":true,"min_zoom":0.0,"id":1758},"arcs":[587]},{"type":"LineString","properties":{"source":"naturalearthdata.com","kind":"ocean","sort_rank":205,"boundary":true,"min_zoom":0.0,"id":1759},"arcs":[588]},{"type":"LineString","properties":{"source":"naturalearthdata.com","kind":"ocean","sort_rank":205,"boundary":true,"min_zoom":0.0,"id":1760},"arcs":[589]},{"type":"LineString","properties":{"source":"naturalearthdata.com","kind":"ocean","sort_rank":205,"boundary":true,"min_zoom":0.0,"id":1761},"arcs":[590]}]},"buildings":{"type":"GeometryCollection","geometries":[]},"places":{"type":"GeometryCollection","geometries":[{"type":"Point","properties":{"name:ka":"\u10d9\u10d0\u10db\u10d1\u10dd\u10ef\u10d0","name:ko":"\uce84\ubcf4\ub514\uc544","name:cv":"\u041a\u0430\u043c\u0431\u043e\u0434\u0436\u0430","name:kl":"Kambodia","name:cs":"Kambod\u017ea","name:ki":"Kambodia","name:kw":"Kamboji","name:kv":"\u041a\u0430\u043c\u0431\u043e\u0434\u0436\u0430","name:ku":"Kamboca","name:ti":"\u12ab\u121d\u1266\u12f2\u12eb","name:ks":"\u06a9\u064e\u0645\u0628\u0648\u0691\u0650\u06cc\u0627","name:to":"Kemip\u014dtia","name:tl":"Kambodya","name:ce":"\u041a\u0430\u043c\u0431\u043e\u0434\u0436\u0430","name:ta":"\u0b95\u0bae\u0bcd\u0baa\u0bcb\u0b9f\u0bbf\u0baf\u0bbe","name:tg":"\u041a\u0430\u043c\u0431\u043e\u04b7\u0430","name:ca":"Cambodja","name:te":"\u0c15\u0c02\u0c2c\u0c4b\u0c21\u0c3f\u0c2f\u0c3e","name:cy":"Cambodia","name:hr":"Kambod\u017ea","name:da":"Cambodja","name:de":"Kambodscha","name:dz":"\u0f40\u0f58\u0f0b\u0f56\u0fb7\u0f7c\u0f0b\u0f4c\u0f72\u0f0b\u0f61","source":"openstreetmap.org","name:kn":"\u0c95\u0cbe\u0c82\u0cac\u0ccb\u0ca1\u0cbf\u0caf\u0cbe","name:dv":"\u0786\u07ac\u0782\u07b0\u0784\u07af\u0791\u07a8\u0787\u07a7","name:lv":"Kambod\u017ea","name:lt":"Kambod\u017ea","name:uz":"Kambodja","name:kk":"\u041a\u0430\u043c\u0431\u043e\u0434\u0436\u0430","name:ur":"\u06a9\u0645\u0628\u0648\u0688\u06cc\u0627","name:lb":"Kambodscha","name:la":"Cambosia","name:lg":"Kambodya","name:uk":"\u041a\u0430\u043c\u0431\u043e\u0434\u0436\u0430","name:ug":"\u0643\u0627\u0645\u0628\u0648\u062c\u0627","name:li":"Cambodja","name:ln":"Kambodza","name:lo":"\u0ea3\u0eb2\u0e8a\u0ead\u0eb2\u0e99\u0eb2\u0e88\u0eb1\u0e81 \u0e81\u0eb3\u0e9b\u0eb9\u0ec0\u0e88\u0e8d","name:el":"\u039a\u03b1\u03bc\u03c0\u03cc\u03c4\u03b6\u03b7","name:eo":"Kambo\u011do","name:en":"Cambodia","name":"\u1780\u1798\u17d2\u1796\u17bb\u1787\u17b6","name:tk":"Kambo\u00e7i\u00fda","name:ee":"Kambodia nutome","name:th":"\u0e1b\u0e23\u0e30\u0e40\u0e17\u0e28 \u0e01\u0e31\u0e21\u0e1e\u0e39\u0e0a\u0e32","name:eu":"Kanbodia","name:et":"Kambod\u017ea","name:es":"Camboya","name:ia":"Cambodgia","name:rm":"Cambodscha","name:rn":"Kamboje","name:az":"Kamboca","name:ie":"Cambodja","name:id":"Kamboja","name:ar":"\u0643\u0645\u0628\u0648\u062f\u064a\u0627","name:io":"Kambodja","name:ak":"Kambodia","name:am":"\u12ab\u121d\u1266\u12f2\u12eb","name:it":"Cambogia","name:an":"Cambocha","name:ru":"\u041a\u0430\u043c\u0431\u043e\u0434\u0436\u0430","name:rw":"Kambodiya","name:af":"Kambodja","name:zu":"i-Cambodia","name:zh-yue":"\u67ec\u57d4\u5be8","name:zh":"\u67ec\u57d4\u5be8","name:so":"Kamboodiya","name:sn":"Kambodia","name:sl":"Kambod\u017ea","name:sk":"Kambod\u017ea","name:ja":"\u30ab\u30f3\u30dc\u30b8\u30a2","name:si":"\u0d9a\u0dcf\u0db8\u0dca\u0db6\u0ddd\u0da2\u0dba","name:sh":"Kambod\u017ea","name:sg":"K\u00e4mb\u00f4zi","name:se":"Kambod\u017ea","name:br":"Kambodja","name:bs":"Kambod\u017ea","name:bm":"Kamboji","name:bn":"\u0995\u09be\u09ae\u09cd\u09ac\u09cb\u099c","name:bo":"\u0f40\u0f58\u0f0b\u0f56\u0f7c\u0f0b\u0f4c\u0f72\u0f0b\u0f61\u0f0d","name:sw":"Kambodia","name:be":"\u041a\u0430\u043c\u0431\u043e\u0434\u0436\u0430","name:su":"Kamboja","name:bg":"\u041a\u0430\u043c\u0431\u043e\u0434\u0436\u0430","name:ss":"IKhambodiya","name:ba":"\u041a\u0430\u043c\u0431\u043e\u0434\u0436\u0430","name:sq":"Kamboxhi","name:jv":"Kamboja","name:pt":"Camboja","name:ps":"\u06a9\u0645\u0628\u0648\u062f\u06cc\u0627","name:oc":"Camb\u00f2tja","min_zoom":2.0,"name:ro":"Cambodgia","name:zh-min-nan":"Kampuchea","name:os":"\u041a\u0430\u043c\u0431\u043e\u0434\u0436\u00e6","name:or":"\u0b15\u0b3e\u0b2e\u0b4d\u0b2c\u0b4b\u0b21\u0b3f\u0b06","name:pl":"Kambod\u017ca","name:sr":"\u041a\u0430\u043c\u0431\u043e\u045f\u0430","name:pa":"\u0a15\u0a70\u0a2c\u0a4b\u0a21\u0a40\u0a06","name:tr":"Kambo\u00e7ya","name:hi":"\u0915\u092e\u094d\u092c\u094b\u0921\u093f\u092f\u093e","name:sv":"Kambodja","name:he":"\u05e7\u05de\u05d1\u05d5\u05d3\u05d9\u05d4","name:ha":"Kambodiya","name:hy":"\u053f\u0561\u0574\u0562\u0578\u057b\u0561","name:ht":"Kanb\u00f2dj","name:hu":"Kambodzsa","name:qu":"Kambuya","population":14138255,"kind":"country","name:is":"Kamb\u00f3d\u00eda","name:yi":"\u05e7\u05d0\u05de\u05d1\u05d0\u05d3\u05d9\u05e2","name:yo":"Or\u00edl\u1eb9\u0301\u00e8de K\u00e0m\u00f9b\u00f3d\u00ed\u00e0","name:mt":"Kambodja","name:ms":"Kemboja","name:mr":"\u0915\u0902\u092c\u094b\u0921\u093f\u092f\u093e","name:my":"\u1000\u1019\u1039\u1018\u1031\u102c\u1012\u102e\u1038\u101a\u102c\u1038","int_name":"Cambodia","name:mg":"Kamb\u00f4dja","name:ml":"\u0d15\u0d02\u0d2c\u0d4b\u0d21\u0d3f\u0d2f","name:vi":"Campuchia","name:mn":"\u041a\u0430\u043c\u0431\u043e\u0436","name:mi":"Kamap\u014dtia","id":432424952,"name:mk":"\u041a\u0430\u043c\u0431\u043e\u045f\u0430","name:vo":"Kamboc\u00e4n","name:fa":"\u06a9\u0627\u0645\u0628\u0648\u062c","name:ff":"Kambodso","name:fi":"Kambod\u017ea","old_name:vi":"Cao Mi\u00ean","name:fo":"Kambodja","alt_name:vi":"C\u0103m B\u1ed1t","name:fr":"Cambodge","name:fy":"Kambodja","name:nl":"Cambodja","name:nn":"Kambodsja","name:no":"Kambodsja","name:na":"Kambodja","name:ne":"\u0915\u092e\u094d\u092c\u094b\u0921\u093f\u092f\u093e","name:wo":"Kamboodi","name:ga":"An Chamb\u00f3id","name:gd":"Cambuidea","name:gn":"Kamboja","name:gl":"Camboxa - \u1780\u1798\u17d2\u1796\u17bb\u1787\u17b6","name:gv":"Yn Chamboyd","name:gu":"\u0a95\u0a82\u0aac\u0acb\u0aa1\u0abf\u0aaf\u0abe","name:tt":"\u041a\u0430\u043c\u0431\u043e\u0497\u0430"},"coordinates":[2636,1747]},{"type":"Point","properties":{"kind":"region","name:en":"Binh Duong Province","name":"B\u00ecnh D\u01b0\u01a1ng","kind_detail":"state","source":"openstreetmap.org","min_zoom":4.0,"name:vi":"T\u1ec9nh B\u00ecnh D\u01b0\u01a1ng","id":2579050159,"population":1691400},"coordinates":[3974,14]},{"type":"Point","properties":{"admin_level":"4","kind":"region","name:en":"Champasak","name":"\u0e88\u0eb3\u0e9b\u0eb2\u0eaa\u0eb1\u0e81","kind_detail":"state","name:lo":"\u0e88\u0ecd\u0eb2\u0e9b\u0eb2\u0eaa\u0eb1\u0e81","source":"openstreetmap.org","min_zoom":4.0,"name:vi":"Ch\u0103m-pa-s\u1eafc","name:ru":"\u0422\u044f\u043c\u043f\u0430\u0441\u0430\u043a","id":4343624604,"name:ja":"\u30c1\u30e3\u30f3\u30d1\u30fc\u30b5\u30c3\u30af"},"coordinates":[3344,2780]},{"type":"Point","properties":{"admin_level":"4","kind":"region","name:en":"Attapeu","name":"\u0ead\u0eb1\u0e94\u0e95\u0eb0\u0e9b\u0eb7","kind_detail":"state","name:lo":"Attapu","source":"openstreetmap.org","min_zoom":4.0,"name:vi":"\u00c1t-ta-p\u1eeb","name:ru":"\u0410\u0442\u0442\u0430\u043f\u044b","id":4343592569,"name:ja":"\u30a2\u30c3\u30bf\u30d7\u30fc"},"coordinates":[4051,2718]},{"type":"Point","properties":{"admin_level":"4","kind":"region","name:en":"Amnat Charoen Province","name":"\u0e08\u0e31\u0e07\u0e2b\u0e27\u0e31\u0e14\u0e2d\u0e33\u0e19\u0e32\u0e08\u0e40\u0e08\u0e23\u0e34\u0e0d","kind_detail":"state","source":"openstreetmap.org","min_zoom":4.0,"name:uk":"\u0410\u043c\u043d\u0430\u0442\u0447\u0430\u0440\u0435\u043d","name:ru":"\u0410\u043c\u043d\u0430\u0442\u0447\u0430\u0440\u0435\u043d","name:pl":"Amnat Charoen","id":4351438402,"name:ja":"\u30a2\u30e0\u30ca\u30fc\u30c8\u30c1\u30e3\u30eb\u30fc\u30f3\u770c"},"coordinates":[2536,3615]},{"type":"Point","properties":{"admin_level":"4","kind":"region","name:en":"Salavan","name":"\u0eaa\u0eb2\u0ea5\u0eb0\u0ea7\u0eb1\u0e99","kind_detail":"state","name:lo":"Salavan","source":"openstreetmap.org","min_zoom":4.0,"name:ru":"\u0421\u0430\u0440\u0430\u0432\u0430\u043d","id":4343686608,"name:ja":"\u30b5\u30fc\u30e9\u30ef\u30f3"},"coordinates":[3706,3522]},{"type":"Point","properties":{"admin_level":"4","kind":"region","name:en":"Ubon Ratchathani Province","name":"\u0e08\u0e31\u0e07\u0e2b\u0e27\u0e31\u0e14\u0e2d\u0e38\u0e1a\u0e25\u0e23\u0e32\u0e0a\u0e18\u0e32\u0e19\u0e35","kind_detail":"state","source":"openstreetmap.org","min_zoom":4.0,"name:uk":"\u0423\u0431\u043e\u043d\u0440\u0430\u0442\u0447\u0430\u0442\u0445\u0430\u043d\u0456","name:ru":"\u0423\u0431\u043e\u043d\u0440\u0430\u0442\u0447\u0430\u0442\u0445\u0430\u043d\u0438","name:pl":"Ubon Ratchathani","id":4352815871,"name:ja":"\u30a6\u30dc\u30f3\u30e9\u30fc\u30c1\u30e3\u30bf\u30fc\u30cb\u30fc\u770c"},"coordinates":[2969,3009]},{"type":"Point","properties":{"admin_level":"4","kind":"region","name:en":"Rayong Province","name":"\u0e08\u0e31\u0e07\u0e2b\u0e27\u0e31\u0e14\u0e23\u0e30\u0e22\u0e2d\u0e07","kind_detail":"state","source":"openstreetmap.org","min_zoom":4.0,"name:uk":"\u0420\u0430\u0439\u043e\u043d\u0433","name:ru":"\u0420\u0430\u0439\u043e\u043d\u0433","name:pl":"Rayong","id":4351800855,"name:ja":"\u30e9\u30e8\u30fc\u30f3\u770c"},"coordinates":[88,1213]},{"type":"Point","properties":{"admin_level":"4","kind":"region","name:en":"Chachoengsao Province","name":"\u0e08\u0e31\u0e07\u0e2b\u0e27\u0e31\u0e14\u0e09\u0e30\u0e40\u0e0a\u0e34\u0e07\u0e40\u0e17\u0e23\u0e32","kind_detail":"state","source":"openstreetmap.org","min_zoom":4.0,"name:uk":"\u0427\u0430\u0447\u0435\u043d\u0433\u0441\u0430\u043e","name:ru":"\u0427\u0430\u0447\u0435\u043d\u0433\u0441\u0430\u0443","name:pl":"Chachoengsao","id":4351469703,"name:ja":"\u30c1\u30e3\u30c1\u30e5\u30fc\u30f3\u30b5\u30aa\u770c"},"coordinates":[216,1824]},{"type":"Point","properties":{"admin_level":"4","kind":"region","name:en":"Prachin Buri Province","name":"\u0e08\u0e31\u0e07\u0e2b\u0e27\u0e31\u0e14\u0e1b\u0e23\u0e32\u0e08\u0e35\u0e19\u0e1a\u0e38\u0e23\u0e35","kind_detail":"state","source":"openstreetmap.org","min_zoom":4.0,"name:uk":"\u041f\u0440\u0430\u0447\u0456\u043d\u0431\u0443\u0440\u0456","name:ru":"\u041f\u0440\u0430\u0447\u0438\u043d\u0431\u0443\u0440\u0438","name:pl":"Prachinburi","id":4351800551,"name:ja":"\u30d7\u30e9\u30fc\u30c1\u30fc\u30f3\u30d6\u30ea\u30fc\u770c"},"coordinates":[222,2233]},{"type":"Point","properties":{"admin_level":"4","kind":"region","name:en":"Kampong Thom","name":"\u1781\u17c1\u178f\u17d2\u178f\u200b\u1780\u17c6\u1796\u1784\u17cb\u1792\u17c6","kind_detail":"state","source":"openstreetmap.org","min_zoom":4.0,"name:ru":"\u041a\u0430\u043c\u043f\u043e\u043d\u0433\u0442\u0445\u043e\u043c","id":4344553820,"name:ja":"\u30b3\u30f3\u30dd\u30f3\u30c8\u30e0"},"coordinates":[2649,1119]},{"type":"Point","properties":{"admin_level":"4","kind":"region","name:en":"Kampong Chhnang","name":"\u1781\u17c1\u178f\u17d2\u178f\u200b\u1780\u17c6\u1796\u1784\u17cb\u1786\u17d2\u1793\u17b6\u17c6\u1784","kind_detail":"state","source":"openstreetmap.org","min_zoom":4.0,"id":4353291629,"name:ja":"\u30b3\u30f3\u30dd\u30f3\u30c1\u30e5\u30ca\u30f3"},"coordinates":[2247,720]},{"type":"Point","properties":{"admin_level":"4","kind":"region","name:en":"savannakhet","name":"\u0eaa\u0eb0\u0eab\u0ea7\u0eb1\u0e99\u0e99\u0eb0\u0ec0\u0e82\u0e94","kind_detail":"state","name:lo":"Savannakh\u00e9t","source":"openstreetmap.org","min_zoom":4.0,"name:ru":"\u0421\u0430\u0432\u0430\u043d\u043d\u0430\u043a\u0445\u0435\u0442","id":4343692319,"name:ja":"\u30b5\u30ef\u30f3\u30ca\u30b1\u30fc\u30c8"},"coordinates":[3284,4026]},{"type":"Point","properties":{"admin_level":"4","kind":"region","name:en":"Nakhon Ratchasima Province","name":"\u0e08\u0e31\u0e07\u0e2b\u0e27\u0e31\u0e14\u0e19\u0e04\u0e23\u0e23\u0e32\u0e0a\u0e2a\u0e35\u0e21\u0e32","kind_detail":"state","source":"openstreetmap.org","min_zoom":4.0,"name:uk":"\u041d\u0430\u043a\u0445\u043e\u043d\u0440\u0430\u0442\u0447\u0430\u0441\u0456\u043c\u0430","name:ru":"\u041d\u0430\u043a\u0445\u043e\u043d\u0440\u0430\u0442\u0447\u0430\u0441\u0438\u043c\u0430","name:pl":"Nakhon Ratchasima","id":4351695511,"name:ja":"\u30ca\u30b3\u30fc\u30f3\u30e9\u30fc\u30c1\u30e3\u30b7\u30fc\u30de\u30fc\u770c"},"coordinates":[496,3036]},{"type":"Point","properties":{"admin_level":"4","kind":"region","name:en":"Chaiyaphum Province","name":"\u0e08\u0e31\u0e07\u0e2b\u0e27\u0e31\u0e14\u0e0a\u0e31\u0e22\u0e20\u0e39\u0e21\u0e34","kind_detail":"state","source":"openstreetmap.org","min_zoom":4.0,"name:uk":"\u0427\u0430\u044f\u043f\u0445\u0443\u043c","name:ru":"\u0427\u0430\u0439\u044f\u043f\u0445\u0443\u043c","name:pl":"Chaiyaphum","id":4351499346,"name:ja":"\u30c1\u30e3\u30a4\u30e4\u30d7\u30fc\u30e0\u770c"},"coordinates":[339,3823]},{"type":"Point","properties":{"admin_level":"4","kind":"region","name:en":"Khon Kaen Province","name":"\u0e08\u0e31\u0e07\u0e2b\u0e27\u0e31\u0e14\u0e02\u0e2d\u0e19\u0e41\u0e01\u0e48\u0e19","kind_detail":"state","source":"openstreetmap.org","min_zoom":4.0,"name:uk":"\u041a\u0445\u043e\u043d\u043a\u0435\u043d","name:ru":"\u041a\u0445\u043e\u043d\u043a\u044d\u043d","name:pl":"Khon Kaen","id":4351580547,"name:ja":"\u30b3\u30fc\u30f3\u30b1\u30f3\u770c"},"coordinates":[1009,4071]},{"type":"Point","properties":{"admin_level":"4","kind":"region","name:en":"Maha Sarakham Province","name":"\u0e08\u0e31\u0e07\u0e2b\u0e27\u0e31\u0e14\u0e21\u0e2b\u0e32\u0e2a\u0e32\u0e23\u0e04\u0e32\u0e21","kind_detail":"state","source":"openstreetmap.org","min_zoom":4.0,"name:uk":"\u041c\u0430\u0445\u0430\u0441\u0430\u0440\u0430\u043a\u0445\u0430\u043c","name:ru":"\u041c\u0430\u0445\u0430\u0441\u0430\u0440\u0430\u043a\u0430\u043c","name:pl":"Maha Sarakham","id":4351657253,"name:ja":"name:ja\t\u30de\u30cf\u30fc\u30b5\u30fc\u30e9\u30ab\u30fc\u30e0\u770c"},"coordinates":[1336,3547]},{"type":"Point","properties":{"admin_level":"4","kind":"region","name:en":"Roi Et Province","name":"\u0e08\u0e31\u0e07\u0e2b\u0e27\u0e31\u0e14\u0e23\u0e49\u0e2d\u0e22\u0e40\u0e2d\u0e47\u0e14","kind_detail":"state","source":"openstreetmap.org","min_zoom":4.0,"name:uk":"\u0420\u043e\u0454\u0442","name:ru":"\u0420\u043e\u0439\u0435\u0442","name:pl":"Roi Et","id":4351823307,"name:ja":"\u30ed\u30fc\u30a4\u30a8\u30c3\u30c8\u770c"},"coordinates":[1785,3430]},{"type":"Point","properties":{"admin_level":"4","kind":"region","name:en":"Kalasin","name":"\u0e08\u0e31\u0e07\u0e2b\u0e27\u0e31\u0e14\u0e01\u0e32\u0e2c\u0e2a\u0e34\u0e19\u0e18\u0e38\u0e4c","kind_detail":"state","source":"openstreetmap.org","min_zoom":4.0,"name:uk":"\u041a\u0430\u043b\u0430\u0441\u0456\u043d","name:ru":"\u041a\u0430\u043b\u0430\u0441\u0438\u043d","name:pl":"Kalasin","id":4351570608,"name:ja":"\u30ab\u30fc\u30e9\u30b7\u30f3\u770c"},"coordinates":[1749,4062]},{"type":"Point","properties":{"admin_level":"4","kind":"region","name:en":"Yasothon Province","name":"\u0e08\u0e31\u0e07\u0e2b\u0e27\u0e31\u0e14\u0e22\u0e42\u0e2a\u0e18\u0e23","kind_detail":"state","source":"openstreetmap.org","min_zoom":4.0,"name:uk":"\u042f\u0441\u043e\u0442\u0445\u043e\u043d","name:ru":"\u042f\u0441\u043e\u0442\u0445\u043e\u043d","name:pl":"Yasothon","id":4353280585,"name:ja":"\u30e4\u30bd\u30fc\u30c8\u30fc\u30f3\u770c"},"coordinates":[2203,3640]},{"type":"Point","properties":{"admin_level":"4","kind":"region","name:en":"Trat Province","name":"\u0e08\u0e31\u0e07\u0e2b\u0e27\u0e31\u0e14\u0e15\u0e23\u0e32\u0e14","kind_detail":"state","source":"openstreetmap.org","min_zoom":4.0,"name:uk":"\u0422\u0440\u0430\u0442","name:ru":"\u0422\u0440\u0430\u0442","name:pl":"Trat","id":4352807241,"name:ja":"\u30c8\u30e9\u30fc\u30c8\u770c"},"coordinates":[857,811]},{"type":"Point","properties":{"admin_level":"4","kind":"region","name:en":"Chanthaburi Province","name":"\u0e08\u0e31\u0e07\u0e2b\u0e27\u0e31\u0e14\u0e08\u0e31\u0e19\u0e17\u0e1a\u0e38\u0e23\u0e35","kind_detail":"state","source":"openstreetmap.org","min_zoom":4.0,"name:uk":"\u0427\u0430\u043d\u0442\u0445\u0430\u0431\u0443\u0440\u0456","name:ru":"\u0427\u0430\u043d\u0442\u0445\u0430\u0431\u0443\u0440\u0438","name:pl":"Chanthaburi","id":4351519904,"name:ja":"\u30c1\u30e3\u30f3\u30bf\u30d6\u30ea\u30fc\u770c"},"coordinates":[776,1237]},{"type":"Point","properties":{"admin_level":"4","kind":"region","name:en":"Sa Kaeo","name":"\u0e08\u0e31\u0e07\u0e2b\u0e27\u0e31\u0e14\u0e2a\u0e23\u0e30\u0e41\u0e01\u0e49\u0e27","kind_detail":"state","source":"openstreetmap.org","min_zoom":4.0,"name:uk":"\u0421\u0430\u043a\u0435\u043e","name:ru":"\u0421\u0430\u043a\u044d\u0443","name:pl":"Sa Kaeo","id":4351830781,"name:ja":"\u30b5\u30b1\u30fc\u30aa\u770c"},"coordinates":[644,1944]},{"type":"Point","properties":{"admin_level":"4","kind":"region","name:en":"Buri Ram Province","name":"\u0e08\u0e31\u0e07\u0e2b\u0e27\u0e31\u0e14\u0e1a\u0e38\u0e23\u0e35\u0e23\u0e31\u0e21\u0e22\u0e4c","kind_detail":"state","source":"openstreetmap.org","min_zoom":4.0,"alt_name:en":"Buriram Province","name:uk":"\u0411\u0443\u0440\u0456\u0440\u0430\u043c","name:ru":"\u0411\u0443\u0440\u0438\u0440\u0430\u043c","name:pl":"Buri Ram","id":4351451831,"name:ja":"\u30d6\u30ea\u30fc\u30e9\u30e0\u770c"},"coordinates":[1016,2576]},{"type":"Point","properties":{"admin_level":"4","kind":"region","name:en":"Surin Province","name":"\u0e08\u0e31\u0e07\u0e2b\u0e27\u0e31\u0e14\u0e2a\u0e38\u0e23\u0e34\u0e19\u0e17\u0e23\u0e4c","kind_detail":"state","source":"openstreetmap.org","min_zoom":4.0,"name:uk":"\u0421\u0443\u0440\u0456\u043d","name:ru":"\u0421\u0443\u0440\u0438\u043d","name:pl":"Surin","id":4352798087,"name:ja":"\u30b9\u30ea\u30f3\u770c"},"coordinates":[1829,2914]},{"type":"Point","properties":{"admin_level":"4","kind":"region","name:en":"Si Sa Ket Province","name":"\u0e08\u0e31\u0e07\u0e2b\u0e27\u0e31\u0e14\u0e28\u0e23\u0e35\u0e2a\u0e30\u0e40\u0e01\u0e29","kind_detail":"state","source":"openstreetmap.org","min_zoom":4.0,"alt_name:en":"Sisaket Province","name:uk":"\u0421\u0456\u0441\u0430\u043a\u0435\u0442","name:ru":"\u0421\u0438\u0441\u0430\u043a\u0435\u0442","name:pl":"Sisaket","id":4352770922,"name:ja":"\u30b7\u30fc\u30b5\u30b1\u30fc\u30c8\u770c"},"coordinates":[2326,2810]},{"type":"Point","properties":{"admin_level":"4","kind":"region","name:en":"Siem Reap","name":"\u1781\u17c1\u178f\u17d2\u178f\u200b\u179f\u17c0\u1798\u179a\u17b6\u1794","kind_detail":"state","source":"openstreetmap.org","min_zoom":4.0,"id":4344605219,"name:ja":"\u30b7\u30a7\u30e0\u30ea\u30a2\u30c3\u30d7"},"coordinates":[1861,1603]},{"type":"Point","properties":{"admin_level":"4","kind":"region","name:en":"Kandal","name":"\u1781\u17c1\u178f\u17d2\u178f\u1780\u178e\u17d2\u178a\u17b6\u179b","kind_detail":"state","source":"openstreetmap.org","min_zoom":4.0,"id":4353293608,"name:ja":"\u30ab\u30f3\u30c0\u30eb"},"coordinates":[2842,238]},{"type":"Point","properties":{"admin_level":"4","kind":"region","name:en":"Koh Kong","name":"\u1781\u17c1\u178f\u17d2\u178f\u200b\u1780\u17c4\u17c7\u1780\u17bb\u1784","kind_detail":"state","source":"openstreetmap.org","min_zoom":4.0,"name:ru":"\u041a\u043e\u0445\u043a\u043e\u043d\u0433","id":4353294458,"name:ja":"\u30b3\u30b3\u30f3"},"coordinates":[1293,377]},{"type":"Point","properties":{"admin_level":"4","kind":"region","name:en":"Banteay Meanchey","name":"\u1781\u17c1\u178f\u17d2\u178f\u200b\u178f\u1794\u1793\u17d2\u1791\u17b6\u1799\u1798\u17b6\u1793\u1787\u17d0\u1799","kind_detail":"state","source":"openstreetmap.org","min_zoom":4.0,"name:ru":"\u0411\u0430\u043d\u0442\u0435\u0430\u0439\u043c\u0435\u0430\u043d\u0442\u044c\u0435\u0439","id":4354622947,"name:ja":"\u30d0\u30f3\u30c6\u30a4\u30e1\u30f3\u30c1\u30a7\u30a4"},"coordinates":[1191,1967]},{"type":"Point","properties":{"kind":"region","name:en":"Binh Phuoc province","name":"B\u00ecnh Ph\u01b0\u1edbc","kind_detail":"state","source":"openstreetmap.org","min_zoom":4.0,"name:uk":"\u0411\u0456\u043d\u044c\u0444\u0438\u043e\u043a","name:vi":"T\u1ec9nh B\u00ecnh Ph\u01b0\u1edbc","id":1536526761,"name:ja":"\u30d3\u30f3\u30d5\u30aa\u30c3\u30af"},"coordinates":[4040,376]},{"type":"Point","properties":{"kind":"region","name:en":"Tay Ninh province","name":"T\u00e2y Ninh","kind_detail":"state","min_zoom":4.0,"source":"openstreetmap.org","name:fr":"Province de T\u00e2y Ninh","name:uk":"\u0422\u0435\u0439\u043d\u0456\u043d\u044c","name:vi":"T\u1ec9nh T\u00e2y Ninh","id":1536593895,"name:ja":"\u30bf\u30a4\u30cb\u30f3"},"coordinates":[3461,170]},{"type":"Point","properties":{"kind":"region","name:en":"Binh Duong province","name":"B\u00ecnh D\u01b0\u01a1ng","kind_detail":"state","source":"openstreetmap.org","min_zoom":4.0,"name:vi":"T\u1ec9nh B\u00ecnh D\u01b0\u01a1ng","id":1541774633,"name:ja":"\u30d3\u30f3\u30ba\u30aa\u30f3"},"coordinates":[3945,34]},{"type":"Point","properties":{"source":"naturalearthdata.com","kind":"locality","name":"Phnom Penh","country_capital":true,"population":1466000,"min_zoom":5.0,"id":7066},"coordinates":[2669,280]},{"type":"Point","properties":{"source":"naturalearthdata.com","kind":"locality","name":"Nakhon Ratchasima","population":334984,"region_capital":true,"min_zoom":5.0,"id":6303},"coordinates":[619,2868]},{"type":"Point","properties":{"source":"naturalearthdata.com","kind":"locality","name":"Battambang","population":154773,"region_capital":true,"min_zoom":5.0,"id":6709},"coordinates":[1420,1442]},{"type":"Point","properties":{"source":"naturalearthdata.com","kind":"locality","name":"Siem Reap","population":109398,"region_capital":true,"min_zoom":5.0,"id":6710},"coordinates":[1893,1642]},{"type":"Point","properties":{"source":"naturalearthdata.com","kind":"locality","name":"Ubon Ratchathani","population":273893,"region_capital":true,"min_zoom":6.0,"id":5632},"coordinates":[2607,3056]},{"type":"Point","properties":{"source":"naturalearthdata.com","kind":"locality","name":"Khon Kaen","population":251056,"region_capital":true,"min_zoom":6.0,"id":4934},"coordinates":[1151,3934]},{"type":"Point","properties":{"source":"naturalearthdata.com","kind":"locality","name":"Savannakhet","population":84898,"region_capital":true,"min_zoom":6.0,"id":5152},"coordinates":[2565,4022]}]},"transit":{"type":"GeometryCollection","geometries":[]},"pois":{"type":"GeometryCollection","geometries":[{"type":"Point","properties":{"kind":"national_park","name:en":"Kirirom National Park","protect_class":"2","area":295274000,"source":"openstreetmap.org","min_zoom":6.69,"tier":1,"name:vi":"V\u01b0\u1eddn qu\u1ed1c gia Kirirom","id":-6243792,"osm_relation":true,"name":"\u17a7\u1791\u17d2\u1799\u17b6\u1793\u1787\u17b6\u178f\u17b7 \u1782\u17b7\u179a\u17b8\u179a\u1798\u17d2\u1799"},"coordinates":[2041,96]},{"type":"Point","properties":{"kind":"national_park","name:en":"Veun Sai - Siem Pang National Park","protect_class":"2","area":616283000,"source":"openstreetmap.org","min_zoom":6.16,"tier":1,"id":-6243725,"osm_relation":true,"name":"\u17a7\u1791\u17d2\u1799\u17b6\u1793\u1787\u17b6\u178f\u17b7 \u179c\u17be\u1793\u179f\u17c3-\u179f\u17c0\u1798\u1794\u17c9\u17b6\u1784"},"coordinates":[3982,2200]},{"type":"Point","properties":{"kind":"national_park","name:en":"Phnom Kravang National Park","protect_class":"2","area":4230260000,"source":"openstreetmap.org","min_zoom":4.77,"tier":1,"id":-6230214,"osm_relation":true,"name":"\u17a7\u1791\u17d2\u1799\u17b6\u1793\u1787\u17b6\u178f\u17b7 \u1797\u17d2\u1793\u17c6\u1780\u17d2\u179a\u179c\u17b6\u1789\u1780\u178e\u17d2\u178f\u17b6\u179b"},"coordinates":[1661,568]},{"type":"Point","properties":{"kind":"national_park","name:en":"Phnom Kravang Kang Tbong National Park","protect_class":"2","area":4280710000,"source":"openstreetmap.org","min_zoom":4.76,"tier":1,"id":-6230213,"osm_relation":true,"name":"\u17a7\u1791\u17d2\u1799\u17b6\u1793\u1787\u17b6\u178f\u17b7 \u1787\u17bd\u179a\u1797\u17d2\u1793\u17c6\u1780\u17d2\u179a\u179c\u17b6\u1789\u1781\u17b6\u1784\u178f\u17d2\u1794\u17bc\u1784"},"coordinates":[1606,318]},{"type":"Point","properties":{"kind":"national_park","name:en":"Tat Ton National Park","protect_class":"2","area":242926000,"source":"openstreetmap.org","min_zoom":6.83,"tier":1,"id":-6011597,"osm_relation":true,"name":"\u0e2d\u0e38\u0e17\u0e22\u0e32\u0e19\u0e41\u0e2b\u0e48\u0e07\u0e0a\u0e32\u0e15\u0e34\u0e15\u0e32\u0e14\u0e42\u0e15\u0e19"},"coordinates":[560,3602]},{"type":"Point","properties":{"kind":"national_park","name:en":"Phu Laenkha National Park","protect_class":"2","area":218055000,"source":"openstreetmap.org","min_zoom":6.91,"tier":1,"id":-6011590,"osm_relation":true,"name":"\u0e2d\u0e38\u0e17\u0e22\u0e32\u0e19\u0e41\u0e2b\u0e48\u0e07\u0e0a\u0e32\u0e15\u0e34\u0e20\u0e39\u0e41\u0e25\u0e19\u0e04\u0e32"},"coordinates":[524,3702]},{"type":"Point","properties":{"kind":"national_park","name:en":"Phu Chong - Na Yoi National Park","protect_class":"2","area":743177000,"source":"openstreetmap.org","min_zoom":6.02,"tier":1,"id":-6011587,"osm_relation":true,"name":"\u0e2d\u0e38\u0e17\u0e22\u0e32\u0e19\u0e41\u0e2b\u0e48\u0e07\u0e0a\u0e32\u0e15\u0e34\u0e20\u0e39\u0e08\u0e2d\u0e07-\u0e19\u0e32\u0e22\u0e2d\u0e22"},"coordinates":[2954,2430]},{"type":"Point","properties":{"kind":"national_park","name:en":"Pha Taem National Park","protect_class":"2","area":382302000,"source":"openstreetmap.org","min_zoom":6.5,"tier":1,"id":-6011586,"osm_relation":true,"name":"\u0e2d\u0e38\u0e17\u0e22\u0e32\u0e19\u0e41\u0e2b\u0e48\u0e07\u0e0a\u0e32\u0e15\u0e34\u0e1c\u0e32\u0e41\u0e15\u0e49\u0e21"},"coordinates":[3159,3300]},{"type":"Point","properties":{"kind":"national_park","name:en":"Tat Mok National Park","protect_class":"2","area":322402000,"source":"openstreetmap.org","min_zoom":6.62,"tier":1,"id":-6009661,"osm_relation":true,"name":"\u0e2d\u0e38\u0e17\u0e22\u0e32\u0e19\u0e41\u0e2b\u0e48\u0e07\u0e0a\u0e32\u0e15\u0e34\u0e15\u0e32\u0e14\u0e2b\u0e21\u0e2d\u0e01"},"coordinates":[110,3970]},{"type":"Point","properties":{"kind":"national_park","name:en":"Mu Ko Chang National Park","protect_class":"2","area":632002000,"source":"openstreetmap.org","min_zoom":6.14,"tier":1,"id":-5625609,"osm_relation":true,"name":"\u0e2d\u0e38\u0e17\u0e22\u0e32\u0e19\u0e41\u0e2b\u0e48\u0e07\u0e0a\u0e32\u0e15\u0e34\u0e2b\u0e21\u0e39\u0e48\u0e40\u0e01\u0e32\u0e30\u0e0a\u0e49\u0e32\u0e07"},"coordinates":[894,594]},{"type":"Point","properties":{"kind":"national_park","name:en":"Khao Yai National Park","protect_class":"2","area":2409170000,"source":"openstreetmap.org","min_zoom":5.17,"tier":1,"id":-2971358,"osm_relation":true,"name":"\u0e2d\u0e38\u0e17\u0e22\u0e32\u0e19\u0e41\u0e2b\u0e48\u0e07\u0e0a\u0e32\u0e15\u0e34\u0e40\u0e02\u0e32\u0e43\u0e2b\u0e0d\u0e48"},"coordinates":[232,2369]},{"type":"Point","properties":{"kind":"national_park","name:en":"Phnom Kulen National Park","protect_class":"2","area":389182000,"source":"openstreetmap.org","min_zoom":6.49,"tier":1,"id":165270969,"name":"\u17a7\u1791\u17d2\u1799\u17b6\u1793\u1787\u17b6\u178f\u17b7 \u1782\u17bc\u179b\u17c2\u1793"},"coordinates":[2080,1827]},{"type":"Point","properties":{"kind":"national_park","name:en":"Sai Thong National Park","protect_class":"2","area":363460000,"source":"openstreetmap.org","min_zoom":6.54,"tier":1,"id":400474960,"name":"\u0e2d\u0e38\u0e17\u0e22\u0e32\u0e19\u0e41\u0e2b\u0e48\u0e07\u0e0a\u0e32\u0e15\u0e34\u0e44\u0e17\u0e23\u0e17\u0e2d\u0e07"},"coordinates":[148,3520]},{"type":"Point","properties":{"kind":"national_park","name:en":"Prey Lang Wildlife Sanctuary","protect_class":"2","area":4596170000,"source":"openstreetmap.org","min_zoom":4.71,"tier":1,"id":418473145,"name":"\u178a\u17c2\u1793\u1787\u1798\u17d2\u179a\u1780\u179f\u178f\u17d2\u179c\u1796\u17d2\u179a\u17c3 \u1796\u17d2\u179a\u17c3\u17a1\u1784\u17cb"},"coordinates":[3182,1532]},{"type":"Point","properties":{"kind":"national_park","name:en":"Phnom Tbeng National Heritage","protect_class":"2","area":269314000,"source":"openstreetmap.org","min_zoom":6.75,"tier":1,"id":444217838,"name":"\u1794\u17c1\u178f\u17b7\u1780\u1797\u178e\u17d2\u178c\u1792\u1798\u17d2\u1798\u1787\u17b6\u178f\u17b7 \u1797\u17d2\u1793\u17c6\u178f\u17d2\u1794\u17c2\u1784"},"coordinates":[2650,1888]}]},"boundaries":{"type":"GeometryCollection","geometries":[{"type":"MultiLineString","properties":{"source":"naturalearthdata.com","kind":"country","sort_rank":262,"kind_detail":"2","min_zoom":0.0,"id":260},"arcs":[[0],[1],[2],[3],[4],[5],[6],[7],[8],[9],[10],[11],[12],[13]]},{"type":"MultiLineString","properties":{"source":"naturalearthdata.com","kind":"country","sort_rank":262,"kind_detail":"2","min_zoom":0.0,"id":66},"arcs":[[14],[15],[16],[17],[18],[19],[20],[21],[22],[23],[24],[25],[26],[27]]},{"type":"MultiLineString","properties":{"source":"naturalearthdata.com","kind":"country","sort_rank":262,"kind_detail":"2","min_zoom":0.0,"id":143},"arcs":[[28],[29],[30],[31],[32],[33],[34],[35],[36],[37],[38],[39],[40],[41],[42],[43],[44],[45],[46],[47],[48],[49],[50],[51],[52],[53],[54],[55],[56],[57],[58]]},{"type":"MultiLineString","properties":{"source":"naturalearthdata.com","kind":"country","sort_rank":262,"kind_detail":"2","min_zoom":0.0,"id":261},"arcs":[[59],[60],[61],[62],[63],[64]]},{"type":"MultiLineString","properties":{"source":"naturalearthdata.com","kind":"country","sort_rank":262,"kind_detail":"2","min_zoom":0.0,"id":291},"arcs":[[65],[66],[67],[68],[69],[70],[71],[72],[73],[74],[75],[76],[77],[78],[79],[80],[81],[82],[83],[84],[85],[86],[87],[88]]},{"type":"LineString","properties":{"source":"naturalearthdata.com","kind":"region","sort_rank":256,"kind_detail":"4","min_zoom":6.7,"id":1251},"arcs":[89]},{"type":"MultiLineString","properties":{"source":"naturalearthdata.com","kind":"region","sort_rank":256,"kind_detail":"4","min_zoom":6.7,"id":1294},"arcs":[[90],[91],[92],[93],[94],[95],[96],[97],[98],[99],[100],[101],[102]]},{"type":"MultiLineString","properties":{"source":"naturalearthdata.com","kind":"region","sort_rank":256,"kind_detail":"4","min_zoom":6.7,"id":1322},"arcs":[[103],[104]]},{"type":"LineString","properties":{"source":"naturalearthdata.com","kind":"region","sort_rank":256,"kind_detail":"4","min_zoom":6.7,"id":1324},"arcs":[105]},{"type":"MultiLineString","properties":{"source":"naturalearthdata.com","kind":"region","sort_rank":256,"kind_detail":"4","min_zoom":6.7,"id":1327},"arcs":[[106],[107],[108],[109],[110],[111],[112]]},{"type":"MultiLineString","properties":{"source":"naturalearthdata.com","kind":"region","sort_rank":256,"kind_detail":"4","min_zoom":6.7,"id":1334},"arcs":[[113],[114],[115]]},{"type":"LineString","properties":{"source":"naturalearthdata.com","kind":"region","sort_rank":256,"kind_detail":"4","min_zoom":6.7,"id":1337},"arcs":[116]},{"type":"MultiLineString","properties":{"source":"naturalearthdata.com","kind":"region","sort_rank":256,"kind_detail":"4","min_zoom":6.7,"id":1514},"arcs":[[117],[118]]},{"type":"MultiLineString","properties":{"source":"naturalearthdata.com","kind":"region","sort_rank":256,"kind_detail":"4","min_zoom":6.7,"id":4548},"arcs":[[119],[120],[121]]},{"type":"MultiLineString","properties":{"source":"naturalearthdata.com","kind":"region","sort_rank":256,"kind_detail":"4","min_zoom":6.7,"id":4556},"arcs":[[122],[123],[124]]},{"type":"LineString","properties":{"source":"naturalearthdata.com","kind":"region","sort_rank":256,"kind_detail":"4","min_zoom":6.7,"id":4557},"arcs":[125]},{"type":"MultiLineString","properties":{"source":"naturalearthdata.com","kind":"region","sort_rank":256,"kind_detail":"4","min_zoom":6.7,"id":4565},"arcs":[[126],[127],[128]]},{"type":"LineString","properties":{"source":"naturalearthdata.com","kind":"region","sort_rank":256,"kind_detail":"4","min_zoom":6.7,"id":4585},"arcs":[129]},{"type":"MultiLineString","properties":{"source":"naturalearthdata.com","kind":"region","sort_rank":256,"kind_detail":"4","min_zoom":6.0,"id":7278},"arcs":[[130],[131]]},{"type":"LineString","properties":{"source":"naturalearthdata.com","kind":"region","sort_rank":256,"kind_detail":"4","min_zoom":6.7,"id":62},"arcs":[132]},{"type":"LineString","properties":{"source":"naturalearthdata.com","kind":"region","sort_rank":256,"kind_detail":"4","min_zoom":6.7,"id":787},"arcs":[133]},{"type":"MultiLineString","properties":{"source":"naturalearthdata.com","kind":"region","sort_rank":256,"kind_detail":"4","min_zoom":6.7,"id":791},"arcs":[[134],[135],[136],[137],[138]]},{"type":"LineString","properties":{"source":"naturalearthdata.com","kind":"region","sort_rank":256,"kind_detail":"4","min_zoom":6.7,"id":794},"arcs":[139]},{"type":"LineString","properties":{"source":"naturalearthdata.com","kind":"region","sort_rank":256,"kind_detail":"4","min_zoom":6.7,"id":1230},"arcs":[140]},{"type":"MultiLineString","properties":{"source":"naturalearthdata.com","kind":"region","sort_rank":256,"kind_detail":"4","min_zoom":6.7,"id":1249},"arcs":[[141],[142],[143],[144],[145],[146],[147],[148],[149],[150],[151],[152],[153],[154],[155],[156],[157],[158],[159],[160],[161],[162],[163],[164]]},{"type":"MultiLineString","properties":{"source":"naturalearthdata.com","kind":"region","sort_rank":256,"kind_detail":"4","min_zoom":6.7,"id":1250},"arcs":[[165],[166],[167],[168],[169],[170]]},{"type":"MultiLineString","properties":{"source":"naturalearthdata.com","kind":"macroregion","sort_rank":257,"kind_detail":"3","min_zoom":6.0,"id":1256},"arcs":[[171],[172],[173],[174],[175],[176]]},{"type":"MultiLineString","properties":{"source":"naturalearthdata.com","kind":"region","sort_rank":256,"kind_detail":"4","min_zoom":6.7,"id":1339},"arcs":[[177],[178],[179],[180]]},{"type":"LineString","properties":{"source":"naturalearthdata.com","kind":"region","sort_rank":256,"kind_detail":"4","min_zoom":6.7,"id":1288},"arcs":[181]},{"type":"MultiLineString","properties":{"source":"naturalearthdata.com","kind":"region","sort_rank":256,"kind_detail":"4","min_zoom":6.7,"id":1295},"arcs":[[182],[183],[184],[185],[186],[187],[188],[189],[190],[191],[192],[193],[194],[195],[196]]},{"type":"MultiLineString","properties":{"source":"naturalearthdata.com","kind":"macroregion","sort_rank":257,"kind_detail":"3","min_zoom":6.0,"id":1296},"arcs":[[197],[198],[199]]},{"type":"MultiLineString","properties":{"source":"naturalearthdata.com","kind":"region","sort_rank":256,"kind_detail":"4","min_zoom":6.7,"id":1303},"arcs":[[200],[201],[202],[203],[204],[205],[206],[207],[208],[209],[210],[211],[212],[213],[214],[215],[216]]},{"type":"MultiLineString","properties":{"source":"naturalearthdata.com","kind":"region","sort_rank":256,"kind_detail":"4","min_zoom":6.7,"id":1304},"arcs":[[217],[218]]},{"type":"LineString","properties":{"source":"naturalearthdata.com","kind":"region","sort_rank":256,"kind_detail":"4","min_zoom":6.7,"id":1305},"arcs":[219]},{"type":"MultiLineString","properties":{"source":"naturalearthdata.com","kind":"region","sort_rank":256,"kind_detail":"4","min_zoom":6.7,"id":1312},"arcs":[[220],[221],[222],[223],[224],[225],[226],[227],[228]]},{"type":"MultiLineString","properties":{"source":"naturalearthdata.com","kind":"region","sort_rank":256,"kind_detail":"4","min_zoom":6.7,"id":1317},"arcs":[[229],[230],[231],[232],[233]]},{"type":"MultiLineString","properties":{"source":"naturalearthdata.com","kind":"region","sort_rank":256,"kind_detail":"4","min_zoom":6.7,"id":1321},"arcs":[[234],[235],[236],[237],[238],[239],[240],[241],[242],[243]]},{"type":"MultiLineString","properties":{"source":"naturalearthdata.com","kind":"region","sort_rank":256,"kind_detail":"4","min_zoom":6.7,"id":1328},"arcs":[[244],[245],[246],[247],[248],[249],[250],[251]]},{"type":"MultiLineString","properties":{"source":"naturalearthdata.com","kind":"region","sort_rank":256,"kind_detail":"4","min_zoom":6.7,"id":1323},"arcs":[[252],[253],[254],[255],[256],[257],[258],[259],[260],[261],[262],[263],[264],[265],[266],[267],[268],[269],[270],[271],[272]]},{"type":"MultiLineString","properties":{"source":"naturalearthdata.com","kind":"region","sort_rank":256,"kind_detail":"4","min_zoom":6.7,"id":1325},"arcs":[[273],[274],[275]]},{"type":"MultiLineString","properties":{"source":"naturalearthdata.com","kind":"region","sort_rank":256,"kind_detail":"4","min_zoom":6.7,"id":1326},"arcs":[[276],[277],[278]]},{"type":"MultiLineString","properties":{"source":"naturalearthdata.com","kind":"region","sort_rank":256,"kind_detail":"4","min_zoom":6.7,"id":1329},"arcs":[[279],[280],[281],[282],[283],[284],[285],[286],[287],[288],[289],[290],[291],[292],[293],[294],[295],[296],[297]]},{"type":"MultiLineString","properties":{"source":"naturalearthdata.com","kind":"region","sort_rank":256,"kind_detail":"4","min_zoom":6.7,"id":1338},"arcs":[[298],[299],[300],[301],[302]]},{"type":"MultiLineString","properties":{"source":"naturalearthdata.com","kind":"macroregion","sort_rank":257,"kind_detail":"3","min_zoom":6.7,"id":1333},"arcs":[[303],[304],[305],[306],[307],[308],[309],[310],[311],[312],[313],[314]]},{"type":"MultiLineString","properties":{"source":"naturalearthdata.com","kind":"macroregion","sort_rank":257,"kind_detail":"3","min_zoom":6.7,"id":1335},"arcs":[[315],[316],[317],[318],[319],[320]]},{"type":"MultiLineString","properties":{"source":"naturalearthdata.com","kind":"region","sort_rank":256,"kind_detail":"4","min_zoom":6.7,"id":1336},"arcs":[[321],[322],[323],[324],[325]]},{"type":"MultiLineString","properties":{"source":"naturalearthdata.com","kind":"region","sort_rank":256,"kind_detail":"4","min_zoom":6.7,"id":1340},"arcs":[[326],[327],[328]]},{"type":"MultiLineString","properties":{"source":"naturalearthdata.com","kind":"region","sort_rank":256,"kind_detail":"4","min_zoom":6.7,"id":1341},"arcs":[[329],[330],[331],[332],[333],[334],[335],[336],[337]]},{"type":"MultiLineString","properties":{"source":"naturalearthdata.com","kind":"region","sort_rank":256,"kind_detail":"4","min_zoom":6.7,"id":1342},"arcs":[[338],[339],[340],[341],[342],[343],[344]]},{"type":"MultiLineString","properties":{"source":"naturalearthdata.com","kind":"region","sort_rank":256,"kind_detail":"4","min_zoom":6.7,"id":1500},"arcs":[[345],[346],[347],[348],[349],[350],[351]]},{"type":"MultiLineString","properties":{"source":"naturalearthdata.com","kind":"macroregion","sort_rank":257,"kind_detail":"3","min_zoom":6.7,"id":1501},"arcs":[[352],[353],[354],[355],[356],[357],[358],[359],[360],[361]]},{"type":"MultiLineString","properties":{"source":"naturalearthdata.com","kind":"macroregion","sort_rank":257,"kind_detail":"3","min_zoom":6.7,"id":1502},"arcs":[[362],[363],[364]]},{"type":"MultiLineString","properties":{"source":"naturalearthdata.com","kind":"region","sort_rank":256,"kind_detail":"4","min_zoom":6.7,"id":1503},"arcs":[[365],[366],[367],[368],[369]]},{"type":"MultiLineString","properties":{"source":"naturalearthdata.com","kind":"region","sort_rank":256,"kind_detail":"4","min_zoom":6.7,"id":1508},"arcs":[[370],[371],[372],[373],[374],[375],[376],[377],[378]]},{"type":"MultiLineString","properties":{"source":"naturalearthdata.com","kind":"region","sort_rank":256,"kind_detail":"4","min_zoom":6.7,"id":1509},"arcs":[[379],[380],[381]]},{"type":"MultiLineString","properties":{"source":"naturalearthdata.com","kind":"region","sort_rank":256,"kind_detail":"4","min_zoom":6.7,"id":1510},"arcs":[[382],[383],[384],[385],[386]]},{"type":"MultiLineString","properties":{"source":"naturalearthdata.com","kind":"region","sort_rank":256,"kind_detail":"4","min_zoom":6.7,"id":1515},"arcs":[[387],[388],[389],[390],[391],[392],[393],[394]]},{"type":"MultiLineString","properties":{"source":"naturalearthdata.com","kind":"region","sort_rank":256,"kind_detail":"4","min_zoom":6.7,"id":1518},"arcs":[[395],[396],[397]]},{"type":"MultiLineString","properties":{"source":"naturalearthdata.com","kind":"region","sort_rank":256,"kind_detail":"4","min_zoom":6.7,"id":4549},"arcs":[[398],[399],[400],[401],[402]]},{"type":"LineString","properties":{"source":"naturalearthdata.com","kind":"region","sort_rank":256,"kind_detail":"4","min_zoom":6.7,"id":4550},"arcs":[403]},{"type":"LineString","properties":{"source":"naturalearthdata.com","kind":"region","sort_rank":256,"kind_detail":"4","min_zoom":6.7,"id":4551},"arcs":[404]},{"type":"MultiLineString","properties":{"source":"naturalearthdata.com","kind":"region","sort_rank":256,"kind_detail":"4","min_zoom":6.7,"id":4552},"arcs":[[405],[406],[407],[408],[409]]},{"type":"LineString","properties":{"source":"naturalearthdata.com","kind":"region","sort_rank":256,"kind_detail":"4","min_zoom":6.7,"id":4553},"arcs":[410]},{"type":"MultiLineString","properties":{"source":"naturalearthdata.com","kind":"region","sort_rank":256,"kind_detail":"4","min_zoom":6.7,"id":4554},"arcs":[[411],[412],[413]]},{"type":"MultiLineString","properties":{"source":"naturalearthdata.com","kind":"region","sort_rank":256,"kind_detail":"4","min_zoom":6.7,"id":4555},"arcs":[[414],[415],[416],[417],[418]]},{"type":"LineString","properties":{"source":"naturalearthdata.com","kind":"region","sort_rank":256,"kind_detail":"4","min_zoom":6.7,"id":4558},"arcs":[419]},{"type":"LineString","properties":{"source":"naturalearthdata.com","kind":"region","sort_rank":256,"kind_detail":"4","min_zoom":6.7,"id":4559},"arcs":[420]},{"type":"MultiLineString","properties":{"source":"naturalearthdata.com","kind":"region","sort_rank":256,"kind_detail":"4","min_zoom":6.7,"id":4560},"arcs":[[421],[422],[423]]},{"type":"MultiLineString","properties":{"source":"naturalearthdata.com","kind":"region","sort_rank":256,"kind_detail":"4","min_zoom":6.7,"id":4582},"arcs":[[424],[425],[426]]},{"type":"MultiLineString","properties":{"source":"naturalearthdata.com","kind":"region","sort_rank":256,"kind_detail":"4","min_zoom":6.7,"id":4583},"arcs":[[427],[428],[429],[430],[431]]},{"type":"MultiLineString","properties":{"source":"naturalearthdata.com","kind":"region","sort_rank":256,"kind_detail":"4","min_zoom":6.7,"id":4545},"arcs":[[432],[433]]},{"type":"MultiLineString","properties":{"source":"naturalearthdata.com","kind":"region","sort_rank":256,"kind_detail":"4","min_zoom":6.7,"id":4546},"arcs":[[434],[435],[436],[437],[438],[439]]},{"type":"MultiLineString","properties":{"source":"naturalearthdata.com","kind":"region","sort_rank":256,"kind_detail":"4","min_zoom":6.7,"id":4547},"arcs":[[440],[441],[442],[443],[444],[445]]},{"type":"MultiLineString","properties":{"source":"naturalearthdata.com","kind":"region","sort_rank":256,"kind_detail":"4","min_zoom":6.7,"id":4561},"arcs":[[446],[447],[448]]},{"type":"LineString","properties":{"source":"naturalearthdata.com","kind":"region","sort_rank":256,"kind_detail":"4","min_zoom":6.7,"id":4562},"arcs":[449]},{"type":"MultiLineString","properties":{"source":"naturalearthdata.com","kind":"region","sort_rank":256,"kind_detail":"4","min_zoom":6.7,"id":4563},"arcs":[[450],[451],[452],[453],[454],[455]]},{"type":"MultiLineString","properties":{"source":"naturalearthdata.com","kind":"region","sort_rank":256,"kind_detail":"4","min_zoom":6.7,"id":4564},"arcs":[[456],[457],[458],[459],[460]]},{"type":"MultiLineString","properties":{"source":"naturalearthdata.com","kind":"region","sort_rank":256,"kind_detail":"4","min_zoom":6.7,"id":4566},"arcs":[[461],[462],[463],[464],[465],[466],[467],[468],[469],[470],[471],[472],[473]]},{"type":"MultiLineString","properties":{"source":"naturalearthdata.com","kind":"region","sort_rank":256,"kind_detail":"4","min_zoom":6.7,"id":4584},"arcs":[[474],[475],[476],[477]]},{"type":"MultiLineString","properties":{"source":"naturalearthdata.com","kind":"region","sort_rank":256,"kind_detail":"4","min_zoom":6.7,"id":4567},"arcs":[[478],[479],[480],[481],[482],[483],[484],[485],[486],[487],[488],[489],[490],[491]]},{"type":"MultiLineString","properties":{"source":"naturalearthdata.com","kind":"region","sort_rank":256,"kind_detail":"4","min_zoom":6.7,"id":4568},"arcs":[[492],[493],[494],[495]]},{"type":"MultiLineString","properties":{"source":"naturalearthdata.com","kind":"region","sort_rank":256,"kind_detail":"4","min_zoom":6.7,"id":4569},"arcs":[[496],[497]]},{"type":"MultiLineString","properties":{"source":"naturalearthdata.com","kind":"region","sort_rank":256,"kind_detail":"4","min_zoom":6.7,"id":4570},"arcs":[[498],[499],[500]]},{"type":"LineString","properties":{"source":"naturalearthdata.com","kind":"region","sort_rank":256,"kind_detail":"4","min_zoom":6.7,"id":4571},"arcs":[501]},{"type":"MultiLineString","properties":{"source":"naturalearthdata.com","kind":"region","sort_rank":256,"kind_detail":"4","min_zoom":6.7,"id":4586},"arcs":[[502],[503],[504]]},{"type":"LineString","properties":{"source":"naturalearthdata.com","kind":"region","sort_rank":256,"kind_detail":"4","min_zoom":6.7,"id":4572},"arcs":[505]},{"type":"LineString","properties":{"source":"naturalearthdata.com","kind":"region","sort_rank":256,"kind_detail":"4","min_zoom":6.7,"id":4574},"arcs":[506]},{"type":"MultiLineString","properties":{"source":"naturalearthdata.com","kind":"region","sort_rank":256,"kind_detail":"4","min_zoom":6.7,"id":4575},"arcs":[[507],[508],[509]]},{"type":"LineString","properties":{"source":"naturalearthdata.com","kind":"region","sort_rank":256,"kind_detail":"4","min_zoom":6.7,"id":4576},"arcs":[510]},{"type":"MultiLineString","properties":{"source":"naturalearthdata.com","kind":"region","sort_rank":256,"kind_detail":"4","min_zoom":6.7,"id":4577},"arcs":[[511],[512],[513],[514],[515],[516],[517],[518],[519]]},{"type":"MultiLineString","properties":{"source":"naturalearthdata.com","kind":"region","sort_rank":256,"kind_detail":"4","min_zoom":6.7,"id":4588},"arcs":[[520],[521],[522],[523]]},{"type":"MultiLineString","properties":{"source":"naturalearthdata.com","kind":"region","sort_rank":256,"kind_detail":"4","min_zoom":6.0,"id":7277},"arcs":[[524],[525],[526],[527],[528],[529],[530],[531],[532],[533],[534],[535]]},{"type":"MultiLineString","properties":{"source":"naturalearthdata.com","kind":"region","sort_rank":256,"kind_detail":"4","min_zoom":6.0,"id":7279},"arcs":[[536],[537],[538],[539],[540],[541],[542],[543]]},{"type":"MultiLineString","properties":{"source":"naturalearthdata.com","kind":"region","sort_rank":256,"kind_detail":"4","min_zoom":6.0,"id":7281},"arcs":[[544],[545],[546],[547],[548],[549],[550],[551],[552],[553],[554],[555],[556],[557],[558],[559],[560],[561],[562]]},{"type":"MultiLineString","properties":{"source":"naturalearthdata.com","kind":"region","sort_rank":256,"kind_detail":"4","min_zoom":6.0,"id":7284},"arcs":[[563],[564],[565],[566],[567],[568],[569],[570],[571],[572],[573]]},{"type":"MultiLineString","properties":{"source":"naturalearthdata.com","kind":"region","sort_rank":256,"kind_detail":"4","min_zoom":6.0,"id":7285},"arcs":[[574],[575]]}]},"roads":{"type":"GeometryCollection","geometries":[{"type":"LineString","properties":{"source":"naturalearthdata.com","kind":"minor_road","kind_detail":"tertiary","sort_rank":355,"landuse_kind":"urban_area","min_zoom":5.0,"id":35235},"arcs":[591]},{"type":"LineString","properties":{"source":"naturalearthdata.com","kind":"minor_road","sort_rank":355,"kind_detail":"tertiary","min_zoom":5.0,"id":35235},"arcs":[592]},{"type":"LineString","properties":{"source":"naturalearthdata.com","kind":"minor_road","sort_rank":355,"kind_detail":"tertiary","min_zoom":5.0,"id":35245},"arcs":[593]},{"type":"LineString","properties":{"source":"naturalearthdata.com","kind":"minor_road","sort_rank":355,"kind_detail":"tertiary","min_zoom":5.0,"id":35247},"arcs":[594]},{"type":"LineString","properties":{"source":"naturalearthdata.com","kind":"minor_road","sort_rank":355,"kind_detail":"tertiary","min_zoom":5.0,"id":35264},"arcs":[595]},{"type":"LineString","properties":{"source":"naturalearthdata.com","kind":"minor_road","sort_rank":355,"kind_detail":"tertiary","min_zoom":5.0,"id":35267},"arcs":[596]},{"type":"LineString","properties":{"source":"naturalearthdata.com","kind":"minor_road","sort_rank":355,"kind_detail":"tertiary","min_zoom":5.0,"id":35268},"arcs":[597]},{"type":"LineString","properties":{"source":"naturalearthdata.com","kind":"major_road","kind_detail":"secondary","sort_rank":379,"landuse_kind":"urban_area","min_zoom":3.0,"id":35274},"arcs":[598]},{"type":"LineString","properties":{"source":"naturalearthdata.com","kind":"major_road","sort_rank":379,"kind_detail":"secondary","min_zoom":3.0,"id":35274},"arcs":[599]},{"type":"LineString","properties":{"source":"naturalearthdata.com","kind":"minor_road","sort_rank":355,"kind_detail":"tertiary","min_zoom":5.0,"id":35284},"arcs":[600]},{"type":"LineString","properties":{"source":"naturalearthdata.com","kind":"minor_road","kind_detail":"tertiary","sort_rank":355,"landuse_kind":"urban_area","min_zoom":5.0,"id":35285},"arcs":[601]},{"type":"LineString","properties":{"source":"naturalearthdata.com","kind":"minor_road","kind_detail":"tertiary","sort_rank":355,"landuse_kind":"urban_area","min_zoom":5.0,"id":35286},"arcs":[602]},{"type":"LineString","properties":{"source":"naturalearthdata.com","kind":"minor_road","sort_rank":355,"kind_detail":"tertiary","min_zoom":5.0,"id":35286},"arcs":[603]},{"type":"LineString","properties":{"source":"naturalearthdata.com","kind":"minor_road","kind_detail":"tertiary","sort_rank":355,"landuse_kind":"urban_area","min_zoom":5.0,"id":35287},"arcs":[604]},{"type":"LineString","properties":{"source":"naturalearthdata.com","kind":"minor_road","sort_rank":355,"kind_detail":"tertiary","min_zoom":5.0,"id":35287},"arcs":[605]},{"type":"LineString","properties":{"source":"naturalearthdata.com","kind":"major_road","kind_detail":"secondary","sort_rank":379,"landuse_kind":"urban_area","min_zoom":4.0,"id":35320},"arcs":[606]},{"type":"LineString","properties":{"source":"naturalearthdata.com","kind":"major_road","sort_rank":379,"kind_detail":"secondary","min_zoom":4.0,"id":35320},"arcs":[607]},{"type":"LineString","properties":{"source":"naturalearthdata.com","kind":"minor_road","kind_detail":"tertiary","sort_rank":355,"landuse_kind":"urban_area","min_zoom":5.0,"id":35325},"arcs":[608]},{"type":"LineString","properties":{"source":"naturalearthdata.com","kind":"minor_road","sort_rank":355,"kind_detail":"tertiary","min_zoom":5.0,"id":35325},"arcs":[609]},{"type":"LineString","properties":{"source":"naturalearthdata.com","kind":"minor_road","sort_rank":355,"kind_detail":"tertiary","min_zoom":5.0,"id":35330},"arcs":[610]},{"type":"LineString","properties":{"source":"naturalearthdata.com","kind":"minor_road","sort_rank":355,"kind_detail":"tertiary","min_zoom":5.0,"id":35354},"arcs":[611]},{"type":"LineString","properties":{"source":"naturalearthdata.com","kind":"minor_road","kind_detail":"tertiary","sort_rank":355,"landuse_kind":"urban_area","min_zoom":5.0,"id":35377},"arcs":[612]},{"type":"LineString","properties":{"source":"naturalearthdata.com","kind":"minor_road","kind_detail":"tertiary","sort_rank":355,"landuse_kind":"urban_area","min_zoom":5.0,"id":35378},"arcs":[613]},{"type":"LineString","properties":{"source":"naturalearthdata.com","kind":"minor_road","sort_rank":355,"kind_detail":"tertiary","min_zoom":5.0,"id":35378},"arcs":[614]},{"type":"LineString","properties":{"source":"naturalearthdata.com","kind":"minor_road","sort_rank":355,"kind_detail":"tertiary","min_zoom":5.0,"id":35403},"arcs":[615]},{"type":"LineString","properties":{"source":"naturalearthdata.com","kind":"major_road","sort_rank":379,"kind_detail":"secondary","min_zoom":3.0,"id":35405},"arcs":[616]},{"type":"LineString","properties":{"source":"naturalearthdata.com","kind":"minor_road","kind_detail":"tertiary","sort_rank":355,"landuse_kind":"urban_area","min_zoom":5.0,"id":35407},"arcs":[617]},{"type":"LineString","properties":{"source":"naturalearthdata.com","kind":"minor_road","sort_rank":355,"kind_detail":"tertiary","min_zoom":5.0,"id":35407},"arcs":[618]},{"type":"LineString","properties":{"source":"naturalearthdata.com","kind":"minor_road","sort_rank":355,"kind_detail":"tertiary","min_zoom":5.0,"id":35409},"arcs":[619]},{"type":"LineString","properties":{"source":"naturalearthdata.com","kind":"minor_road","sort_rank":355,"kind_detail":"tertiary","min_zoom":5.0,"id":35410},"arcs":[620]},{"type":"LineString","properties":{"source":"naturalearthdata.com","kind":"minor_road","sort_rank":355,"kind_detail":"tertiary","min_zoom":5.0,"id":35423},"arcs":[621]},{"type":"LineString","properties":{"source":"naturalearthdata.com","kind":"minor_road","sort_rank":355,"kind_detail":"tertiary","min_zoom":5.0,"id":35433},"arcs":[622]},{"type":"LineString","properties":{"source":"naturalearthdata.com","kind":"minor_road","sort_rank":355,"kind_detail":"tertiary","min_zoom":5.0,"id":35455},"arcs":[623]},{"type":"LineString","properties":{"source":"naturalearthdata.com","kind":"minor_road","kind_detail":"tertiary","sort_rank":355,"landuse_kind":"urban_area","min_zoom":5.0,"id":35501},"arcs":[624]},{"type":"LineString","properties":{"source":"naturalearthdata.com","kind":"minor_road","sort_rank":355,"kind_detail":"tertiary","min_zoom":5.0,"id":35501},"arcs":[625]},{"type":"LineString","properties":{"source":"naturalearthdata.com","kind":"major_road","sort_rank":379,"kind_detail":"secondary","min_zoom":3.0,"id":35503},"arcs":[626]},{"type":"LineString","properties":{"source":"naturalearthdata.com","kind":"minor_road","kind_detail":"tertiary","sort_rank":355,"landuse_kind":"urban_area","min_zoom":5.0,"id":35512},"arcs":[627]},{"type":"LineString","properties":{"source":"naturalearthdata.com","kind":"minor_road","kind_detail":"tertiary","sort_rank":355,"landuse_kind":"urban_area","min_zoom":5.0,"id":35550},"arcs":[628]},{"type":"LineString","properties":{"source":"naturalearthdata.com","kind":"minor_road","sort_rank":355,"kind_detail":"tertiary","min_zoom":5.0,"id":35550},"arcs":[629]},{"type":"LineString","properties":{"source":"naturalearthdata.com","kind":"minor_road","sort_rank":355,"kind_detail":"tertiary","min_zoom":5.0,"id":35572},"arcs":[630]},{"type":"LineString","properties":{"source":"naturalearthdata.com","kind":"minor_road","sort_rank":355,"kind_detail":"tertiary","min_zoom":5.0,"id":35584},"arcs":[631]},{"type":"LineString","properties":{"source":"naturalearthdata.com","kind":"major_road","sort_rank":379,"kind_detail":"secondary","min_zoom":3.0,"id":35587},"arcs":[632]},{"type":"LineString","properties":{"source":"naturalearthdata.com","kind":"major_road","sort_rank":379,"kind_detail":"secondary","min_zoom":3.0,"id":35612},"arcs":[633]},{"type":"LineString","properties":{"source":"naturalearthdata.com","kind":"major_road","sort_rank":379,"kind_detail":"secondary","min_zoom":3.0,"id":35705},"arcs":[634]},{"type":"LineString","properties":{"source":"naturalearthdata.com","kind":"minor_road","sort_rank":355,"kind_detail":"tertiary","min_zoom":5.0,"id":35727},"arcs":[635]},{"type":"LineString","properties":{"source":"naturalearthdata.com","kind":"minor_road","kind_detail":"tertiary","sort_rank":355,"landuse_kind":"urban_area","min_zoom":5.0,"id":35733},"arcs":[636]},{"type":"LineString","properties":{"source":"naturalearthdata.com","kind":"minor_road","sort_rank":355,"kind_detail":"tertiary","min_zoom":5.0,"id":35733},"arcs":[637]},{"type":"LineString","properties":{"source":"naturalearthdata.com","kind":"major_road","sort_rank":379,"kind_detail":"secondary","min_zoom":4.0,"id":35737},"arcs":[638]},{"type":"LineString","properties":{"source":"naturalearthdata.com","kind":"minor_road","sort_rank":355,"kind_detail":"tertiary","min_zoom":5.0,"id":35740},"arcs":[639]},{"type":"LineString","properties":{"source":"naturalearthdata.com","kind":"minor_road","kind_detail":"tertiary","sort_rank":355,"landuse_kind":"urban_area","min_zoom":5.0,"id":35747},"arcs":[640]},{"type":"LineString","properties":{"source":"naturalearthdata.com","kind":"minor_road","sort_rank":355,"kind_detail":"tertiary","min_zoom":5.0,"id":35748},"arcs":[641]},{"type":"LineString","properties":{"source":"naturalearthdata.com","kind":"minor_road","kind_detail":"tertiary","sort_rank":355,"landuse_kind":"urban_area","min_zoom":5.0,"id":35759},"arcs":[642]},{"type":"LineString","properties":{"source":"naturalearthdata.com","kind":"minor_road","sort_rank":355,"kind_detail":"tertiary","min_zoom":5.0,"id":35763},"arcs":[643]},{"type":"LineString","properties":{"source":"naturalearthdata.com","kind":"minor_road","kind_detail":"tertiary","sort_rank":355,"landuse_kind":"urban_area","min_zoom":5.0,"id":35764},"arcs":[644]},{"type":"LineString","properties":{"source":"naturalearthdata.com","kind":"minor_road","sort_rank":355,"kind_detail":"tertiary","min_zoom":5.0,"id":35764},"arcs":[645]},{"type":"LineString","properties":{"source":"naturalearthdata.com","kind":"minor_road","sort_rank":355,"kind_detail":"tertiary","min_zoom":5.0,"id":35783},"arcs":[646]},{"type":"LineString","properties":{"source":"naturalearthdata.com","kind":"minor_road","sort_rank":355,"kind_detail":"tertiary","min_zoom":5.0,"id":35799},"arcs":[647]},{"type":"LineString","properties":{"source":"naturalearthdata.com","kind":"minor_road","sort_rank":355,"kind_detail":"tertiary","min_zoom":5.0,"id":35809},"arcs":[648]},{"type":"LineString","properties":{"source":"naturalearthdata.com","kind":"minor_road","sort_rank":355,"kind_detail":"tertiary","min_zoom":5.0,"id":35810},"arcs":[649]},{"type":"LineString","properties":{"source":"naturalearthdata.com","kind":"minor_road","sort_rank":355,"kind_detail":"tertiary","min_zoom":5.0,"id":35812},"arcs":[650]},{"type":"LineString","properties":{"source":"naturalearthdata.com","kind":"minor_road","sort_rank":355,"kind_detail":"tertiary","min_zoom":5.0,"id":35814},"arcs":[651]},{"type":"LineString","properties":{"source":"naturalearthdata.com","kind":"minor_road","kind_detail":"tertiary","sort_rank":355,"landuse_kind":"urban_area","min_zoom":5.0,"id":35816},"arcs":[652]},{"type":"LineString","properties":{"source":"naturalearthdata.com","kind":"minor_road","sort_rank":355,"kind_detail":"tertiary","min_zoom":5.0,"id":35817},"arcs":[653]},{"type":"LineString","properties":{"source":"naturalearthdata.com","kind":"minor_road","sort_rank":355,"kind_detail":"tertiary","min_zoom":5.0,"id":35818},"arcs":[654]},{"type":"LineString","properties":{"source":"naturalearthdata.com","kind":"minor_road","sort_rank":355,"kind_detail":"tertiary","min_zoom":5.0,"id":35819},"arcs":[655]},{"type":"LineString","properties":{"source":"naturalearthdata.com","kind":"minor_road","kind_detail":"tertiary","sort_rank":355,"landuse_kind":"urban_area","min_zoom":5.0,"id":35821},"arcs":[656]},{"type":"LineString","properties":{"source":"naturalearthdata.com","kind":"minor_road","sort_rank":355,"kind_detail":"tertiary","min_zoom":5.0,"id":35821},"arcs":[657]},{"type":"LineString","properties":{"source":"naturalearthdata.com","kind":"minor_road","kind_detail":"tertiary","sort_rank":355,"landuse_kind":"urban_area","min_zoom":5.0,"id":35822},"arcs":[658]},{"type":"LineString","properties":{"source":"naturalearthdata.com","kind":"minor_road","sort_rank":355,"kind_detail":"tertiary","min_zoom":5.0,"id":35822},"arcs":[659]},{"type":"LineString","properties":{"source":"naturalearthdata.com","kind":"major_road","kind_detail":"secondary","sort_rank":379,"landuse_kind":"urban_area","min_zoom":3.0,"id":35850},"arcs":[660]},{"type":"LineString","properties":{"source":"naturalearthdata.com","kind":"major_road","sort_rank":379,"kind_detail":"secondary","min_zoom":3.0,"id":35850},"arcs":[661]},{"type":"LineString","properties":{"source":"naturalearthdata.com","kind":"major_road","kind_detail":"secondary","sort_rank":379,"landuse_kind":"urban_area","min_zoom":4.0,"id":35868},"arcs":[662]},{"type":"LineString","properties":{"source":"naturalearthdata.com","kind":"minor_road","kind_detail":"tertiary","sort_rank":355,"landuse_kind":"urban_area","min_zoom":5.0,"id":35873},"arcs":[663]},{"type":"LineString","properties":{"source":"naturalearthdata.com","kind":"minor_road","kind_detail":"tertiary","sort_rank":355,"landuse_kind":"urban_area","min_zoom":5.0,"id":35884},"arcs":[664]},{"type":"LineString","properties":{"source":"naturalearthdata.com","kind":"minor_road","kind_detail":"tertiary","sort_rank":355,"landuse_kind":"urban_area","min_zoom":5.0,"id":35898},"arcs":[665]},{"type":"LineString","properties":{"source":"naturalearthdata.com","kind":"minor_road","sort_rank":355,"kind_detail":"tertiary","min_zoom":5.0,"id":35898},"arcs":[666]},{"type":"LineString","properties":{"source":"naturalearthdata.com","kind":"major_road","kind_detail":"secondary","sort_rank":379,"landuse_kind":"urban_area","min_zoom":4.0,"id":35923},"arcs":[667]},{"type":"LineString","properties":{"source":"naturalearthdata.com","kind":"major_road","sort_rank":379,"kind_detail":"secondary","min_zoom":4.0,"id":35923},"arcs":[668]},{"type":"LineString","properties":{"source":"naturalearthdata.com","kind":"minor_road","sort_rank":355,"kind_detail":"tertiary","min_zoom":5.0,"id":35940},"arcs":[669]},{"type":"LineString","properties":{"source":"naturalearthdata.com","kind":"minor_road","sort_rank":355,"kind_detail":"tertiary","min_zoom":5.0,"id":35946},"arcs":[670]},{"type":"LineString","properties":{"source":"naturalearthdata.com","kind":"minor_road","sort_rank":355,"kind_detail":"tertiary","min_zoom":5.0,"id":35966},"arcs":[671]},{"type":"LineString","properties":{"source":"naturalearthdata.com","kind":"minor_road","kind_detail":"tertiary","sort_rank":355,"landuse_kind":"urban_area","min_zoom":5.0,"id":35980},"arcs":[672]},{"type":"LineString","properties":{"source":"naturalearthdata.com","kind":"minor_road","sort_rank":355,"kind_detail":"tertiary","min_zoom":5.0,"id":35980},"arcs":[673]},{"type":"LineString","properties":{"source":"naturalearthdata.com","kind":"minor_road","sort_rank":355,"kind_detail":"tertiary","min_zoom":5.0,"id":35992},"arcs":[674]},{"type":"LineString","properties":{"source":"naturalearthdata.com","kind":"minor_road","sort_rank":355,"kind_detail":"tertiary","min_zoom":5.0,"id":35997},"arcs":[675]},{"type":"LineString","properties":{"source":"naturalearthdata.com","kind":"minor_road","sort_rank":355,"kind_detail":"tertiary","min_zoom":5.0,"id":36000},"arcs":[676]},{"type":"LineString","properties":{"source":"naturalearthdata.com","kind":"minor_road","sort_rank":355,"kind_detail":"tertiary","min_zoom":5.0,"id":36001},"arcs":[677]},{"type":"LineString","properties":{"source":"naturalearthdata.com","kind":"minor_road","sort_rank":355,"kind_detail":"tertiary","min_zoom":5.0,"id":36006},"arcs":[678]},{"type":"LineString","properties":{"source":"naturalearthdata.com","kind":"minor_road","sort_rank":355,"kind_detail":"tertiary","min_zoom":5.0,"id":36012},"arcs":[679]},{"type":"MultiLineString","properties":{"source":"naturalearthdata.com","kind":"major_road","kind_detail":"secondary","sort_rank":379,"landuse_kind":"urban_area","min_zoom":4.0,"id":36025},"arcs":[[680],[681]]},{"type":"LineString","properties":{"source":"naturalearthdata.com","kind":"major_road","kind_detail":"secondary","sort_rank":379,"landuse_kind":"urban_area","min_zoom":4.0,"id":36025},"arcs":[682]},{"type":"MultiLineString","properties":{"source":"naturalearthdata.com","kind":"major_road","sort_rank":379,"kind_detail":"secondary","min_zoom":4.0,"id":36025},"arcs":[[683],[684],[685],[686]]},{"type":"LineString","properties":{"source":"naturalearthdata.com","kind":"minor_road","sort_rank":355,"kind_detail":"tertiary","min_zoom":5.0,"id":36034},"arcs":[687]},{"type":"LineString","properties":{"source":"naturalearthdata.com","kind":"minor_road","sort_rank":355,"kind_detail":"tertiary","min_zoom":5.0,"id":36035},"arcs":[688]},{"type":"LineString","properties":{"source":"naturalearthdata.com","kind":"minor_road","sort_rank":355,"kind_detail":"tertiary","min_zoom":5.0,"id":36036},"arcs":[689]},{"type":"LineString","properties":{"source":"naturalearthdata.com","kind":"minor_road","sort_rank":355,"kind_detail":"tertiary","min_zoom":5.0,"id":36037},"arcs":[690]},{"type":"LineString","properties":{"source":"naturalearthdata.com","kind":"minor_road","sort_rank":355,"kind_detail":"tertiary","min_zoom":5.0,"id":36039},"arcs":[691]},{"type":"LineString","properties":{"source":"naturalearthdata.com","kind":"minor_road","sort_rank":355,"kind_detail":"tertiary","min_zoom":5.0,"id":36042},"arcs":[692]},{"type":"LineString","properties":{"source":"naturalearthdata.com","kind":"minor_road","sort_rank":355,"kind_detail":"tertiary","min_zoom":5.0,"id":36044},"arcs":[693]},{"type":"LineString","properties":{"source":"naturalearthdata.com","kind":"minor_road","sort_rank":355,"kind_detail":"tertiary","min_zoom":5.0,"id":36047},"arcs":[694]},{"type":"LineString","properties":{"source":"naturalearthdata.com","kind":"minor_road","sort_rank":355,"kind_detail":"tertiary","min_zoom":5.0,"id":36155},"arcs":[695]},{"type":"LineString","properties":{"source":"naturalearthdata.com","kind":"minor_road","sort_rank":355,"kind_detail":"tertiary","min_zoom":5.0,"id":36192},"arcs":[696]},{"type":"LineString","properties":{"source":"naturalearthdata.com","kind":"major_road","sort_rank":379,"kind_detail":"secondary","min_zoom":3.0,"id":36238},"arcs":[697]},{"type":"MultiLineString","properties":{"source":"naturalearthdata.com","kind":"minor_road","kind_detail":"tertiary","sort_rank":355,"landuse_kind":"park","min_zoom":5.0,"id":36241},"arcs":[[698],[699],[700]]},{"type":"MultiLineString","properties":{"source":"naturalearthdata.com","kind":"minor_road","kind_detail":"tertiary","sort_rank":355,"landuse_kind":"park","min_zoom":5.0,"id":36241},"arcs":[[701],[702]]},{"type":"LineString","properties":{"source":"naturalearthdata.com","kind":"minor_road","kind_detail":"tertiary","sort_rank":355,"landuse_kind":"national_park","min_zoom":5.0,"id":36241},"arcs":[703]},{"type":"MultiLineString","properties":{"source":"naturalearthdata.com","kind":"minor_road","sort_rank":355,"kind_detail":"tertiary","min_zoom":5.0,"id":36241},"arcs":[[704],[705],[706],[707],[708]]},{"type":"LineString","properties":{"source":"naturalearthdata.com","kind":"minor_road","sort_rank":355,"kind_detail":"tertiary","min_zoom":5.0,"id":36249},"arcs":[709]},{"type":"LineString","properties":{"source":"naturalearthdata.com","kind":"minor_road","sort_rank":355,"kind_detail":"tertiary","min_zoom":5.0,"id":36259},"arcs":[710]},{"type":"LineString","properties":{"source":"naturalearthdata.com","kind":"minor_road","kind_detail":"tertiary","sort_rank":355,"landuse_kind":"urban_area","min_zoom":5.0,"id":36300},"arcs":[711]},{"type":"MultiLineString","properties":{"source":"naturalearthdata.com","kind":"minor_road","sort_rank":355,"kind_detail":"tertiary","min_zoom":5.0,"id":36300},"arcs":[[712],[713]]},{"type":"LineString","properties":{"source":"naturalearthdata.com","kind":"major_road","sort_rank":379,"kind_detail":"secondary","min_zoom":3.0,"id":36315},"arcs":[714]},{"type":"MultiLineString","properties":{"source":"naturalearthdata.com","kind":"major_road","kind_detail":"secondary","sort_rank":379,"landuse_kind":"park","min_zoom":3.0,"id":36319},"arcs":[[715],[716],[717]]},{"type":"LineString","properties":{"source":"naturalearthdata.com","kind":"major_road","kind_detail":"secondary","sort_rank":379,"landuse_kind":"urban_area","min_zoom":3.0,"id":36319},"arcs":[718]},{"type":"LineString","properties":{"source":"naturalearthdata.com","kind":"major_road","kind_detail":"secondary","sort_rank":379,"landuse_kind":"urban_area","min_zoom":3.0,"id":36319},"arcs":[719]},{"type":"LineString","properties":{"source":"naturalearthdata.com","kind":"major_road","kind_detail":"secondary","sort_rank":379,"landuse_kind":"urban_area","min_zoom":3.0,"id":36319},"arcs":[720]},{"type":"MultiLineString","properties":{"source":"naturalearthdata.com","kind":"major_road","sort_rank":379,"kind_detail":"secondary","min_zoom":3.0,"id":36319},"arcs":[[721],[722],[723],[724],[725]]},{"type":"LineString","properties":{"source":"naturalearthdata.com","kind":"major_road","kind_detail":"secondary","sort_rank":379,"landuse_kind":"urban_area","min_zoom":3.0,"id":36320},"arcs":[726]},{"type":"LineString","properties":{"source":"naturalearthdata.com","kind":"major_road","sort_rank":379,"kind_detail":"secondary","min_zoom":3.0,"id":36320},"arcs":[727]},{"type":"LineString","properties":{"source":"naturalearthdata.com","kind":"minor_road","sort_rank":355,"kind_detail":"tertiary","min_zoom":5.0,"id":36375},"arcs":[728]},{"type":"LineString","properties":{"source":"naturalearthdata.com","kind":"major_road","kind_detail":"secondary","sort_rank":379,"landuse_kind":"urban_area","min_zoom":3.0,"id":36421},"arcs":[729]},{"type":"LineString","properties":{"source":"naturalearthdata.com","kind":"major_road","sort_rank":379,"kind_detail":"secondary","min_zoom":3.0,"id":36421},"arcs":[730]},{"type":"LineString","properties":{"source":"naturalearthdata.com","kind":"major_road","sort_rank":379,"kind_detail":"secondary","min_zoom":3.0,"id":36486},"arcs":[731]},{"type":"LineString","properties":{"source":"naturalearthdata.com","kind":"major_road","sort_rank":379,"kind_detail":"secondary","min_zoom":4.0,"id":36553},"arcs":[732]},{"type":"LineString","properties":{"source":"naturalearthdata.com","kind":"major_road","sort_rank":379,"kind_detail":"secondary","min_zoom":3.0,"id":36555},"arcs":[733]},{"type":"LineString","properties":{"source":"naturalearthdata.com","kind":"major_road","sort_rank":379,"kind_detail":"secondary","min_zoom":4.0,"id":36556},"arcs":[734]},{"type":"LineString","properties":{"source":"naturalearthdata.com","kind":"major_road","sort_rank":379,"kind_detail":"secondary","min_zoom":4.0,"id":36571},"arcs":[735]},{"type":"LineString","properties":{"source":"naturalearthdata.com","kind":"minor_road","sort_rank":355,"kind_detail":"tertiary","min_zoom":5.0,"id":36587},"arcs":[736]},{"type":"LineString","properties":{"source":"naturalearthdata.com","kind":"major_road","sort_rank":379,"kind_detail":"secondary","min_zoom":3.0,"id":36623},"arcs":[737]},{"type":"LineString","properties":{"source":"naturalearthdata.com","kind":"minor_road","sort_rank":355,"kind_detail":"tertiary","min_zoom":5.0,"id":36644},"arcs":[738]},{"type":"LineString","properties":{"source":"naturalearthdata.com","kind":"minor_road","sort_rank":355,"kind_detail":"tertiary","min_zoom":5.0,"id":36656},"arcs":[739]},{"type":"LineString","properties":{"source":"naturalearthdata.com","kind":"minor_road","sort_rank":355,"kind_detail":"tertiary","min_zoom":5.0,"id":36658},"arcs":[740]},{"type":"LineString","properties":{"source":"naturalearthdata.com","kind":"major_road","sort_rank":379,"kind_detail":"secondary","min_zoom":4.0,"id":36670},"arcs":[741]},{"type":"LineString","properties":{"source":"naturalearthdata.com","kind":"minor_road","sort_rank":355,"kind_detail":"tertiary","min_zoom":5.0,"id":36678},"arcs":[742]},{"type":"LineString","properties":{"source":"naturalearthdata.com","kind":"minor_road","sort_rank":355,"kind_detail":"tertiary","min_zoom":5.0,"id":36686},"arcs":[743]},{"type":"LineString","properties":{"source":"naturalearthdata.com","kind":"major_road","sort_rank":379,"kind_detail":"secondary","min_zoom":3.0,"id":36714},"arcs":[744]},{"type":"LineString","properties":{"source":"naturalearthdata.com","kind":"major_road","sort_rank":379,"kind_detail":"secondary","min_zoom":4.0,"id":36727},"arcs":[745]},{"type":"LineString","properties":{"source":"naturalearthdata.com","kind":"minor_road","sort_rank":355,"kind_detail":"tertiary","min_zoom":5.0,"id":36729},"arcs":[746]},{"type":"LineString","properties":{"source":"naturalearthdata.com","kind":"major_road","sort_rank":379,"kind_detail":"secondary","min_zoom":3.0,"id":36788},"arcs":[747]},{"type":"LineString","properties":{"source":"naturalearthdata.com","kind":"major_road","sort_rank":379,"kind_detail":"secondary","min_zoom":3.0,"id":36829},"arcs":[748]},{"type":"LineString","properties":{"source":"naturalearthdata.com","kind":"major_road","sort_rank":379,"kind_detail":"secondary","min_zoom":3.0,"id":36867},"arcs":[749]},{"type":"LineString","properties":{"source":"naturalearthdata.com","kind":"minor_road","sort_rank":355,"kind_detail":"tertiary","min_zoom":5.0,"id":36886},"arcs":[750]},{"type":"LineString","properties":{"source":"naturalearthdata.com","kind":"minor_road","kind_detail":"tertiary","sort_rank":355,"landuse_kind":"park","min_zoom":5.0,"id":36927},"arcs":[751]},{"type":"MultiLineString","properties":{"source":"naturalearthdata.com","kind":"minor_road","sort_rank":355,"kind_detail":"tertiary","min_zoom":5.0,"id":36927},"arcs":[[752],[753]]},{"type":"LineString","properties":{"source":"naturalearthdata.com","kind":"major_road","sort_rank":379,"kind_detail":"secondary","min_zoom":4.0,"id":36928},"arcs":[754]},{"type":"LineString","properties":{"source":"naturalearthdata.com","kind":"minor_road","sort_rank":355,"kind_detail":"tertiary","min_zoom":5.0,"id":36947},"arcs":[755]},{"type":"LineString","properties":{"source":"naturalearthdata.com","kind":"major_road","sort_rank":379,"kind_detail":"secondary","min_zoom":4.0,"id":36964},"arcs":[756]},{"type":"LineString","properties":{"source":"naturalearthdata.com","kind":"minor_road","sort_rank":355,"kind_detail":"tertiary","min_zoom":5.0,"id":36976},"arcs":[757]},{"type":"LineString","properties":{"source":"naturalearthdata.com","kind":"minor_road","kind_detail":"tertiary","sort_rank":355,"landuse_kind":"urban_area","min_zoom":5.0,"id":36977},"arcs":[758]},{"type":"LineString","properties":{"source":"naturalearthdata.com","kind":"minor_road","kind_detail":"tertiary","sort_rank":355,"landuse_kind":"urban_area","min_zoom":5.0,"id":36977},"arcs":[759]},{"type":"MultiLineString","properties":{"source":"naturalearthdata.com","kind":"minor_road","sort_rank":355,"kind_detail":"tertiary","min_zoom":5.0,"id":36977},"arcs":[[760],[761]]},{"type":"LineString","properties":{"source":"naturalearthdata.com","kind":"minor_road","kind_detail":"tertiary","sort_rank":355,"landuse_kind":"urban_area","min_zoom":5.0,"id":36992},"arcs":[762]},{"type":"LineString","properties":{"source":"naturalearthdata.com","kind":"minor_road","sort_rank":355,"kind_detail":"tertiary","min_zoom":5.0,"id":36992},"arcs":[763]},{"type":"LineString","properties":{"source":"naturalearthdata.com","kind":"major_road","sort_rank":379,"kind_detail":"secondary","min_zoom":3.0,"id":36996},"arcs":[764]},{"type":"LineString","properties":{"source":"naturalearthdata.com","kind":"major_road","sort_rank":379,"kind_detail":"secondary","min_zoom":3.0,"id":37018},"arcs":[765]},{"type":"LineString","properties":{"source":"naturalearthdata.com","kind":"major_road","sort_rank":379,"kind_detail":"secondary","min_zoom":3.0,"id":37022},"arcs":[766]},{"type":"LineString","properties":{"source":"naturalearthdata.com","kind":"major_road","sort_rank":379,"kind_detail":"secondary","min_zoom":3.0,"id":37024},"arcs":[767]},{"type":"LineString","properties":{"source":"naturalearthdata.com","kind":"major_road","sort_rank":379,"kind_detail":"secondary","min_zoom":4.0,"id":37030},"arcs":[768]},{"type":"LineString","properties":{"source":"naturalearthdata.com","kind":"minor_road","sort_rank":355,"kind_detail":"tertiary","min_zoom":5.0,"id":37043},"arcs":[769]},{"type":"LineString","properties":{"source":"naturalearthdata.com","kind":"major_road","sort_rank":379,"kind_detail":"secondary","min_zoom":4.0,"id":37124},"arcs":[770]},{"type":"LineString","properties":{"source":"naturalearthdata.com","kind":"minor_road","kind_detail":"tertiary","sort_rank":355,"landuse_kind":"park","min_zoom":5.0,"id":37133},"arcs":[771]},{"type":"LineString","properties":{"source":"naturalearthdata.com","kind":"minor_road","sort_rank":355,"kind_detail":"tertiary","min_zoom":5.0,"id":37133},"arcs":[772]},{"type":"LineString","properties":{"source":"naturalearthdata.com","kind":"major_road","sort_rank":379,"kind_detail":"secondary","min_zoom":4.0,"id":37139},"arcs":[773]},{"type":"LineString","properties":{"source":"naturalearthdata.com","kind":"minor_road","kind_detail":"tertiary","sort_rank":355,"landuse_kind":"urban_area","min_zoom":5.0,"id":37144},"arcs":[774]},{"type":"LineString","properties":{"source":"naturalearthdata.com","kind":"minor_road","kind_detail":"tertiary","sort_rank":355,"landuse_kind":"urban_area","min_zoom":5.0,"id":37144},"arcs":[775]},{"type":"LineString","properties":{"source":"naturalearthdata.com","kind":"minor_road","sort_rank":355,"kind_detail":"tertiary","min_zoom":5.0,"id":37144},"arcs":[776]},{"type":"LineString","properties":{"source":"naturalearthdata.com","kind":"major_road","sort_rank":379,"kind_detail":"secondary","min_zoom":3.0,"id":37152},"arcs":[777]},{"type":"LineString","properties":{"source":"naturalearthdata.com","kind":"major_road","sort_rank":379,"kind_detail":"secondary","min_zoom":4.0,"id":37173},"arcs":[778]},{"type":"LineString","properties":{"source":"naturalearthdata.com","kind":"minor_road","kind_detail":"tertiary","sort_rank":355,"landuse_kind":"park","min_zoom":5.0,"id":37185},"arcs":[779]},{"type":"LineString","properties":{"source":"naturalearthdata.com","kind":"minor_road","sort_rank":355,"kind_detail":"tertiary","min_zoom":5.0,"id":37185},"arcs":[780]},{"type":"LineString","properties":{"source":"naturalearthdata.com","kind":"minor_road","kind_detail":"tertiary","sort_rank":355,"landuse_kind":"park","min_zoom":5.0,"id":37201},"arcs":[781]},{"type":"LineString","properties":{"source":"naturalearthdata.com","kind":"minor_road","sort_rank":355,"kind_detail":"tertiary","min_zoom":5.0,"id":37201},"arcs":[782]},{"type":"LineString","properties":{"source":"naturalearthdata.com","kind":"minor_road","sort_rank":355,"kind_detail":"tertiary","min_zoom":5.0,"id":37216},"arcs":[783]},{"type":"LineString","properties":{"source":"naturalearthdata.com","kind":"major_road","sort_rank":379,"kind_detail":"secondary","min_zoom":4.0,"id":37227},"arcs":[784]},{"type":"LineString","properties":{"source":"naturalearthdata.com","kind":"major_road","sort_rank":379,"kind_detail":"secondary","min_zoom":3.0,"id":37248},"arcs":[785]},{"type":"LineString","properties":{"source":"naturalearthdata.com","kind":"minor_road","sort_rank":355,"kind_detail":"tertiary","min_zoom":6.0,"id":37255},"arcs":[786]},{"type":"LineString","properties":{"source":"naturalearthdata.com","kind":"minor_road","sort_rank":355,"kind_detail":"tertiary","min_zoom":5.0,"id":37264},"arcs":[787]},{"type":"LineString","properties":{"source":"naturalearthdata.com","kind":"major_road","sort_rank":379,"kind_detail":"secondary","min_zoom":3.0,"id":37283},"arcs":[788]},{"type":"LineString","properties":{"source":"naturalearthdata.com","kind":"minor_road","sort_rank":355,"kind_detail":"tertiary","min_zoom":5.0,"id":37289},"arcs":[789]},{"type":"LineString","properties":{"source":"naturalearthdata.com","kind":"major_road","sort_rank":379,"kind_detail":"secondary","min_zoom":3.0,"id":37326},"arcs":[790]},{"type":"LineString","properties":{"source":"naturalearthdata.com","kind":"minor_road","sort_rank":355,"kind_detail":"tertiary","min_zoom":5.0,"id":37328},"arcs":[791]},{"type":"LineString","properties":{"source":"naturalearthdata.com","kind":"minor_road","sort_rank":355,"kind_detail":"tertiary","min_zoom":5.0,"id":37329},"arcs":[792]},{"type":"LineString","properties":{"source":"naturalearthdata.com","kind":"minor_road","sort_rank":355,"kind_detail":"tertiary","min_zoom":5.0,"id":37330},"arcs":[793]},{"type":"LineString","properties":{"source":"naturalearthdata.com","kind":"minor_road","sort_rank":355,"kind_detail":"tertiary","min_zoom":5.0,"id":37333},"arcs":[794]},{"type":"LineString","properties":{"source":"naturalearthdata.com","kind":"minor_road","sort_rank":355,"kind_detail":"tertiary","min_zoom":5.0,"id":37346},"arcs":[795]},{"type":"LineString","properties":{"source":"naturalearthdata.com","kind":"minor_road","sort_rank":355,"kind_detail":"tertiary","min_zoom":5.0,"id":37347},"arcs":[796]},{"type":"LineString","properties":{"source":"naturalearthdata.com","kind":"minor_road","kind_detail":"tertiary","sort_rank":355,"landuse_kind":"urban_area","min_zoom":5.0,"id":37348},"arcs":[797]},{"type":"LineString","properties":{"source":"naturalearthdata.com","kind":"minor_road","sort_rank":355,"kind_detail":"tertiary","min_zoom":5.0,"id":37348},"arcs":[798]},{"type":"LineString","properties":{"source":"naturalearthdata.com","kind":"minor_road","sort_rank":355,"kind_detail":"tertiary","min_zoom":5.0,"id":37381},"arcs":[799]},{"type":"LineString","properties":{"source":"naturalearthdata.com","kind":"minor_road","sort_rank":355,"kind_detail":"tertiary","min_zoom":5.0,"id":37383},"arcs":[800]},{"type":"LineString","properties":{"source":"naturalearthdata.com","kind":"major_road","kind_detail":"secondary","sort_rank":379,"landuse_kind":"urban_area","min_zoom":3.0,"id":37412},"arcs":[801]},{"type":"LineString","properties":{"source":"naturalearthdata.com","kind":"major_road","sort_rank":379,"kind_detail":"secondary","min_zoom":3.0,"id":37412},"arcs":[802]},{"type":"LineString","properties":{"source":"naturalearthdata.com","kind":"minor_road","sort_rank":355,"kind_detail":"tertiary","min_zoom":5.0,"id":37418},"arcs":[803]},{"type":"LineString","properties":{"source":"naturalearthdata.com","kind":"minor_road","kind_detail":"tertiary","sort_rank":355,"landuse_kind":"urban_area","min_zoom":5.0,"id":37421},"arcs":[804]},{"type":"LineString","properties":{"source":"naturalearthdata.com","kind":"minor_road","kind_detail":"tertiary","sort_rank":355,"landuse_kind":"park","min_zoom":5.0,"id":37422},"arcs":[805]},{"type":"LineString","properties":{"source":"naturalearthdata.com","kind":"minor_road","kind_detail":"tertiary","sort_rank":355,"landuse_kind":"urban_area","min_zoom":5.0,"id":37429},"arcs":[806]},{"type":"LineString","properties":{"source":"naturalearthdata.com","kind":"minor_road","kind_detail":"tertiary","sort_rank":355,"landuse_kind":"urban_area","min_zoom":5.0,"id":37433},"arcs":[807]},{"type":"LineString","properties":{"source":"naturalearthdata.com","kind":"minor_road","sort_rank":355,"kind_detail":"tertiary","min_zoom":5.0,"id":37433},"arcs":[808]},{"type":"LineString","properties":{"source":"naturalearthdata.com","kind":"minor_road","sort_rank":355,"kind_detail":"tertiary","min_zoom":5.0,"id":37437},"arcs":[809]},{"type":"LineString","properties":{"source":"naturalearthdata.com","kind":"minor_road","kind_detail":"tertiary","sort_rank":355,"landuse_kind":"urban_area","min_zoom":5.0,"id":37439},"arcs":[810]},{"type":"LineString","properties":{"source":"naturalearthdata.com","kind":"minor_road","kind_detail":"tertiary","sort_rank":355,"landuse_kind":"urban_area","min_zoom":5.0,"id":37440},"arcs":[811]},{"type":"LineString","properties":{"source":"naturalearthdata.com","kind":"minor_road","sort_rank":355,"kind_detail":"tertiary","min_zoom":5.0,"id":37454},"arcs":[812]},{"type":"LineString","properties":{"source":"naturalearthdata.com","kind":"minor_road","kind_detail":"tertiary","sort_rank":355,"landuse_kind":"urban_area","min_zoom":5.0,"id":37469},"arcs":[813]},{"type":"LineString","properties":{"source":"naturalearthdata.com","kind":"minor_road","sort_rank":355,"kind_detail":"tertiary","min_zoom":5.0,"id":37469},"arcs":[814]},{"type":"LineString","properties":{"source":"naturalearthdata.com","kind":"minor_road","sort_rank":355,"kind_detail":"tertiary","min_zoom":5.0,"id":37471},"arcs":[815]},{"type":"LineString","properties":{"source":"naturalearthdata.com","kind":"minor_road","sort_rank":355,"kind_detail":"tertiary","min_zoom":5.0,"id":37484},"arcs":[816]},{"type":"LineString","properties":{"source":"naturalearthdata.com","kind":"minor_road","sort_rank":355,"kind_detail":"tertiary","min_zoom":5.0,"id":37485},"arcs":[817]},{"type":"LineString","properties":{"source":"naturalearthdata.com","kind":"minor_road","sort_rank":355,"kind_detail":"tertiary","min_zoom":5.0,"id":37535},"arcs":[818]},{"type":"LineString","properties":{"source":"naturalearthdata.com","kind":"minor_road","sort_rank":355,"kind_detail":"tertiary","min_zoom":5.0,"id":37537},"arcs":[819]},{"type":"LineString","properties":{"source":"naturalearthdata.com","kind":"major_road","sort_rank":379,"kind_detail":"secondary","min_zoom":3.0,"id":37538},"arcs":[820]},{"type":"LineString","properties":{"source":"naturalearthdata.com","kind":"minor_road","sort_rank":355,"kind_detail":"tertiary","min_zoom":5.0,"id":37545},"arcs":[821]},{"type":"LineString","properties":{"source":"naturalearthdata.com","kind":"minor_road","sort_rank":355,"kind_detail":"tertiary","min_zoom":5.0,"id":37556},"arcs":[822]},{"type":"LineString","properties":{"source":"naturalearthdata.com","kind":"minor_road","kind_detail":"tertiary","sort_rank":355,"landuse_kind":"urban_area","min_zoom":5.0,"id":37562},"arcs":[823]},{"type":"LineString","properties":{"source":"naturalearthdata.com","kind":"minor_road","sort_rank":355,"kind_detail":"tertiary","min_zoom":5.0,"id":37562},"arcs":[824]},{"type":"LineString","properties":{"source":"naturalearthdata.com","kind":"major_road","sort_rank":379,"kind_detail":"secondary","min_zoom":3.0,"id":37565},"arcs":[825]},{"type":"MultiLineString","properties":{"source":"naturalearthdata.com","kind":"minor_road","kind_detail":"tertiary","sort_rank":355,"landuse_kind":"park","min_zoom":5.0,"id":37618},"arcs":[[826],[827]]},{"type":"MultiLineString","properties":{"source":"naturalearthdata.com","kind":"minor_road","kind_detail":"tertiary","sort_rank":355,"landuse_kind":"national_park","min_zoom":5.0,"id":37618},"arcs":[[828],[829]]},{"type":"MultiLineString","properties":{"source":"naturalearthdata.com","kind":"minor_road","sort_rank":355,"kind_detail":"tertiary","min_zoom":5.0,"id":37618},"arcs":[[830],[831],[832]]},{"type":"LineString","properties":{"source":"naturalearthdata.com","kind":"major_road","sort_rank":379,"kind_detail":"secondary","min_zoom":3.0,"id":37661},"arcs":[833]},{"type":"LineString","properties":{"source":"naturalearthdata.com","kind":"minor_road","sort_rank":355,"kind_detail":"tertiary","min_zoom":5.0,"id":37669},"arcs":[834]},{"type":"LineString","properties":{"source":"naturalearthdata.com","kind":"minor_road","sort_rank":355,"kind_detail":"tertiary","min_zoom":5.0,"id":37693},"arcs":[835]},{"type":"LineString","properties":{"source":"naturalearthdata.com","kind":"minor_road","sort_rank":355,"kind_detail":"tertiary","min_zoom":5.0,"id":37724},"arcs":[836]}]},"earth":{"type":"GeometryCollection","geometries":[{"type":"MultiPolygon","properties":{"sort_rank":10,"source":"naturalearthdata.com","min_zoom":0.0,"kind":"earth","area":955003613469},"arcs":[[[837]],[[838]],[[839]],[[840]],[[841]]]}]},"landuse":{"type":"GeometryCollection","geometries":[{"type":"MultiPolygon","properties":{"kind":"national_park","protect_class":"2","area":21837091966,"sort_rank":18,"source":"openstreetmap.org","min_zoom":3.0,"tier":1,"osm_relation":true},"arcs":[[[842]],[[843],[844],[845],[846],[847],[848],[849]],[[850],[851],[852],[853],[854],[855],[856],[857],[858]],[[859]],[[860],[861],[862],[863],[864]],[[865]],[[866],[867]],[[868]],[[869]]]},{"type":"Polygon","properties":{"source":"openstreetmap.org","kind":"nature_reserve","area":1393750016,"tier":2,"id":164031829,"min_zoom":4.0,"sort_rank":23},"arcs":[[870]]},{"type":"MultiPolygon","properties":{"source":"openstreetmap.org","kind":"park","tier":2,"area":6372924043,"sort_rank":24,"min_zoom":6.0,"osm_relation":true},"arcs":[[[871]]]},{"type":"MultiPolygon","properties":{"source":"openstreetmap.org","kind":"national_park","tier":1,"protect_class":"2","area":5682134069,"sort_rank":18,"min_zoom":3.0},"arcs":[[[872]],[[873]],[[874]],[[875]]]},{"type":"Polygon","properties":{"kind":"park","protect_class":"1","area":2629050112,"sort_rank":24,"source":"openstreetmap.org","min_zoom":4.0,"tier":2,"id":165270838},"arcs":[[876]]},{"type":"MultiPolygon","properties":{"source":"openstreetmap.org","kind":"park","tier":2,"area":1109001523,"sort_rank":24,"min_zoom":6.0},"arcs":[[[877]]]},{"type":"MultiPolygon","properties":{"source":"naturalearthdata.com","kind":"urban_area","name":"","area":3716084958,"sort_rank":11,"min_zoom":4.0},"arcs":[[[878]],[[879]],[[880]],[[881]],[[882]],[[883]],[[884]],[[885]],[[886]],[[887]],[[888]],[[889]],[[890]],[[891]],[[892]],[[893]],[[894]],[[895]],[[896]],[[897]],[[898]],[[899]],[[900]],[[901]],[[902]],[[903]],[[904]],[[905]],[[906]],[[907]]]},{"type":"MultiPolygon","properties":{"kind":"park","protect_class":"1","area":26281798023,"sort_rank":24,"source":"openstreetmap.org","min_zoom":4.0,"tier":2,"osm_relation":true},"arcs":[[[908]],[[909]],[[910]],[[911]],[[912]],[[913]],[[914]],[[915]]]},{"type":"Polygon","properties":{"kind":"protected_area","protect_class":"3","area":6655810048,"sort_rank":17,"source":"openstreetmap.org","min_zoom":4.0,"tier":2,"id":-5638557,"osm_relation":true},"arcs":[[916]]},{"type":"Polygon","properties":{"kind":"national_park","protect_class":"2","area":269313984,"sort_rank":18,"source":"openstreetmap.org","min_zoom":5.0,"tier":1,"id":444217838},"arcs":[[917]]},{"type":"MultiPolygon","properties":{"kind":"park","protect_class":"1","area":4515225974,"sort_rank":24,"source":"openstreetmap.org","min_zoom":6.0,"tier":2,"osm_relation":true},"arcs":[[[918]],[[919]],[[920]],[[921],[922]],[[923]],[[924]]]},{"type":"MultiPolygon","properties":{"kind":"national_park","protect_class":"2","area":1480615346,"sort_rank":18,"source":"openstreetmap.org","min_zoom":5.0,"tier":1,"osm_relation":true},"arcs":[[[925]],[[926]],[[927]],[[928]]]},{"type":"MultiPolygon","properties":{"source":"openstreetmap.org","kind":"park","tier":2,"area":33455377302,"sort_rank":24,"min_zoom":4.0,"osm_relation":true},"arcs":[[[929]],[[930]],[[931]],[[932]],[[933]],[[934]],[[935]]]},{"type":"MultiPolygon","properties":{"source":"openstreetmap.org","kind":"nature_reserve","tier":2,"area":788429976,"sort_rank":23,"min_zoom":6.0},"arcs":[[[936]]]}]}},"type":"Topology","transform":{"translate":[101.25,11.1784018737],"scale":[0.001373291,0.0013324683]},"arcs":[[[2555,4096],[-4,-16],[-4,-32],[1,-17],[4,-16],[8,-13],[12,-10],[41,-22],[12,-11],[10,-11],[8,-13],[6,-13],[7,-24],[3,-7],[5,-7],[6,-6],[20,-11],[6,-5],[14,-15],[6,-4],[6,-4],[14,-8],[6,-5],[8,-14],[2,-16],[0,-34],[2,-19],[8,-18],[11,-16],[15,-11],[21,-8],[94,-33],[8,-2],[30,-1],[85,-21],[6,-3],[6,-4],[1,-4],[0,-2],[-4,-5],[-8,-5],[-15,-6],[-17,-19],[-2,-27],[9,-28],[29,-62],[8,-12],[9,-9],[9,-5],[10,-1]],[[3097,3443],[16,-2],[32,-11],[32,-20],[20,-30],[8,-36],[-8,-38],[-18,-47],[-3,-16],[-1,-32],[-4,-13],[-9,-9],[-3,-3],[-26,-16],[-34,-11],[-14,-10],[-7,-16],[5,-14],[11,-7],[15,-3]],[[3067,3441],[30,2]],[[3137,3112],[3,-3],[2,-16],[-1,-20],[-2,-2],[-21,-13],[-20,-17],[-30,-31],[-6,-10],[-5,-15],[-3,-17],[0,-16],[6,-13],[16,-3],[18,-18],[3,-1]],[[3109,3109],[14,0],[14,3]],[[3107,2918],[3,0],[2,-4],[-1,-8],[1,-3],[22,-31],[9,-7]],[[3097,2917],[10,1]],[[3143,2865],[20,-4],[-7,-10],[-29,-18],[-7,-14],[12,-24],[-6,-17],[-4,-1]],[[3143,2865]],[[3122,2777],[-11,0]],[[3111,2777],[-3,-1],[-2,-4],[1,-12],[5,-10],[1,-4],[-4,-3],[-10,-2],[-3,-3],[-6,-13],[-3,-17],[1,-17],[8,-14],[2,-7],[-5,-34],[-1,-23],[10,-50],[-2,-22],[-9,-20],[-23,-31],[-17,-16],[-4,-5],[-4,-8],[-6,-17],[-3,-5],[-8,-4],[-19,-4],[-9,-2],[-5,-5],[-14,-14],[-4,-3]],[[2975,2407],[-10,1],[-12,8],[-8,1]],[[2945,2417],[-5,-4],[-9,-16],[-5,-6],[-13,-5],[-38,-9]],[[2875,2377],[-10,0]],[[4044,668],[52,-4]],[[3954,590],[16,5],[14,19],[8,24],[12,18],[17,10],[14,1],[9,1]],[[3771,599],[10,-1],[6,-5],[3,-7],[4,-5],[10,0]],[[3759,363],[10,0],[7,11],[-1,1],[-6,17],[-20,34],[-1,12],[4,10],[6,10],[5,11],[1,7],[1,14],[1,5],[10,17],[2,2],[-4,19],[-21,41],[-6,17],[-1,3],[17,4],[8,1]],[[3918,599],[36,-9]],[[3924,587],[-6,12]],[[3826,597],[35,-1],[63,-9]],[[3804,581],[22,16]],[[3470,444],[33,-5],[38,-12],[30,-1],[51,-16],[14,-8],[5,-6],[11,-17],[6,-5],[10,-2]],[[3411,349],[9,10],[6,16],[21,21],[4,10],[1,10],[1,10],[17,18]],[[3717,384],[7,-1],[10,-4],[16,-11],[9,-5]],[[3668,372],[41,11],[8,1]],[[3355,363],[35,-13],[21,-1]],[[3450,0],[-10,9],[-39,10],[-15,11],[-8,21],[-2,16],[-9,6],[-12,3],[-9,8],[-1,10],[12,57],[8,25],[2,12],[-1,11],[-12,40],[2,19],[-1,10],[-3,9],[-8,6],[-19,3],[-9,5],[-8,13],[-2,3],[2,15],[9,13],[9,11],[2,2],[15,12],[12,3]],[[1746,2451],[7,-2],[6,-4],[4,-5],[2,-8],[-2,-18],[3,-6],[5,-2],[25,-2],[43,-11],[14,-2]],[[1708,2421],[15,8],[5,6],[1,6],[2,5],[7,4],[8,1]],[[2564,2448],[12,-2],[10,-6],[10,-7],[12,-6],[5,-1]],[[2522,2423],[11,2],[21,18],[10,5]],[[2507,2443],[6,-3],[4,-13],[5,-4]],[[2477,2424],[12,1],[5,4],[7,12],[6,2]],[[1675,2434],[13,-4],[10,-7],[10,-2]],[[1602,2396],[5,3],[28,19],[28,14],[12,2]],[[2459,2432],[18,-8]],[[2398,2388],[14,6],[8,9],[7,12],[8,10],[12,7],[12,0]],[[2627,2428],[6,0],[6,-2],[12,-8],[6,-3],[12,-2],[29,-6],[14,-4],[3,-9],[0,-10],[-3,-34],[1,-6],[23,-43],[13,-15],[16,-8]],[[2613,2426],[14,2]],[[2131,2421],[7,0],[-3,-3],[1,-7],[4,-7],[9,-3]],[[2105,2392],[6,3],[18,20],[1,4],[1,2]],[[2183,2419],[17,-2],[39,-16],[83,-12],[5,-2],[5,-2]],[[2149,2401],[13,4],[10,8],[11,6]],[[1582,2406],[3,-1],[4,-4],[5,-4],[8,-1]],[[1523,2381],[16,2],[12,6],[20,14],[11,3]],[[2083,2403],[4,-2],[4,-5],[5,-3],[9,-1]],[[2003,2377],[26,5],[6,3],[1,1],[20,10],[27,7]],[[2361,2398],[13,-2],[12,-6],[12,-2]],[[2332,2385],[4,1],[3,0],[4,2],[5,4],[5,4],[8,2]],[[1874,2394],[11,-4],[8,-4],[7,-6],[8,-5],[11,-2]],[[1853,2391],[9,1],[6,2],[6,0]],[[1984,2393],[19,-16]],[[1919,2373],[13,2],[3,4],[2,6],[7,6],[40,2]],[[1474,2381],[49,0]],[[875,1789],[45,4],[14,5],[34,20],[13,3],[-25,17],[-16,16],[1,16],[23,18],[74,36],[17,15],[3,7],[1,15],[2,8],[3,6],[13,17],[6,13],[12,41],[14,24],[18,18],[42,33],[10,12],[3,10],[0,11],[2,17],[5,12],[15,22],[6,12],[1,14],[1,10],[0,4],[3,12],[11,11],[13,6],[26,8],[13,7],[9,8],[49,43],[24,13],[15,5],[44,6],[32,10],[23,7]],[[2765,2278],[40,13],[22,37],[17,38],[21,11]],[[817,1794],[58,-5]],[[1211,351],[11,17],[-2,43],[-8,30],[-21,31],[-31,44],[-33,65],[-8,38],[-11,26],[-5,5],[-10,12],[-37,59],[-6,30],[17,122],[3,15],[8,14],[19,16],[6,11],[-1,7],[-1,8],[-8,10],[-24,12],[-10,11],[-2,6],[-1,12],[-3,7],[-5,5],[-18,11],[-55,56],[-22,16],[-41,14],[-5,4],[-7,5],[-5,12],[-2,16],[1,16],[4,11],[9,8],[0,1],[7,23],[1,8],[-2,9],[-2,5],[-4,5],[-4,7],[-5,16],[-3,29],[-4,17],[-4,8],[-2,9],[1,7],[8,10],[1,2],[-1,3],[-6,6],[-2,3],[2,3],[3,3],[6,2],[3,4],[3,4],[0,3],[0,1],[-12,8],[-8,10],[-11,23],[-33,39],[-15,26],[-38,102],[-1,2],[-1,52],[5,46],[-3,57],[0,2],[1,9],[-1,6],[-3,6],[-8,13],[-1,8],[14,18],[29,3]],[[3860,4096],[16,-17],[13,-8],[15,-6],[10,-1],[11,-5],[3,-9],[-3,-40],[1,-8],[10,-30],[11,-20],[16,-12]],[[4058,4017],[17,-1],[13,-19],[2,-30],[-3,-25],[-1,-2],[-2,-3],[-2,-3],[0,-4],[3,-2]],[[3987,3932],[5,0],[7,3],[7,5],[1,1],[1,5],[0,6],[4,6],[19,13],[8,7],[3,13],[16,26]],[[3985,3943],[0,-8],[2,-3]],[[3963,3940],[22,3]],[[4085,3928],[5,1],[4,3],[2,0]],[[4067,2348],[-10,0],[-11,4],[-10,8],[-19,19],[-25,36],[-6,11],[-3,5],[-6,6],[-3,3],[-53,16],[-9,5],[-12,7],[-15,22],[-7,4],[-17,4],[-6,4],[-3,7],[-4,24],[-2,9],[-10,15],[-4,4]],[[3832,2561],[-16,-15],[-5,-3],[-5,0],[-3,-2],[-1,-7],[0,-8],[1,-5],[4,-4],[5,-2],[0,-4]],[[3812,2511],[-11,0],[-10,3],[-8,1]],[[3783,2515],[-6,-4],[-2,-3],[-1,-6],[1,-5],[8,-5],[-3,-5],[-6,-4],[-2,-1],[-8,-14],[-18,-8],[-40,-5],[-4,-1],[-10,-3]],[[3692,2451],[-10,1],[-7,2],[-44,27],[-5,5]],[[3626,2486],[-6,-13],[-8,-39],[-5,-16],[-10,-16],[-12,-7],[-14,-2]],[[3571,2393],[-25,2],[-18,3]],[[3528,2398],[-11,-1]],[[3517,2397],[-8,1]],[[3509,2398],[-4,-1],[-2,-3],[-2,-11],[-2,-4],[-12,-1]],[[3487,2378],[-32,12],[-15,2]],[[3440,2392],[-3,-8],[-2,-9],[1,-8],[4,-8],[14,-12],[8,-12],[3,-14],[-3,-19],[6,-15],[10,-10],[25,-15],[11,-13],[19,-45],[10,-11],[11,-10],[10,-11],[4,-14],[-6,-14],[-11,-10],[-13,-9],[-11,-10],[-8,-12],[1,-35],[-11,-13],[-14,-1]],[[3016,2195],[-20,1],[-12,1],[-7,3],[-6,6],[-19,26],[-5,3],[-11,4],[-5,2],[-13,13],[-44,66],[-6,16],[-3,17],[0,24]],[[4096,2364],[-29,-16]],[[3139,2221],[-4,6],[-5,5],[-5,5],[-6,4]],[[3119,2241],[-20,-15],[-11,-6],[-12,-3],[-18,-12],[-20,-6],[-22,-4]],[[3180,2195],[-5,13],[-11,12],[-14,6]],[[3150,2226],[-11,-5]],[[3228,2192],[-10,1],[-12,5],[-7,5],[-7,0]],[[3192,2203],[-12,-8]],[[3404,2055],[-18,4],[-3,2],[-17,9],[-62,55],[-13,19],[-8,20],[-11,19],[-20,11],[-8,0]],[[3244,2194],[-16,-2]],[[3495,2054],[-38,10],[-17,0]],[[3440,2064],[-18,-7],[-18,-2]],[[2180,3943],[1,16],[-4,24],[0,18],[-1,14],[-13,24],[-5,6],[-1,2],[-5,11],[-14,20],[-2,4],[-1,4],[-1,10]],[[781,3474],[7,-1]],[[708,3431],[13,2],[10,6],[17,18],[22,13],[11,4]],[[703,3442],[5,-11]],[[701,3436],[1,1],[1,2],[0,3]],[[698,3436],[3,0]],[[694,3427],[9,4],[-5,5]],[[674,3427],[20,0]],[[608,3333],[13,10],[12,11],[4,5],[6,16],[2,1],[3,0],[2,1],[3,3],[0,4],[-1,8],[1,3],[9,11],[3,7],[-2,8],[11,6]],[[575,3362],[28,-20],[5,-9]],[[454,3153],[4,0],[3,2],[1,2],[3,8],[1,9],[2,5],[6,12],[1,2],[6,8],[6,5],[29,15],[4,3],[1,2],[0,3],[0,3],[-2,6],[-6,17],[-2,8],[0,6],[3,14],[2,5],[3,4],[3,3],[16,9],[7,5],[3,3],[1,1],[20,39],[6,10]],[[427,3160],[5,0],[2,-1],[8,-3],[4,-2],[8,-1]],[[114,3029],[6,0],[8,1],[102,28],[15,9],[10,7],[22,23],[6,4],[5,2],[29,8],[29,12],[45,27],[11,4],[20,6],[5,0]],[[37,3095],[40,-19],[10,-6],[5,-6],[2,-4],[3,-5],[1,-3],[1,-5],[2,-3],[6,-10],[4,-4],[3,-1]],[[1524,3170],[-11,5],[-27,9],[-5,2],[-2,1],[-1,2],[-4,3],[-5,3],[-18,6],[-4,1],[-2,2],[-2,2],[-84,24]],[[1578,3189],[-41,-17],[-13,-2]],[[2097,3292],[-10,-6],[-7,-5],[-4,-6],[-5,-2],[-4,-1],[-3,-1],[-4,-4],[-5,-9],[-7,-8],[-4,-9],[-7,-9],[-14,-11],[-26,-33],[-5,-12]],[[2375,3306],[2,-7],[3,-6],[1,-2],[0,-1],[0,-3],[-2,-3],[-3,-3],[-9,-3],[-3,-4],[-3,-5],[-4,-1],[-3,0]],[[2354,3268],[-3,0],[-3,1]],[[2348,3269],[-24,-2],[-3,0],[-6,-4],[-3,0]],[[2312,3263],[-3,0],[-7,2],[-3,0]],[[2299,3265],[-3,0],[-1,-6],[-2,-8],[-1,-21],[-2,-14],[-5,-12],[-1,-4],[-3,-6],[0,-11],[4,-14],[2,-3],[15,-10],[5,-4],[4,-3]],[[2320,3158],[-1,-11],[3,-16],[-2,-8],[-5,-11],[-1,-6],[-7,-24]],[[2311,3149],[4,2],[5,7]],[[523,2157],[8,3],[9,8],[7,18],[11,11],[9,6],[7,7],[5,6],[6,41]],[[515,2158],[8,-1]],[[456,1910],[14,14],[7,10],[2,10],[-1,14],[0,16],[-3,6],[-8,3],[-21,5],[-5,7],[0,10],[4,10],[3,10],[0,12],[-1,9],[0,10],[4,11],[11,10],[9,6],[10,8],[1,12],[-4,18],[0,13],[4,10],[14,10],[9,3],[10,1]],[[341,1496],[-16,-16],[-3,-12]],[[2262,3861],[-17,5],[-2,3],[-1,3],[0,3],[1,6],[-1,3],[-5,31],[-1,10],[-6,34],[-3,9],[-3,5]],[[2224,3973],[-3,0],[-2,-1],[-2,-2],[-1,-2],[-3,-8],[-1,-2],[-2,-2],[-2,-2],[-2,-1],[-10,-3],[-3,-1],[-4,-2],[-4,-2],[-5,-2]],[[1903,548],[-8,6],[-28,18],[-15,13],[-7,4],[-23,10],[-2,2],[-12,5],[-12,3],[-21,8],[-12,6],[-15,10],[-7,5],[-5,6],[-12,18],[-29,29],[-2,2],[-18,8],[-4,3],[-8,7],[-6,4],[-5,2],[-20,6]],[[1632,723],[-18,0],[-20,-4],[-20,0],[-6,-2],[-6,-8],[-10,-15],[-21,-26],[-14,-13],[-29,-17],[-68,-19],[-12,-4],[-19,-11],[-8,-3]],[[1381,601],[-13,0],[-13,3],[-19,6],[-18,8],[-15,8],[-28,12],[-160,12],[-12,0]],[[1606,1661],[-11,2],[-6,4],[-5,4],[-14,17]],[[1863,1476],[-43,47],[-28,44],[-20,38],[-10,9],[-58,11],[-11,4],[-6,4],[-5,4],[-9,12],[-3,3],[-4,1],[-11,2],[-25,10]],[[1630,1665],[-24,-4]],[[1590,2033],[-9,-11],[-2,-17],[1,-33],[-2,-24],[11,-44],[-2,-14],[-8,-16],[-7,-9],[-4,-11],[2,-166]],[[2649,793],[9,-31],[1,-10],[-1,-4],[-12,-29],[-5,-22],[-7,-16],[0,-4],[1,-3],[5,-5],[11,-12],[1,-3],[1,-5],[1,-30],[1,-4],[1,-1],[6,-2],[4,-3],[0,-3],[-1,-2],[-3,0]],[[2662,604],[-18,3]],[[2644,607],[-3,0],[-4,-1],[-3,-2],[-3,-3],[-3,-3],[-6,-9],[-23,-54]],[[2544,133],[-22,-21],[-6,-7],[-2,-8],[-10,-63],[-4,-23],[-3,-11]],[[3952,2971],[-4,0],[-4,64],[-76,60],[-16,5],[-26,2],[-24,10],[-34,42],[-37,14]],[[3957,2972],[-5,-1]],[[805,885]],[[3797,281],[-24,-45],[-14,-16],[-7,-6],[-11,-11],[-6,-9],[-19,-42],[-5,-13],[-2,-14],[-2,-30],[2,-12],[2,-12],[4,-11],[9,-16],[4,-6],[3,-6],[2,-6],[2,-7],[2,-6],[2,-4],[5,-5],[6,-4]],[[3797,281],[12,-11],[11,-7],[8,-8],[5,-7],[3,-6],[1,-9],[1,-3],[3,-2],[4,-2],[9,-2],[10,-3],[12,-5],[21,-13],[8,-7],[5,-6],[0,-5],[-1,-16],[-3,-12],[0,-6],[1,-7],[2,-7],[8,-9],[2,-6],[1,-11],[4,-5],[6,-2]],[[3966,137],[7,-2],[11,-9],[3,-7],[-1,-5],[-7,-9],[-1,-5],[4,-4],[8,-1]],[[3930,104],[14,2],[8,4],[5,7],[1,9],[3,8],[5,3]],[[4025,118],[10,0],[15,-4],[46,-20]],[[3990,95],[17,5],[9,7],[6,6],[3,5]],[[3797,281],[8,2],[3,1],[4,1],[3,2],[1,10],[-3,14],[-11,46],[-8,12],[-19,6]],[[2594,3762],[17,1],[31,11],[6,4],[5,3],[1,2],[14,12],[36,24],[3,3],[1,1],[8,12],[6,4]],[[1906,3970],[3,0],[3,-1],[10,-7],[2,-2],[2,-1],[3,0]],[[1892,3968],[3,1],[5,1],[6,0]],[[1879,3969],[13,-1]],[[1803,3785],[3,7],[3,12],[1,2],[0,1],[5,5],[1,2],[1,2],[1,3],[3,22],[0,5],[0,3],[-1,1],[-1,2],[-3,3],[-12,9],[-1,2],[-1,2],[-1,3],[0,2],[0,3],[0,3],[-1,3],[-1,2],[-3,4],[-2,2],[-4,5],[-2,3],[0,3],[0,4],[2,2],[2,2],[4,3],[65,50],[9,4],[5,2],[4,1]],[[1935,3959],[3,-1],[3,-1],[1,-1],[2,-2],[2,-2],[2,-1],[3,-1],[3,0]],[[1929,3959],[6,0]],[[2128,3953],[3,-1],[3,-1],[1,-1],[4,-4],[3,-1],[5,0]],[[2046,3915],[3,1],[55,26],[15,9],[3,1],[3,1],[3,0]],[[2009,3953],[5,-2],[17,-1],[1,-1],[1,-1],[3,-26],[1,-3],[3,-2],[6,-2]],[[1980,3948],[6,1],[12,3],[6,1],[5,0]],[[1966,3950],[4,0],[6,-2],[4,0]],[[1954,3950],[12,0]],[[2163,3946],[6,-1],[11,-2]],[[2147,3945],[8,1],[8,0]],[[1786,3791],[7,-4],[10,-2]],[[1781,3781],[0,10],[5,0]],[[1756,3786],[13,-1],[6,-1],[6,-3]],[[1761,3765],[5,5],[-4,4],[-3,5],[-3,2],[0,5]],[[1716,3786],[8,-5],[6,-6],[3,-6],[3,-4],[9,0]],[[1703,3769],[13,4],[0,13]],[[1681,3786],[6,-13],[16,-4]],[[1657,3776],[6,2],[11,6],[7,2]],[[1755,3770],[6,-5]],[[1745,3765],[6,3],[4,2]],[[1429,3891],[-6,0],[-10,3],[-4,2],[-2,3],[-2,5],[-2,8],[1,3],[0,3],[1,2],[5,6],[4,9],[3,5],[1,2],[0,3],[-1,4],[-2,6],[-9,13],[-2,4],[-2,11],[0,4],[0,3],[1,3],[12,33],[1,2],[0,4],[-2,3],[-4,6],[0,3],[0,6],[-1,6],[-2,11],[0,3],[0,2],[1,3],[2,1],[2,2],[6,4],[1,3],[1,3],[-1,6],[-2,2]],[[1608,3761],[-4,1],[-1,5],[-1,5],[-1,4],[-20,26],[2,9],[-1,8],[-2,4],[-2,6],[-3,2],[-9,4],[-9,4],[-13,12],[-2,3],[-6,17],[-2,5],[-5,9],[-3,4],[-3,2],[-2,1],[-7,0],[-4,1],[-6,1],[-3,2],[-2,3],[-1,3],[0,3],[0,4],[-1,4],[-3,6],[-3,1]],[[1491,3920],[-2,0],[-1,-2],[-4,-7],[-2,-4],[-2,-2],[-2,-1],[-2,-2],[-43,-11],[-4,0]],[[1656,3776],[-26,0]],[[1630,3776],[-9,0],[-4,-3],[-5,-10],[-4,-2]],[[1657,3776],[-1,0]],[[31,2932],[-3,0],[-3,1],[-3,1],[-1,8],[-1,14],[2,61],[-1,12],[0,19],[3,8],[11,19],[2,6],[0,14]],[[83,2916],[-3,0],[-6,1],[-11,4],[-16,11],[-2,1],[-3,0]],[[42,2933],[-3,0],[-5,-1],[-3,0]],[[18,2665],[3,0],[2,2],[2,4],[1,3],[2,1],[5,0],[2,2],[2,1],[2,2],[3,4],[2,2],[2,1],[10,4],[2,1],[2,2],[1,1],[2,4],[1,5],[3,9],[1,5],[2,3],[2,2],[2,1],[19,8],[2,2],[5,5],[2,1],[2,2],[5,1],[5,2],[18,13],[5,2],[4,3],[2,1],[2,2],[2,2],[1,3],[1,4],[-1,22],[-1,6],[-2,6],[-32,65],[-3,8],[-1,10],[-3,6],[-7,11],[-4,5],[-2,2],[-2,0]],[[91,2916],[-3,0],[-5,0]],[[0,2671],[11,-3],[5,-2],[2,-1]],[[581,1486],[-3,1],[-4,1],[-2,5],[-1,8],[-3,31],[4,26],[0,3],[-1,3],[-3,4],[-11,12],[-5,9],[-9,30]],[[786,1572],[-1,-2],[-1,-3],[-2,-1],[-3,-4],[-4,-3],[-2,-1],[-7,-3],[-4,-2],[-4,-3],[-4,-4],[-1,-2],[-3,-4],[-3,-14],[-3,-5],[-1,-2],[-2,-2],[-2,-1],[-2,-1],[-3,-1],[-8,0]],[[726,1514],[-8,2],[-8,3],[-10,9],[-5,4],[-2,4],[-4,10],[-2,2],[-3,2],[-7,1]],[[677,1551],[-4,0],[-2,-1],[-2,-2],[-4,-3],[-5,-9],[-10,-18],[-1,-2],[-2,-1],[-4,-3],[-4,-3],[-10,-3],[-18,-2],[-5,-2],[-9,-5],[-5,-5],[-6,-4],[-3,-1],[-2,-1]],[[0,3147],[2,-6],[1,-5],[0,-10],[6,-9],[28,-22]],[[487,4094],[-6,1],[-3,1]],[[605,3996],[-3,1],[-3,2],[-4,3],[-5,2],[-4,3],[-5,6],[-16,22],[-4,5],[-2,1],[-3,2],[-8,1],[-6,3],[-3,2],[-3,3],[-4,6],[-3,7],[-3,11],[-2,6],[-2,4],[-3,4],[-3,2],[-2,2],[-2,0],[-3,1],[-7,0]],[[502,4095],[-15,-1]],[[768,3956],[-3,1],[-7,6],[-2,1],[-14,4],[-3,1],[-4,3],[-3,2],[-9,10],[-1,2],[-3,1],[-9,4],[-5,3],[-2,1],[-9,3],[-5,0]],[[689,3998],[-3,0],[-2,-2],[-4,-1],[-1,-1],[-1,0],[-2,0]],[[676,3994],[-2,0],[-4,1],[-6,1]],[[664,3996],[-59,0]],[[788,3473],[3,8],[0,7],[-2,8],[-1,10],[2,10],[10,13],[3,8],[3,3],[6,10],[5,10],[-2,5],[6,19],[1,9],[2,8],[5,4],[3,1],[-4,8],[-9,2],[-2,1],[-2,2],[-1,0],[0,1],[-1,1],[-3,3],[-12,9],[-9,5],[-26,10],[-13,7],[-3,3],[-6,10],[-1,3],[1,3],[4,4],[14,10],[27,28],[6,8],[7,17],[3,5],[18,20],[1,3],[4,6],[4,7],[7,9],[4,6],[2,4],[10,37],[10,21],[13,47],[1,11],[0,7],[-10,5],[-2,1],[-5,5],[-7,4],[-1,1],[-2,4],[-1,5],[-2,9],[-2,3],[-3,2]],[[841,3963],[-2,-1]],[[839,3962],[-3,0]],[[836,3962],[-2,0],[-1,-1],[-1,-2],[1,-5],[0,-2],[-1,-1],[-2,-1],[-2,-1],[-5,-2],[-3,0]],[[820,3947],[-3,0],[-2,0],[-3,2],[-2,1],[-3,3],[-2,2],[-2,2],[-2,1]],[[801,3958],[-3,0],[-2,-1],[-10,-3],[-5,0]],[[781,3954],[-2,0],[-2,0],[-2,1],[-3,1],[-2,0]],[[770,3956],[-2,0]],[[83,3406],[-3,1],[-2,1],[-16,15],[-1,2],[-1,2],[-1,2],[-1,5],[-2,65],[0,9],[1,2],[2,3],[3,4],[3,3],[6,4],[4,4],[4,3],[2,3],[3,7],[6,26],[8,16],[0,4],[0,3],[-2,2],[-2,2],[-2,1],[-6,1],[-6,1],[-6,2],[-2,1],[-2,1],[-2,2],[-2,2],[-2,4],[-3,9],[-3,12],[-4,39],[0,6],[16,76],[0,7],[-2,8],[0,3],[1,3],[3,4],[2,2],[3,4],[2,2],[3,4],[2,6],[1,4],[-2,3],[-4,2],[-3,3],[-1,2],[-2,2],[-2,3],[1,2],[1,2],[3,4],[3,4],[3,5],[12,57],[1,2],[3,4],[6,5],[2,2],[2,2],[3,4],[0,4],[0,4],[-1,4],[0,3],[1,2],[3,4],[5,3],[13,14],[6,4],[2,2],[2,3],[3,8],[2,3],[3,3],[4,4],[2,4],[2,5],[1,4],[-1,4],[-3,10],[0,4],[1,3],[2,2],[2,1],[8,5],[8,6],[10,6],[2,2],[3,3],[0,3],[0,2],[-2,2],[-7,6],[-1,1],[-1,4],[0,7],[0,14],[1,7],[1,4],[1,1],[5,2],[3,2],[3,7],[1,4]],[[37,3095],[24,25],[6,9],[21,44],[1,6],[0,17],[2,18],[-1,30],[-2,13],[-1,12],[-3,11],[0,6],[3,32],[5,27],[12,34],[1,8],[1,5],[-1,4],[-1,2],[-1,2],[-1,2],[-2,2],[-2,1],[-3,1],[-3,0]],[[92,3406],[-9,0]],[[1156,3249],[-3,1],[-2,1],[-2,1],[-5,5],[-6,8],[-3,4],[-3,4],[-3,3],[-1,1],[-1,2],[-1,5],[0,22],[-4,18],[-1,24]],[[1203,3253],[-5,1]],[[1198,3254],[-3,-1],[-3,0],[-7,-4],[-2,0],[-6,-1]],[[1251,3222],[-2,1],[-3,1],[-1,5],[-2,2],[-2,2],[-2,1],[-2,1],[-2,2],[-1,3],[-1,3],[-1,3],[-3,1],[-2,0],[-3,1],[-6,4],[-3,1],[-3,0]],[[1212,3253],[-9,0]],[[1177,3248],[-3,1],[-8,2]],[[1166,3251],[-3,0],[-2,0],[-3,-1],[-2,-1]],[[1267,3184],[4,0],[5,7],[10,7],[2,4],[-5,9],[-2,5],[-4,3],[-1,2],[-5,2],[-1,1],[-5,0]],[[1265,3224],[-14,-2]],[[1260,3191],[1,-2],[1,0],[5,-5]],[[1232,3000],[19,4],[3,2],[3,3],[5,4],[1,4],[0,3],[-1,2],[-2,2],[-1,2],[-1,2],[-1,3],[0,24],[0,1],[-1,1],[0,1],[0,4],[0,5],[3,13],[0,5],[0,2],[-2,5],[-1,3],[0,3],[0,18],[1,4],[2,3],[2,1],[8,4],[4,2],[2,3],[0,3],[0,2],[-1,1],[-2,1],[-4,2],[-18,4],[-3,1],[-2,1],[-2,2],[-3,7],[1,2],[15,31],[4,1]],[[1218,3005],[3,-1],[2,-1],[4,-2],[2,-1],[3,0]],[[1011,2822],[25,2],[11,3],[14,6],[34,24],[4,10],[4,12],[4,10],[2,2],[4,6],[4,6],[0,4],[0,4],[-3,9],[0,3],[0,1],[7,6],[4,4],[25,32],[18,18],[4,2],[10,4],[5,1],[5,2],[11,6],[12,5],[3,1]],[[933,2845],[3,-1],[27,-8],[14,-7],[10,-4],[11,-2],[13,-1]],[[932,2723],[6,0],[17,4],[5,2],[2,2],[2,3],[2,5],[0,4],[-1,3],[-14,24],[-1,3],[-4,13],[-1,5],[1,5],[5,14],[2,6],[0,4],[-1,2],[-2,2],[-18,10],[-3,2],[-2,3],[-1,3],[1,2],[3,1],[3,0]],[[868,2758],[3,-3],[4,-4],[4,-2],[5,-2],[12,-3],[2,-1],[1,-2],[2,-2],[6,-10],[2,-2],[1,-1],[1,-1],[3,-1],[18,-1]],[[979,2229],[-6,36],[0,11],[4,10],[9,19],[1,0],[1,2],[4,8],[4,9],[0,5],[0,3],[-2,2],[-2,1],[-6,2],[-2,4],[-2,7],[-3,26],[-1,5],[-1,2],[-1,2],[-2,2],[-6,6],[-2,4],[-1,4],[0,3],[4,16],[0,5],[0,3],[-6,18],[-5,9],[-4,6],[-31,25],[-2,1],[-4,6],[-4,10],[-13,35],[-1,8],[0,3],[1,3],[16,41],[2,11],[-1,6],[-1,3],[-4,7],[-4,6],[-4,11],[-7,20],[0,6],[1,20],[0,1],[-1,1],[-13,15],[-14,47],[-2,9],[0,4]],[[1235,3460],[-23,-7],[-3,-2],[-5,-3],[-2,-2],[-3,-5],[-3,-7],[-1,-3],[-1,-40],[0,-4],[-1,-5],[-7,-24],[-4,-8],[-3,-4],[-2,-1],[-6,-3],[-17,-6],[-6,-1],[-3,-1]],[[1145,3334],[-3,0],[-6,2],[-3,1],[-4,2],[-5,5],[-3,4]],[[1235,3460],[16,-19],[8,-5],[2,-1],[3,-1],[1,-1],[1,-1],[7,-11],[1,-2],[2,-1],[2,-2],[3,-3],[2,-9],[0,-5],[0,-4],[-1,-2],[-1,-2],[-3,-3],[-15,-10],[-4,-2],[-1,-2],[-1,-2],[2,-4],[3,-4],[30,-32],[5,-4],[4,-2],[2,-1],[4,-2],[2,-2],[1,-3],[1,-6],[0,-4],[1,-4],[2,-4],[10,-10],[13,-8],[2,-2],[1,-3],[0,-8],[0,-3],[-2,-3],[-2,-1],[-2,-1],[-1,-1],[-1,-3],[0,-2],[0,-3],[3,-4],[2,-3],[22,-15]],[[10,2021],[21,-3],[8,-3],[6,-1],[8,0],[5,-2],[4,0]],[[0,2017],[5,2],[2,1],[3,1]],[[70,2013],[6,-1],[142,-67],[1,-2],[2,-5],[2,-3],[3,-3],[2,-2],[2,0]],[[62,2012],[4,0],[2,1],[2,0]],[[364,1969],[4,0],[3,-2],[2,-1],[9,-11],[4,-3],[4,-3],[2,-2],[1,-2],[9,-25],[2,-3],[3,-3],[6,-5],[4,-3],[4,-1]],[[309,1932],[3,0],[8,2],[2,1],[2,2],[1,2],[1,15],[1,3],[1,2],[2,2],[2,1],[26,6],[6,1]],[[247,1954],[8,-1],[18,-9],[24,-9],[12,-3]],[[230,1930],[1,0],[1,1],[1,2],[1,2],[3,11],[3,4],[1,2],[3,2],[3,0]],[[421,1905],[3,0],[3,0],[17,4],[12,1]],[[0,1786],[8,-1],[11,-4],[4,-3],[5,-4],[8,-10],[3,-5],[3,-4],[3,-10],[2,-2],[2,-2],[17,-12],[18,-18],[3,-2],[4,0]],[[106,1712],[3,0],[3,-1],[3,-2],[2,-3],[7,-13],[3,-3],[12,-11],[9,-4],[6,-2]],[[91,1709],[4,0],[3,1],[2,1],[3,1],[3,0]],[[174,1680],[3,-1],[4,-1],[3,-2],[13,-8],[4,-4],[15,-22],[7,-13],[1,-5],[1,-3],[2,-2],[2,-2],[8,-4],[4,-2],[14,-12],[4,-2],[15,-6],[7,-3],[4,-3],[28,-30],[26,-45],[2,-14]],[[154,1673],[3,1],[3,0],[2,1],[5,3],[2,1],[3,1],[2,0]],[[1948,3198],[-6,1],[-5,2],[-7,4],[-2,3],[-1,10],[-1,2],[-5,1]],[[1921,3221],[-4,-2],[-3,-2],[-3,-1],[-21,0],[-14,-7],[-7,-5],[-2,0],[-11,-3],[-9,-4]],[[1847,3197],[-106,8],[-26,11],[-5,1],[-5,0]],[[1705,3217],[-12,-1],[-3,-1],[-4,-2],[-3,-1],[-13,-12],[-2,-2],[-4,-1],[-7,-2],[-5,-1]],[[1652,3194],[-3,1],[-12,4],[-22,4],[-6,1]],[[1609,3204],[-3,-1],[-3,0],[-10,-5],[-15,-9]],[[1963,3185],[-7,3],[4,11]],[[1960,3199],[-12,-1]],[[1992,3176],[-6,5],[-1,9]],[[1985,3190],[-10,-4],[-12,-1]],[[2654,3222],[10,2],[11,9],[9,18],[4,22],[0,14],[-4,12],[0,11],[3,19],[32,94],[18,26],[9,23],[1,13],[-4,23],[2,9],[4,8],[6,6],[10,6],[4,5],[3,5],[-1,14],[-2,4],[-2,3],[-4,4],[-3,2],[-4,3],[-2,4],[-2,5],[0,12],[4,20],[41,42],[7,26],[5,4]],[[2484,3349],[8,-2],[9,-7],[21,-25],[8,-14],[8,-5],[9,-2]],[[2437,3287],[21,0],[8,5],[6,7],[5,8],[6,7],[2,8],[-1,6],[-5,4],[-9,4],[0,3],[3,5],[11,5]],[[2375,3306],[62,-19]],[[2564,3295],[7,-1],[6,-3],[5,-7],[4,-12],[4,-15],[5,-9],[7,-4],[10,0]],[[2547,3294],[17,1]],[[2628,3250],[5,-1],[5,-4],[4,-12],[4,-6],[8,-5]],[[2612,3244],[16,6]],[[1359,3230],[-5,-23],[-3,-2],[-4,-8],[2,-7],[5,-6],[7,-5]],[[1382,3184],[1,-11],[10,-19],[3,-11]],[[1372,3179],[5,0],[0,5],[5,0]],[[1372,3184],[0,-5]],[[1361,3179],[8,4],[3,1]],[[1414,3147],[9,-10],[6,-11]],[[1396,3143],[18,4]],[[1542,3133],[5,-3],[6,-4],[7,-2]],[[1489,3102],[7,3],[8,10],[5,3],[7,2],[16,10],[10,3]],[[1591,3128],[14,-5],[11,-5],[0,-1],[5,-9],[4,-3],[4,-1],[3,0],[4,-2],[1,-3],[0,-2],[0,-3],[1,-1],[-2,-8],[-7,-14],[-2,-5],[-2,-9],[-1,-2],[-3,-1],[-6,-4],[-4,-3],[-5,-11],[-6,-22],[-2,-6],[2,-18],[0,-10],[2,-18],[0,-12],[0,-3],[1,-3],[1,-2],[3,-4],[1,-2],[1,-3],[0,-3],[0,-3],[-2,-4],[-3,-5],[0,-4],[1,-5],[2,-2],[2,-2],[3,-4],[1,-3],[1,-2],[0,-3],[-1,-3],[-2,-3],[-6,-5],[-5,-3],[-2,-2],[-1,-2],[-1,-2],[-1,-3],[-1,-4],[0,-7],[2,-10],[1,-19],[1,-8],[-1,-4],[-2,-4],[-4,-5],[-3,-3],[-4,-2],[-2,-1],[-3,-3],[-11,-22],[-5,-8],[-1,-2],[-3,-3],[-10,-7],[-9,-8],[-3,-4],[-13,-7],[-2,-2],[-10,-10],[-2,-2],[-2,-1],[-5,-2],[-2,-3],[-3,-3],[-3,-7],[-4,-7],[-4,-3],[-3,-3],[-1,-4],[0,-4],[2,-16],[-2,-12],[-9,-33],[-4,-10],[-10,-18],[-1,-3],[-2,-13],[-2,-4],[-1,-2],[-2,-2],[-7,-7],[-1,-2],[-1,-5],[0,-7],[1,-18],[-1,-10],[-1,-8],[5,-25],[8,-17],[6,-18],[1,-3],[-1,-4],[-1,-6],[-5,-11],[-2,-5],[-2,-4],[0,-4],[2,-7],[1,-5],[-4,-8],[0,-6],[-1,-5],[2,-16]],[[1591,3123],[0,5]],[[1571,3128],[0,-4],[1,-1]],[[1560,3124],[6,4],[5,0]],[[1441,3128],[3,-10],[14,-7],[4,-9]],[[1429,3126],[8,2],[4,0]],[[1574,3124],[2,-1],[-8,-7],[7,-6]],[[1572,3123],[2,1]],[[1575,3110],[12,0],[9,13]],[[1596,3123],[-5,0]],[[1471,3110],[7,-1],[5,-4],[6,-3]],[[1462,3102],[9,8]],[[2278,3107],[-4,0],[-5,3],[-9,7],[-6,3],[-5,1],[-21,1],[-3,0],[-3,1],[-5,2],[-15,12],[-5,3],[-9,4],[-7,8],[-51,74],[-18,18],[-3,21],[-12,27]],[[2307,3082],[-8,2],[-2,1],[-3,2],[-2,3],[-2,6],[0,3],[-1,4],[-1,2],[-2,2],[-2,1]],[[2284,3108],[-3,-1],[-3,0]],[[1992,3176],[11,-2]],[[2028,3175],[11,-1],[8,-4],[3,-9],[2,-11],[6,-9],[0,-7],[-2,-6],[-2,-3],[-3,-2],[-2,-1],[-10,-3],[-5,-3],[-2,-1],[-6,-5],[-1,-2],[-1,-2],[-1,-3],[-1,-4],[-2,-1],[-3,-2],[-2,-2],[-2,-3],[-1,-6],[-2,-3],[-3,-2],[-4,-2],[-1,-1],[-1,-4],[-1,-2],[-2,-2],[-2,-1],[-3,0],[-3,0],[-2,-1],[-2,-2],[0,-3],[3,-5],[2,-3],[2,-3],[2,-3],[0,-4],[-2,-9],[-2,-4],[-2,-3],[-2,-3],[-1,-5],[-1,-10],[-1,-5],[-2,-6],[0,-4],[0,-4],[3,-6],[3,-3],[3,-2],[4,-3],[3,-6],[2,-9],[3,-24],[4,-16],[5,-5],[2,-3],[1,-6],[0,-11],[-1,-9],[-2,-5],[-3,-3],[-2,-1],[-3,-3],[-1,-1],[-1,-2],[-1,-9],[-1,-3],[-1,-3],[-2,-2],[-8,-5],[-2,-2],[-1,-2],[-1,-3],[-1,-5],[-2,-5],[-14,-14],[-8,-13],[-3,-7],[-1,-3],[-2,-5],[-6,-18],[-2,-6],[-1,-2],[-3,-4],[0,-4],[1,-4],[3,-6],[3,-3],[2,-2],[25,-14],[5,-2],[6,-1],[4,0],[6,-1],[2,-1],[2,-1],[1,-2],[5,-9],[1,-5],[-1,-37],[2,-5],[5,-10],[31,-39],[1,-2],[2,-5],[0,-22],[-8,-45],[-4,-10],[0,-6],[0,-9],[3,-20],[4,-14],[1,-2],[1,-5],[3,-18],[-12,-72]],[[2003,3174],[25,1]],[[2307,3082],[6,-1],[5,-2],[3,-1],[9,-5],[9,-8],[2,-1],[3,-1],[6,-1]],[[2362,3063],[5,0],[2,-1],[2,0],[11,-6],[3,-2],[6,-1],[3,0]],[[2350,3062],[12,1]],[[2440,3059],[3,0],[6,-2],[6,-1],[18,0],[1,0],[1,0],[7,-8],[2,-1]],[[2423,3047],[2,1],[3,1],[4,5],[2,2],[1,1],[1,1],[2,1],[2,0]],[[2486,3059],[5,0],[3,0],[6,-7],[9,-17]],[[2484,3047],[2,0],[0,3],[-1,6],[0,2],[1,1]],[[2404,3056],[2,0],[3,-2],[9,-6],[2,0],[3,-1]],[[2394,3053],[3,1],[6,2],[1,0]],[[2509,3035],[-1,2]],[[2508,3037],[6,-12],[3,-3],[4,-2],[2,-3],[1,-7],[-10,-5],[7,-6],[8,-2],[10,0],[-1,-10],[-4,-8],[-6,-6],[-9,-5]],[[2519,2968],[-11,7]],[[2508,2975],[-3,-5],[-1,-2],[0,-3],[-1,-21],[5,-29],[1,-8],[0,-5],[-3,-7],[-1,-3],[0,-3],[1,-17],[0,-4],[2,-21],[4,-10],[12,-18],[4,-4],[2,-1],[2,-1],[2,-1],[3,-1]],[[2549,2811],[6,-1],[5,-2],[17,-8],[13,-8],[3,-3],[2,-2],[11,-23],[1,-2],[0,-4],[-2,-5],[-2,-3],[-4,-3],[-1,-2],[-1,-3],[-1,-3],[0,-3],[0,-4],[2,-6],[34,-68],[1,-2],[2,-2],[2,-1],[2,-2],[3,-1],[5,-1],[3,-1],[2,-2],[1,-1],[2,-3],[1,-2],[13,-31],[0,-2],[0,-2],[-4,-1]],[[2537,2811],[12,0]],[[2665,2604],[-2,1],[-2,1],[-5,5],[-3,1],[-2,1],[-3,1]],[[2648,2614],[-3,0],[-3,-1],[-2,0],[-7,-4],[-2,-2],[-2,-1],[-4,-6],[-1,-3],[-2,-5],[-13,-54],[1,-4],[2,-6],[15,-17],[2,-2],[2,-2],[1,-4],[3,-7],[2,-12],[1,-6],[-1,-5],[-2,-4],[-2,-2],[-8,-8],[-1,-1],[0,-2],[-1,-3],[2,-2],[2,-2],[4,0]],[[2643,2450],[3,0],[3,0],[7,-7],[15,-24],[-2,-6]],[[2631,2449],[2,0],[4,1],[6,0]],[[461,1531],[2,1],[3,3],[3,7],[3,8],[0,3],[0,2],[1,1],[4,10],[2,5],[3,3],[4,3],[16,6],[12,8],[29,28]],[[446,1545],[3,0],[2,-2],[2,-1],[1,-2],[1,-6],[1,-2],[2,-1],[3,0]],[[376,1503],[3,0],[5,3],[21,12],[6,6],[11,12],[5,4],[10,4],[5,1],[4,0]],[[370,1504],[6,-1]],[[341,1496],[20,7],[9,1]],[[658,2219],[-5,1],[-7,2],[-37,14],[-7,5],[-17,16]],[[721,2222],[-4,0],[-3,2],[-5,4],[-1,3],[0,4],[0,3],[0,2],[-1,3],[-2,1],[-1,2],[-6,5],[-5,5],[-3,1],[-4,0]],[[686,2257],[-6,-3],[-4,-2],[-2,-2],[-3,-4],[-1,-3],[0,-2],[2,-11],[-1,-3],[-1,-3],[-1,-2],[-2,-1],[-3,-1],[-2,0],[-4,-1]],[[839,2227],[-4,0],[-5,1],[-13,5],[-4,2],[-4,0]],[[809,2235],[-15,-5],[-3,-1],[-10,-1],[-3,-1],[-2,-2],[-2,-2],[-2,-4],[-2,-2],[-1,-2],[-3,-1],[-2,-1],[-3,0]],[[883,2223],[-4,0],[-7,3],[-3,2],[-3,2],[-2,2],[-2,2],[-3,0]],[[859,2234],[-4,0],[-7,-3],[-6,-3],[-3,-1]],[[979,2229],[-6,-4],[-7,-7],[-2,-1],[-5,-3],[-2,-1],[-5,-2],[-3,0],[-3,0],[-3,-1],[-2,-1],[-2,-1],[-1,-2],[-1,-3],[-1,-2],[1,-3],[1,-2],[3,-1],[5,-2],[2,-1],[1,-2],[-1,-2],[-2,-1],[-2,-1],[-3,-1],[-3,-1],[-12,-1],[-3,0]],[[923,2183],[-3,0],[-3,2],[-3,4],[-2,2],[-1,3],[-1,3],[0,9],[1,6],[0,5],[-1,2],[-1,1],[-2,4],[-3,1],[-4,0]],[[900,2225],[-17,-2]],[[761,2213],[-4,0],[-3,2],[-3,3],[-3,2],[-4,2]],[[744,2222],[-23,0]],[[1148,2242],[7,-2],[7,-3],[14,-2],[4,-1],[3,0]],[[1066,2217],[7,1],[31,7],[14,6],[2,2],[2,2],[2,1],[8,3],[11,3],[5,0]],[[1183,2234],[7,1],[7,4],[15,2]],[[1005,2232],[4,-2],[2,-2],[4,-4],[4,-3],[2,-1],[5,-1],[22,0],[18,-2]],[[992,2220],[4,2],[2,3],[2,2],[0,3],[2,2],[3,0]],[[979,2229],[5,-4],[4,-4],[2,-1],[2,0]],[[456,1910],[7,-38],[3,-7],[5,-7],[6,-5],[2,-1],[6,-5],[2,-2],[1,-3],[1,-4],[0,-8],[-1,-5],[-1,-3],[-1,-3],[-2,-5],[1,-3],[1,-2],[4,-3],[3,-1],[4,-1],[6,0]],[[532,1809],[2,0],[3,-2],[2,-4],[2,-9],[2,-18],[0,-12],[-2,-17],[-2,-6],[-3,-4],[-4,-2],[-3,0],[-6,-1]],[[503,1804],[7,0],[22,5]],[[523,1734],[-9,1]],[[514,1735],[-2,-1],[-3,-1],[-1,-2],[-1,-2],[-1,-5],[0,-5],[1,-11],[2,-7],[3,-8],[8,-11],[9,-10],[5,-11],[9,-42]],[[907,1176],[-1,0],[-3,-1],[-13,-8],[-3,-1],[-2,0],[-7,0],[-6,-1],[-2,-1],[-2,-1],[-2,-2],[-2,-2],[-6,-10],[-14,-13],[-9,-12],[-1,-4],[0,-4],[1,-27],[0,-5],[2,-3],[1,-1],[1,-2],[-1,-3],[-3,-4],[-1,-3],[1,-5],[3,-4],[8,-10],[1,-2],[0,-3],[-1,-3],[-3,-1]],[[843,1040],[-2,0],[-3,1],[-4,3],[-11,10],[-3,3],[-2,2],[-2,1],[-2,1],[-3,0]],[[811,1061],[-3,-1],[-2,-1],[-3,-3],[-4,-4],[-1,-2],[-12,-15],[0,-6],[0,-8],[5,-16],[3,-7],[2,-5],[1,-1],[1,-2],[1,-2],[0,-3],[0,-6],[-3,-9],[-2,-5],[-2,-3],[-3,-3],[-1,-3],[0,-3],[4,-5],[5,-12],[2,-3],[2,-3],[4,-3],[7,-3],[4,-3],[4,-3],[-1,-8],[-14,-24],[0,-1]],[[322,1468],[-23,10],[-17,2]],[[282,1480],[-3,-1],[-8,-6],[-2,-1],[-22,-7],[-4,-3],[-3,-3],[-1,-13],[-2,-8],[-1,-3],[-3,-3],[-4,-4],[-10,-8],[-6,-3],[-4,-2],[-3,0]],[[20,1402],[-3,0],[-14,7],[-3,1]],[[206,1415],[-6,2],[-9,3],[-4,0]],[[187,1420],[-3,0],[-2,-1],[-1,-1],[-8,-10],[-1,-2],[-3,-5],[-10,-8],[-4,-2],[-4,-1]],[[105,1380],[-3,1],[-4,3],[-17,19],[-4,3],[-3,2],[-7,6],[-2,1],[-6,2],[-10,3]],[[49,1420],[-4,0],[-3,0],[-8,-6],[-4,-3],[-4,-5],[-3,-3],[-3,-1]],[[151,1390],[-2,1],[-8,4],[-6,2]],[[135,1397],[-3,-1],[-3,-1],[-15,-13],[-5,-2],[-4,0]],[[322,1468],[-4,-15],[0,-3],[5,-19],[14,-38],[3,-4],[2,-1],[2,-1],[3,0]],[[350,1387],[3,-1],[4,-2],[6,-7],[2,-5],[0,-3],[0,-1],[0,-1],[-2,-1],[-3,-3],[-1,-2],[-2,-3],[0,-5],[0,-9],[1,-5],[1,-4],[4,-5],[1,-2],[2,-1],[3,0]],[[347,1387],[3,0]],[[379,1331],[3,0],[4,-2],[7,-6],[3,-3],[1,-3],[6,-23],[3,-4],[2,-2]],[[369,1327],[3,0],[5,2],[2,2]],[[414,1289],[4,-2],[1,-3],[1,-3],[0,-7],[2,-29],[-1,-15],[-7,-29],[0,-3],[1,-3],[0,-3],[-1,-3],[-1,-1],[-7,-4],[-3,-4],[0,-1],[-1,-2],[1,-11],[-1,-2],[-2,-2],[-2,-2],[-1,-2],[-1,-3],[-1,-11],[-2,-4]],[[408,1288],[3,1],[3,0]],[[788,3473],[9,-15],[2,-3],[1,-1],[10,-8],[2,-2],[2,-1],[1,-2],[1,-3],[0,-2],[0,-3],[-1,-10],[1,-3],[2,-3],[5,-3],[10,-5],[5,-2],[3,-3],[11,-13],[3,-1],[3,-1]],[[1050,3408],[3,-1],[3,-1],[1,-5],[1,-7],[1,-3],[1,-2],[6,-9],[5,-7],[2,-2],[4,-2],[9,-2],[4,0],[6,-1],[4,-2],[21,-16]],[[1031,3400],[8,3],[2,1],[2,1],[5,2],[2,1]],[[996,3407],[7,-1],[15,-4],[8,-2],[5,0]],[[980,3397],[2,1],[2,2],[7,6],[5,1]],[[916,3406],[7,-1],[50,-8],[7,0]],[[858,3389],[10,3],[11,7],[3,1],[3,0],[18,2],[13,4]],[[169,2464],[4,-1],[2,-1],[2,-1],[2,-2],[6,-8],[1,-2],[4,-3],[5,-3],[5,-2],[12,-3],[5,0]],[[116,2436],[21,1],[3,2],[2,2],[2,4],[3,5],[11,9],[6,3],[5,2]],[[249,2444],[12,-1],[8,-1],[7,-3],[2,-2],[6,-8],[10,-6],[2,-2],[5,-8],[2,-2],[31,-24],[4,-3],[14,-20],[6,-5],[5,-4],[3,0]],[[217,2438],[32,6]],[[469,2413],[2,-1],[2,-1],[3,-4],[9,-12],[2,-2],[2,-2],[4,-3],[3,0]],[[421,2385],[3,0],[7,3],[15,2],[3,1],[2,1],[2,1],[2,2],[1,2],[3,8],[2,2],[1,3],[4,3],[3,0]],[[515,2402],[3,0],[2,-1],[11,-7],[2,-1],[1,-3],[1,-2],[1,-6],[-1,-3],[0,-2],[-1,-3],[-13,-22],[-9,-8],[-2,-5],[-1,-2],[-1,-3],[0,-3],[1,-3],[1,-2],[4,-6],[2,-2],[1,-2],[1,-6],[1,-2],[1,-2],[3,-1],[2,-2],[6,-7],[12,-9],[13,-8],[7,-6],[9,-5],[13,-11]],[[496,2388],[3,0],[2,2],[2,1],[5,6],[2,2],[5,3]],[[407,2388],[9,-3],[5,0]],[[366,2355],[3,1],[1,2],[1,2],[1,3],[-1,9],[1,3],[1,2],[2,1],[8,1],[3,1],[3,1],[2,1],[2,2],[2,2],[4,1],[8,1]],[[24,2495],[1,-1],[1,-1],[5,-3],[8,-1],[4,-2],[3,-2],[2,-5],[1,-2],[4,-3],[63,-39]],[[8,2474],[2,2],[1,2],[1,4],[1,4],[5,7],[4,2],[2,0]],[[0,2476],[8,-2]],[[116,2436],[4,-4],[3,-4],[5,-12],[3,-4],[2,-2],[3,-3],[3,-1],[5,-2],[10,-4],[8,-3],[4,-2],[2,-2],[1,-2],[1,-2],[1,-3],[3,-8],[1,-2],[2,-1],[2,-1],[2,-2],[1,-2],[2,-5],[1,-3],[7,-9],[1,-3],[0,-3],[0,-12],[-1,-3],[-1,-6],[-2,-2],[-3,-3],[-7,-2],[-4,0],[-6,0],[-3,-1],[-3,0],[-19,-8],[-6,-1],[-3,0]],[[135,2309],[-3,0],[-6,2],[-7,3],[-7,6],[-3,0]],[[109,2320],[-2,-1],[-2,-6],[0,-7],[0,-11],[-1,-3],[-1,-6],[-2,-3],[-4,-4],[-51,-36],[-3,-4],[-3,-4],[-3,-9],[0,-5],[0,-3],[2,-5],[6,-7],[1,-3],[0,-2],[0,-3],[0,-3],[1,-2],[7,-13],[1,-3],[1,-2],[0,-3],[0,-2],[0,-2],[-1,-2],[-3,-2],[-4,-3],[-18,-5],[-3,0]],[[27,2156],[-2,1],[-2,2],[-2,1],[-2,1],[-2,1],[-3,0],[-3,1]],[[11,2163],[-9,-2],[-2,0]],[[2262,3861],[-21,-47],[-1,-2],[-2,-2],[-2,-1],[-3,-1],[-3,0],[-2,0]],[[2228,3808],[-9,1]],[[2219,3809],[-3,-1],[-2,0],[-2,-2],[-8,-7],[-3,-3],[-10,-14],[-1,-3],[-6,-16],[-4,-7],[-8,-12],[-4,-3],[-2,-1],[-3,-1],[-8,-1],[-4,-2],[-1,-1],[-3,-3],[-2,-2],[-2,-1],[-10,-4],[-2,-1],[-7,-7],[-3,-4],[-1,-2],[-8,-7],[-2,-1],[-2,-1],[-14,-3],[-2,-1],[-2,-1],[-5,-3],[-3,-3],[-3,-4],[-3,-4],[-1,-4],[1,-4],[3,-8],[2,-4],[6,-9],[1,-2],[0,-4],[0,-5],[-3,-17],[-1,-12],[-1,-4],[-1,-3],[-1,-2],[-2,-1],[-2,-1],[-3,-1],[-3,0]],[[2071,3602],[-3,1],[-11,2],[-6,1],[-13,1]],[[2038,3607],[-7,-1],[-9,-2],[-4,-2],[-2,-1],[-1,-5],[0,-8],[1,-17],[0,-8],[-1,-5],[-1,-1],[-4,-5],[2,-9],[5,-8],[7,-7],[6,-9],[-8,-3],[-6,-6],[-4,-7],[3,-5],[0,-5],[-6,-3],[-4,-6],[1,-8],[4,-9]],[[2055,3504],[29,-18],[14,-27],[3,-31],[-6,-33]],[[2010,3467],[15,5],[18,4],[13,8],[-1,20]],[[2108,3400],[8,-5],[8,-11],[20,-44],[12,-17],[-9,-5],[-16,-4],[-18,-8],[-7,-4],[-9,-10]],[[2095,3395],[5,0],[8,5]],[[1317,3991],[2,0],[3,1],[6,2],[5,3],[8,7],[7,10],[3,4],[4,10],[2,1],[3,4],[2,5],[9,21],[1,2],[2,1],[8,6],[2,1],[5,6],[4,6],[1,5],[0,4],[-1,6]],[[1311,3991],[6,0]],[[1235,3460],[-6,21],[-1,3],[0,7],[2,16],[0,6],[-1,4],[-20,42],[-2,7],[-1,5],[1,12],[1,3],[1,2],[2,9],[0,10],[0,5],[-1,4],[-2,2],[-6,17],[-4,8],[-2,2],[-2,1],[-3,1],[-6,3],[-4,3],[-5,8],[-4,12],[0,7],[0,4],[5,12],[1,4],[0,6],[-3,26],[1,12],[-3,13],[-5,12],[-1,6],[-1,5],[1,15],[-2,17],[1,8],[1,4],[2,3],[3,4],[3,3],[10,8],[2,1],[14,11],[3,7],[3,8],[2,4],[2,2],[1,2],[2,2],[3,8],[1,2],[5,5],[1,3],[2,1],[2,2],[3,5],[9,16],[3,9],[-2,5],[-2,8],[-6,8],[-2,2],[6,2],[46,12],[4,2],[4,3],[3,2],[1,2],[9,12],[2,2],[2,1],[3,0]],[[1657,3776],[-36,-60],[-5,-19],[-1,-20],[0,-3],[2,-5],[0,-3],[7,-11],[1,-5],[1,-47],[8,-27],[1,-9],[0,-5],[0,-4],[-2,-3],[-9,-11],[-1,-2],[-7,-24],[-22,-108],[-3,-8],[-1,-1],[-3,-1],[-2,-1],[-3,-1]],[[1582,3398],[-6,0],[-15,3],[-6,1]],[[1555,3402],[-6,-1],[-5,-1],[-3,-1],[-9,-4],[-6,-7],[-5,-7],[-17,-41],[-3,-5],[-3,-2],[-6,-9],[-1,-3],[0,-3],[1,-3],[2,-1],[2,-1],[3,-1],[2,-1],[2,-1],[2,-2],[1,-3],[0,-3],[0,-2],[1,-3],[0,-3],[1,-2],[2,-2],[3,-3],[9,-6],[4,-2],[6,-2],[2,-1],[5,-2],[3,-1],[8,-9],[2,-1],[3,-1]],[[1575,3269],[6,-1],[3,-1],[2,-1],[4,-2],[2,-3],[2,-3],[2,-7],[0,-3],[-1,-3],[0,-1],[-3,-7],[-14,-48]],[[1555,3262],[2,1],[6,4],[2,1],[3,0],[7,1]],[[2297,3878],[15,-2]],[[2262,3861],[11,10],[5,2],[7,3],[6,1],[6,1]],[[2318,3877],[10,-1],[13,-4],[4,0]],[[2312,3876],[6,1]],[[2359,3875],[5,0],[3,-1],[3,-2],[5,-5],[2,-3],[5,-9],[2,-1],[4,-1],[16,-1],[3,-1],[3,-1],[2,-4],[2,-3],[4,-10],[7,-14],[3,-7],[2,-4],[2,-3],[7,-5],[8,-5],[4,-3],[3,-2],[6,-8],[2,-2],[4,-1],[4,0]],[[2345,3872],[3,1],[8,2],[3,0]],[[2497,3799],[2,-1],[2,-3],[1,-2],[1,-3],[3,-3],[5,-3],[3,-3],[8,-3],[64,-11],[8,-5]],[[2470,3779],[10,2],[4,3],[2,2],[1,3],[1,5],[2,2],[2,2],[2,1],[3,0]],[[2594,3762],[-1,-16],[-1,-4],[-2,-3],[-3,-3],[-3,-1],[-22,-5],[-68,-10],[-43,-11],[-14,-7],[-15,-12],[-3,-3],[-7,-10],[-12,-28],[-5,-16],[-3,-5],[-4,-6],[-11,-10],[-2,-2],[-1,-3],[-6,-22],[-1,-2],[-2,-2],[-3,-3],[-6,-6],[-3,-4],[-5,-9],[-6,-6],[-1,-2],[-2,-4],[-1,-6],[-1,-9],[-1,-2],[-1,-3],[0,-2],[0,-4],[0,-15],[0,-5],[-1,-3],[-10,-12],[-1,-2],[0,-3],[0,-10],[-1,-4],[-2,-7],[-1,-5],[0,-11],[-1,-3],[-2,-1],[-1,-2],[-1,-3],[1,-11],[-1,-4],[-1,-3],[-1,-5],[0,-3],[0,-3],[2,-3],[4,-4],[3,-4],[2,-10],[1,-9],[0,-2],[1,-2],[1,-2],[-1,-3],[-1,-4],[0,-3],[0,-2],[0,-3],[1,-8],[0,-2],[2,-2]],[[2334,3344],[2,-1],[2,-2],[1,-4],[1,-3],[1,-2],[0,-3],[-1,-5],[6,-6],[29,-12]],[[2327,3343],[4,0],[3,1]],[[1412,2158],[-4,0],[0,4],[7,38],[0,3],[0,4],[-2,2],[-35,4],[-8,2],[-4,3],[-3,2],[-4,9],[-7,17],[-5,11],[-4,3],[-4,3],[-8,4],[-34,25],[-10,5]],[[1590,2033],[-2,24],[-10,16],[-5,6],[-44,35],[-5,4],[0,2],[-9,45]],[[1515,2165],[-18,-11],[-10,-10],[-21,-26]],[[1466,2118],[-28,33],[-10,7],[-2,1]],[[1426,2159],[-6,-1],[-4,0],[-4,0]],[[2297,1030],[-2,-30],[0,-8],[-5,-27],[-1,-10],[4,-13],[-2,-4],[-3,-5],[-20,-20],[-4,-6],[-7,-20],[-4,-10],[-1,-2],[-4,-5],[-5,-4],[-13,-9],[-4,-1],[-3,-1],[-5,-1],[-6,-4],[-12,-11],[-4,-3],[-3,-2],[-22,-4],[-4,-2],[-2,-1],[-2,-2],[-21,-29],[-3,-11],[-5,-31],[13,-57]],[[2297,1030],[-119,105],[-36,44]],[[2632,900],[2,16],[0,5],[-2,5],[-17,31],[-4,11],[-6,9],[-3,8],[0,7],[5,24],[-43,10],[-76,34],[-27,8]],[[2461,1068],[-4,0],[-16,-4],[-12,-5],[-11,-7],[-11,-5],[-15,-8],[-4,-3],[-1,-3],[-2,-5],[-4,-6],[-11,-16]],[[2370,1006],[-31,3],[-12,3],[-8,2],[-22,16]],[[2649,793],[-12,12],[-9,18],[-2,4],[-3,15],[13,5],[21,22],[4,7],[3,6],[4,10],[1,3],[0,3],[-2,8],[-1,2],[-2,2],[-3,1]],[[2661,911],[-7,-1],[-19,-10],[-2,0],[-1,0]],[[3128,1719],[2,-57],[-2,-18],[4,-25],[19,-49]],[[2729,1454],[71,35],[50,44],[6,7],[10,15],[3,3],[143,102],[18,7],[98,52]],[[2532,1636],[45,-1],[70,-14],[7,-2],[5,-4],[0,-6],[-2,-5],[-7,-15],[-4,-15],[-4,-34],[3,-29],[2,-15],[7,-15],[4,-6],[3,-4],[9,-7],[16,-6],[43,-4]],[[2413,1580],[70,39],[25,10],[24,7]],[[3233,2010],[3,0],[7,3],[4,3],[2,3],[1,3],[-2,5],[-1,2],[-1,3],[-1,4],[2,7],[2,4],[2,2],[2,1],[6,2],[12,1],[86,0],[14,3],[7,3],[5,2]],[[3157,2026],[3,0],[2,-1],[3,-1],[2,-1],[2,-2],[2,-1],[6,-11],[2,-2],[1,-1],[3,-1],[2,-1]],[[3128,1719],[16,20],[9,106],[-6,41],[-8,23],[-3,6],[-2,3],[-2,2],[-2,1],[-3,2],[-4,4],[-5,7],[-2,5],[-1,4],[0,3],[1,9],[-3,32],[0,5],[2,2],[1,3],[3,4],[5,4],[4,3],[2,1],[10,10],[4,4],[2,1],[3,1],[2,0],[6,1]],[[3218,2017],[3,0],[2,-1],[3,-4],[2,-1],[2,-1],[3,0]],[[3185,2004],[3,1],[2,2],[5,6],[3,1],[4,1],[9,1],[5,1],[2,0]],[[2142,1179],[-26,36],[-253,261]],[[1590,2033],[20,10],[14,3],[28,3],[15,4],[11,7],[32,26],[13,7],[41,14],[10,7],[92,97],[28,18],[49,22],[113,50],[3,10],[3,4],[1,5],[-1,5],[-6,5],[-10,7],[-5,7],[-3,6],[-3,34],[0,1]],[[2342,1426],[3,2],[0,5],[-1,19],[6,65],[3,12],[2,5],[2,3],[5,2],[26,10],[6,3],[9,8],[4,6],[6,14]],[[2328,1427],[4,0],[4,-1],[6,0]],[[2142,1179],[19,12],[6,23],[4,7],[31,35],[9,7],[19,10],[9,7],[2,1],[20,9],[13,8],[5,4],[3,3],[6,17],[10,38],[25,44],[1,5],[1,12],[2,5],[1,1]],[[1970,283],[-10,2],[-2,1],[-3,3],[-5,10],[-8,6],[-51,33],[-15,15],[-5,1],[-8,3],[-2,2],[-2,2],[-2,4],[-1,5],[-1,6],[1,13],[-1,8],[-14,53],[-1,14],[1,8],[2,9],[4,14],[1,10],[-1,7],[-1,5],[-1,6],[-1,5],[1,5],[1,3],[1,2],[2,1],[3,1],[51,8]],[[2103,0],[-18,54],[-5,6],[-6,7],[-2,2],[-2,4],[0,5],[0,8],[3,18],[3,8],[3,6],[6,5],[2,3],[1,4],[-1,8],[-3,10],[-10,19],[-7,10],[-9,10],[-3,4],[-11,22],[-1,6],[0,7],[5,9],[8,12],[0,5],[-1,4],[-13,13],[-21,8],[-12,7],[-13,3],[-9,0]],[[1987,287],[-6,-1],[-7,-2],[-4,-1]],[[2147,697],[-12,-13],[-4,-3],[-6,-2]],[[2125,679],[-13,3],[-6,0]],[[2106,682],[-16,-2],[-6,-3],[-7,-7],[-3,-6],[-8,-23],[-4,-7],[-14,-14],[-2,-4],[1,-4],[8,-10],[1,-2],[-2,-2],[-39,-20],[-7,-3]],[[2008,575],[-9,1],[-5,1],[-4,3],[-9,13],[-4,4],[-5,3],[-5,2],[-5,1]],[[1962,603],[-5,-2],[-5,-5],[-11,-14],[-7,-8],[-7,-4],[-3,0],[-3,-3],[-3,-2],[-15,-17]],[[1019,1454],[18,-2],[17,-9],[17,-19],[14,-25],[9,-32],[4,-45],[0,-98],[-3,-31],[-11,-20],[-57,-35],[-104,-26],[-16,-4]],[[903,1363],[19,3],[22,0],[10,2],[12,4],[7,10],[3,16],[0,14],[3,13],[10,14],[15,9],[15,6]],[[1068,1680],[-6,0],[-29,6],[-20,27],[-207,17],[-20,1]],[[1248,1673],[-49,5],[-62,16],[-23,12],[-13,12]],[[1101,1718],[-11,-12],[-6,-8],[-16,-18]],[[1458,1684],[-22,5],[-19,9],[-17,10],[-9,3]],[[1391,1711],[-36,-4],[-97,-30],[-10,-4]],[[1570,1688],[-112,-4]],[[1642,1036],[26,3],[21,7],[12,6],[7,6],[5,6],[7,15],[0,1],[2,4],[15,23],[5,12],[0,3],[0,3],[-5,19],[-5,11],[-4,19],[0,6],[14,41],[0,3],[0,1],[0,2],[-1,2],[-1,2],[-2,1],[-5,2],[-4,5],[-1,7],[1,10],[2,7],[4,4],[2,2],[15,6],[5,3],[5,4],[6,7],[2,6],[0,6],[-1,6],[0,5],[1,9],[4,7],[12,18],[2,7],[-2,7],[-4,3],[-5,3],[-2,3],[-4,5],[-2,8],[1,5],[3,5],[4,3],[29,23],[57,58]],[[1522,1058],[70,-9],[50,-13]],[[1306,986],[6,0],[8,1],[5,2],[3,1],[2,2],[2,5],[3,2],[6,2],[14,4],[21,0],[8,1],[13,7],[17,12],[32,14],[61,17],[15,2]],[[1273,1004],[2,-1],[4,-4],[10,-9],[8,-3],[5,-1],[4,0]],[[1132,923],[4,1],[6,2],[13,11],[5,4],[7,1],[8,2],[10,4],[14,8],[39,16],[6,3],[8,11],[14,17],[3,1],[4,0]],[[1102,936],[18,-7],[3,-3],[1,-1],[2,0],[3,-1],[3,-1]],[[2464,1786],[-8,1],[-63,17],[-64,9],[-13,4],[-3,1],[-3,2],[-3,4],[-3,6],[-2,4],[-1,5],[-1,7],[1,7],[3,10],[8,16],[2,8],[1,9],[-4,37],[-2,6],[-3,6],[-3,4],[-3,5],[-1,7],[-3,15],[-3,3],[-3,2],[-3,1],[-1,3],[-5,14],[-3,4],[-3,3],[-4,1],[-9,1],[-2,3],[0,4],[27,38],[3,6],[2,6],[1,9],[-1,6],[2,9],[33,93],[4,36],[6,13],[7,11],[4,5],[13,9],[3,3],[1,3],[0,2],[-4,4],[-15,11],[-22,28],[-2,2],[0,4],[2,5],[3,2],[4,2],[1,4],[1,6],[0,25],[3,15],[0,14]],[[2413,1580],[10,98],[5,15],[9,16],[61,83],[1,4],[0,3],[-1,2]],[[2498,1801],[-6,-1],[-7,-5],[-3,-2],[-18,-7]],[[3151,1570],[24,-99],[2,-2],[10,-10],[6,-8],[6,-10],[2,-5],[1,-5],[-1,-5],[-5,-13],[-1,-4],[0,-6],[8,-51],[2,-5],[1,-2],[5,-2],[2,-3],[3,-3],[4,-5],[1,-4],[1,-4],[-1,-3],[-2,-4],[-5,-7],[-1,-3],[-2,-4],[1,-3],[1,-3],[8,-8],[5,-8],[5,-10],[1,-5],[1,-5],[-1,-3],[0,-3],[-3,-5],[-1,-2],[-2,-8],[2,-25],[-2,-14],[9,-31],[1,-17],[23,-66],[19,-89]],[[3722,1684],[-27,-2],[-12,-3],[-42,-19],[-5,-3],[-4,-2],[-7,-10],[-5,-5],[-5,-2],[-5,0]],[[3610,1638],[-20,3]],[[3590,1641],[-33,-2],[-6,-2],[-6,-3],[-5,-2],[-8,-7],[-46,-68],[-1,-4],[-5,-25],[-1,-3],[-2,-2],[-2,-1],[-2,-1],[-3,-1],[-2,0]],[[3364,1454],[-7,1],[-16,7],[-23,13],[-66,52],[-9,5],[-28,7],[-64,31]],[[3468,1520],[-2,0],[-2,0],[-12,5],[-1,0],[-2,1],[-3,0]],[[3446,1526],[-5,-2],[-2,-3],[-1,-3],[0,-10],[-2,-6],[-14,-25],[-5,-7],[-4,-4],[-2,-1],[-29,-10],[-10,-1],[-8,0]],[[3308,304],[-5,-4],[-2,-1],[-2,-1],[-3,0],[-6,-1]],[[3290,297],[-12,0]],[[3278,297],[-3,0],[-3,-2],[-8,-4],[-19,-4],[-5,-2],[-3,-3],[-3,-5],[-9,-24],[-10,-47],[-5,-16],[-4,-10],[-1,-3],[0,-5],[0,-60],[5,-38],[1,-5],[1,-3],[2,-5],[-1,-3]],[[3213,58],[-12,1]],[[3201,59],[-4,-2],[-2,-3],[-3,-6],[-6,-5],[-1,-1],[-1,-3],[-4,-19],[-2,-6],[-3,-8],[-1,-6]],[[3101,960],[7,2],[4,2],[4,2],[9,9],[11,6],[4,2],[138,15]],[[3047,982],[9,-1],[9,-4],[4,-2],[1,-1],[9,-6],[11,-5],[6,-2],[5,-1]],[[2980,880],[3,1],[6,3],[3,2],[6,10],[24,84],[25,2]],[[2887,912],[6,-1],[3,0],[6,-1]],[[2870,910],[6,0],[6,1],[5,1]],[[2858,911],[12,-1]],[[2876,761],[2,2],[1,1],[1,2],[-1,3],[-1,5],[-1,5],[-25,56],[-1,16],[0,4],[-1,3],[-18,27],[-1,6],[0,4],[2,1],[9,5],[11,8],[2,1],[3,1]],[[2924,911],[3,-1],[2,-1],[2,-1],[6,-4],[2,-2],[3,-1],[3,0],[10,-1],[3,0],[2,-1],[3,-1],[1,-2],[2,-2],[1,-2],[3,-4],[1,-2],[1,-2],[2,-2],[2,-1],[4,-1]],[[2902,910],[22,1]],[[2681,813],[27,-2],[4,-1],[2,-1],[2,-1],[15,-17],[22,-6],[49,-5],[2,-1],[8,-7],[3,-1],[3,-1]],[[2649,793],[17,15],[10,4],[5,1]],[[2851,777],[18,-15],[7,-1]],[[2818,770],[4,1],[4,1],[6,3],[19,2]],[[2380,419],[-4,2],[-2,2],[-8,3],[-25,8],[-3,2],[-20,14],[-9,5],[-26,2],[-8,3],[-6,8],[-30,29],[-3,3],[-1,3],[-1,14],[-2,6],[-26,38],[-5,12],[-4,16],[-2,14],[-6,11],[-1,1],[-4,4],[-19,12],[-5,5],[-3,4],[-1,3],[-1,6],[0,18],[-1,10],[-7,20]],[[2557,483],[-16,-3],[-13,-5],[-3,-1],[-5,0]],[[2520,474],[-6,1]],[[2514,475],[-13,0],[-7,-1],[-34,-11],[-52,-24],[-21,-17],[-5,-3],[-2,0]],[[3278,998],[9,-28],[10,-59],[2,-37],[-1,-6],[-2,-7],[-7,-10],[-4,-4],[-3,-3],[-2,-4],[-2,-3],[-1,-22],[3,-1]],[[3284,816],[36,-8],[13,-1]],[[3280,814],[4,2]],[[3336,808],[4,-3],[6,-31]],[[3333,807],[3,1]],[[3383,785],[4,-1],[6,-1],[22,-9],[25,-5],[10,-5],[19,-13],[2,-3],[2,-2],[4,-15],[9,-3]],[[3346,774],[20,4],[3,1],[5,5],[3,0],[3,1],[3,0]],[[3492,729],[3,-1],[4,-4],[5,-9],[2,-5],[2,-4],[-1,-4],[-1,-2],[-1,-3],[-2,-4],[-2,-2],[-1,-2],[-1,-2],[1,-2],[4,-2],[7,-4],[13,-6],[3,-1],[9,-1],[3,0],[4,-2],[13,-10],[8,-5],[5,-2],[2,-1],[4,-4],[4,-7],[12,-23],[0,-3],[-1,-2],[-2,-4],[-4,-4],[-2,-1],[-1,-2],[-2,-2],[-1,-2],[-1,-2],[0,-3],[0,-3],[0,-3],[9,-3]],[[3486,728],[3,1],[3,0]],[[3685,578],[6,1],[51,12],[5,0]],[[3620,583],[4,-6],[2,-1],[2,-2],[2,-1],[4,0]],[[3586,583],[34,0]],[[3663,582],[5,0],[17,-4]],[[3634,573],[5,1],[21,8],[3,0]],[[3306,383],[-2,0],[-9,2],[-6,2],[-5,2],[-6,4],[-18,13],[-20,20],[-53,0],[-90,16],[-26,3],[-5,1],[-9,4],[-2,1],[-2,2],[-4,5],[-2,3],[-9,21],[-11,16],[-43,17],[-13,3]],[[2971,518],[-8,-1],[-6,-3],[-8,-4],[-13,-11],[-7,-7],[-28,-26],[-58,-39]],[[3328,348],[1,0],[0,3],[7,18],[1,12],[-1,5],[-4,2]],[[3332,388],[-26,-5]],[[3902,1619],[-46,21],[-10,1],[-9,3],[-13,7],[-46,32],[-14,3]],[[3764,1686],[-42,-2]],[[3722,1684],[2,-83],[-3,-14],[0,-3],[3,-15],[11,-29],[7,-10],[22,-12],[7,-6],[4,-5],[1,-2],[2,-3],[0,-3],[1,-3],[0,-4],[-1,-3],[-1,-2],[-3,-1],[-3,0]],[[3771,1486],[-41,1]],[[3730,1487],[-4,-2],[-4,-3],[-6,-7],[-2,-5],[-2,-4],[0,-3],[1,-20],[1,-5],[2,-3],[3,-3],[22,-31],[3,-3],[1,-1],[2,-2],[10,-4],[2,-2],[2,-2],[5,-8],[5,-5],[6,-4],[8,-4],[2,0],[3,-1],[12,0],[3,0],[6,-2],[2,-1],[3,-1],[9,-11],[43,-26],[27,-11],[5,-4],[3,-2],[1,-3],[2,-5],[1,-9],[3,-28],[-1,-9],[-2,-2],[-2,-2],[-2,-1],[-5,-2],[-4,-3],[-5,-5],[-9,-14],[-5,-6],[-3,-4],[-21,-9],[-16,-4],[-13,-8],[-18,-5],[-29,-18],[-11,-11],[-16,-27],[-19,-71],[-3,-19],[2,-12],[0,-16],[0,-3],[1,-3],[3,-3],[3,-3],[21,-10],[35,-22],[9,-5],[15,-9],[6,-4],[3,-2],[4,-2],[11,-3],[2,-1],[2,-2],[18,-16],[3,-3],[3,-6],[8,-18],[10,-33],[3,-7],[2,-3],[3,-3],[12,-7],[11,-4],[18,-3],[31,-8],[10,-5],[8,-5],[7,-3],[3,-2],[2,-3],[8,-8],[5,-4],[5,-6],[6,-9],[3,-8],[11,-16],[0,-7],[-3,-50],[4,-33],[0,-5],[1,0]],[[3902,1619],[5,12],[1,9],[-1,4],[0,3],[-1,2],[-1,2],[-5,6],[-3,6],[-1,7],[2,28],[-1,8],[-1,8],[-8,12],[-6,28],[-12,19],[-2,6],[-3,5],[-3,5],[1,18],[5,20],[69,130],[2,5],[-1,18],[5,7],[-2,10],[-13,38],[-11,103],[-9,33],[-5,7],[-6,7],[-5,7],[-4,10],[-1,9],[0,9],[8,57],[2,5],[4,12],[2,9],[7,21],[4,17],[0,14],[-2,12],[-4,11],[-3,12],[-6,17],[0,7],[1,9],[9,32],[1,3],[2,3]],[[2557,483],[0,-30],[-2,-9],[-3,-4],[-4,-3],[-4,-2],[-7,-3],[-7,-6],[-7,-8],[-3,-5],[-2,-4],[-6,-30],[-22,-54],[-2,-31],[-12,-93],[12,-17],[19,-7]],[[2565,178],[8,0],[3,-3],[-32,-42]],[[2507,177],[58,1]],[[3902,1619],[36,-36],[5,-4],[28,-18],[26,-27],[35,-24],[47,-17],[12,-2],[5,0]],[[2599,535],[-12,-5],[-11,-2],[-4,-4],[-10,-21],[-5,-20]],[[2570,118],[-7,2],[-19,13]],[[2747,0],[-2,5],[-14,10],[-14,11],[-9,9],[-15,23],[-4,2],[-4,3],[-1,2],[-1,3],[-1,11],[1,34],[-2,4],[-2,1],[-4,2],[-26,6],[-4,2],[-2,1],[-3,2],[-3,0]],[[2637,131],[-5,0],[-22,-6],[-22,-2],[-10,-1],[-6,-3],[-2,-1]],[[2843,427],[2,-7],[0,-3],[0,-6],[-1,-5],[-3,-5],[-12,-19],[-1,-1],[0,-1],[-2,-2],[0,-4],[0,-7],[2,-6],[2,-6],[1,-2],[-3,-12],[-16,-28],[2,-7],[2,-5],[14,-26],[4,-5],[5,-5],[37,-20],[53,-44],[10,-7],[6,-8],[0,-17],[-16,-9],[-7,-6],[4,-32],[15,-60],[1,-21],[-6,-17],[-22,-24]],[[2716,536],[14,-3],[23,-32],[27,-14],[2,-1],[3,-3],[1,-5],[-2,-3],[-3,-1],[-6,-1],[-2,-1],[-3,-1],[-1,-3],[-1,-3],[0,-3],[1,-13],[0,-3],[15,-7],[59,-12]],[[2710,518],[3,2],[3,16]],[[2599,535],[15,-25],[2,-13],[0,-6],[0,-4],[3,-3]],[[2704,521],[3,-1],[3,-2]],[[2677,479],[3,1],[3,4],[11,29],[2,4],[3,3],[5,1]],[[2627,489],[2,-1],[4,-4],[2,-2],[14,-3],[5,-5],[3,0]],[[2619,484],[4,1],[1,1],[2,2],[1,1]],[[2674,480],[3,-1]],[[2657,474],[3,1],[6,3],[4,1],[4,1]],[[2675,201],[2,1],[2,2],[6,17],[10,8],[9,9],[1,9],[2,33],[-14,6],[-1,1],[-2,3],[-2,22],[-5,22],[-7,22],[-1,15],[-2,3],[-3,1],[-33,2]],[[2637,377],[-8,-2],[0,-2],[0,-4],[3,-7],[4,-11],[-40,0],[-19,-36],[-4,-15],[0,-20],[1,-6],[2,-5],[4,-7],[3,-5],[-1,-7],[-11,-40],[20,-18],[5,0]],[[2646,218],[4,-2],[15,-13],[10,-2]],[[2596,192],[8,0],[15,5],[4,2],[4,2],[8,11],[6,5],[5,1]],[[3576,3085],[-19,8],[-44,47],[5,22],[15,16],[-7,18],[-14,17]],[[3512,3213],[-16,0],[-17,-4],[-17,-1],[-17,-6]],[[3309,3192],[-9,4],[-8,4],[-6,7],[-7,5]],[[3279,3212],[-9,-2],[-6,-7],[-17,-4]],[[3445,3202],[-17,10]],[[3428,3212],[-20,-6],[-24,-6],[-46,-1]],[[3247,3199],[-17,5],[-18,7]],[[3212,3211],[-20,-2],[-10,-13],[-18,-7]],[[3338,3199],[-7,2]],[[3331,3201],[-7,0],[-7,-6],[-8,-3]],[[3164,3189],[-2,0]],[[3731,3168],[-23,-7],[-26,-3],[-20,-8],[-18,-11],[-32,-32],[-36,-22]],[[4054,3656],[18,-2],[16,-9],[8,-1]],[[3953,3277],[9,11],[-2,17],[-2,9],[0,10],[5,8],[4,4],[-5,24],[-13,20],[8,16],[11,9],[-14,16],[-18,12],[-2,17],[15,13],[20,41],[25,37],[34,36],[9,6],[8,7],[-3,12],[-6,11],[6,23],[12,20]],[[3916,3283],[37,-6]],[[3847,3266],[43,0],[26,17]],[[3820,3270],[27,-4]],[[3772,3237],[16,11],[7,18],[25,4]],[[3715,3253],[19,-2],[18,-10],[20,-4]],[[3731,3168],[-42,15],[-12,36],[8,6],[9,3],[4,18],[17,7]],[[4011,3937],[-5,3]],[[3972,3858],[18,2],[36,16],[9,19],[3,23],[-9,18],[-9,1]],[[4020,3937],[-9,0]],[[3955,3869],[17,-11]],[[3883,3748],[13,8],[22,8],[10,17],[-5,25],[2,18],[18,35],[12,10]],[[3848,3758],[17,-9],[18,-1]],[[3741,3721],[18,8],[26,1],[25,7],[17,16],[21,5]],[[3601,3753],[23,-4],[17,-5],[15,-10],[10,-23],[14,-18]],[[3488,3582],[21,0],[37,17],[15,13],[-1,19],[-8,18],[-1,39],[-5,18],[1,20],[5,8],[8,5],[13,3],[3,4],[2,5],[23,2]],[[3701,3728],[40,-7]],[[3680,3693],[5,14],[3,18],[13,3]],[[3039,3622],[56,-5],[43,-21],[49,-13],[46,-19],[7,-6],[7,-5]],[[3039,3622]],[[3467,3588],[21,-6]],[[3381,3529],[34,26],[31,32],[21,1]],[[3270,3553],[36,-20]],[[3247,3553],[23,0]],[[3344,3537],[18,-6],[19,-2]],[[3306,3533],[38,4]],[[3957,2972],[-1,-3],[-1,-3],[12,-9],[16,-3]],[[4013,2961],[11,-10],[7,-13],[10,-9],[9,-11],[8,-38],[0,-38],[-14,-23],[11,-30]],[[3983,2954],[30,7]],[[3773,2833],[-17,9],[-9,21],[-18,9],[-21,0]],[[3708,2872],[-18,-10],[-10,-19],[-31,-24],[-34,-34],[-30,-47],[2,-55],[11,-21],[14,-16],[21,-12],[18,-15],[15,-60],[13,-13],[15,-13],[13,-19],[3,-21],[0,-10],[5,-9],[-8,-19],[-1,0]],[[3904,2694],[-37,12],[-21,2],[-19,12],[-15,18],[-1,19],[4,21],[-2,9],[1,10],[8,20],[3,23],[-15,15]],[[3810,2855],[-20,-8],[-17,-14]],[[4055,2789],[-16,2]],[[4039,2791],[-30,-9],[-8,-9],[-13,-11],[-14,-16],[-1,-21],[-11,-17],[-22,-5]],[[3940,2703],[-22,1]],[[3918,2704],[-14,-10]],[[4096,3048],[-14,10],[-24,4]],[[4058,3062],[-23,-3],[-20,-11],[-15,-14],[-3,-10],[-2,-10],[-6,-9],[-7,-9],[-9,-17],[-16,-7]],[[962,4096],[0,-1],[1,-11],[-1,-5],[-12,-27],[-3,-4],[-8,11],[-1,37],[24,0]],[[0,1112],[54,-13],[50,-23],[18,-12],[8,1],[3,13],[7,8],[17,5],[32,5],[21,-5],[12,0],[8,-1],[4,1],[1,3],[-1,5],[2,5],[5,2],[30,-2],[15,1],[12,7],[7,10],[5,11],[8,11],[13,4],[45,-2],[12,-3],[19,-10],[16,-11],[13,-14],[12,-17],[4,-8],[2,-6],[3,-6],[6,-6],[6,-1],[6,1],[5,-2],[3,-13],[-15,5],[5,-11],[11,-11],[24,-19],[0,8],[-10,33],[2,4],[7,5],[1,4],[2,4],[3,-4],[3,-8],[2,-8],[0,-32],[9,3],[13,-1],[13,-5],[9,-11],[26,-38],[0,22],[2,10],[3,9],[-15,0],[-9,8],[-7,11],[-9,7],[0,5],[9,3],[31,2],[-15,-15],[3,-6],[37,0],[-4,-1],[-4,-2],[-7,-7],[5,-4],[6,-1],[5,3],[3,8],[6,0],[-5,-11],[-10,-8],[-5,-6],[10,-6],[-5,1],[-4,1],[-3,2],[-3,6],[-4,-16],[11,-18],[16,-18],[12,-15],[-1,-7],[9,-7],[22,-12],[44,-46],[27,-14],[6,15],[-7,24],[-15,11],[4,8],[-1,8],[-3,7],[-5,8],[-16,-11],[-4,0],[4,8],[0,8],[-2,6],[-7,4],[3,2],[12,3],[4,-9],[11,-2],[11,5],[9,6],[-4,-8],[-1,-9],[2,-10],[3,-9],[5,0],[10,20],[5,6],[5,0],[-9,-15],[-5,-16],[-1,-33],[6,-18],[13,-1],[15,9],[10,12],[-1,5],[-3,5],[-5,3],[-6,3],[10,8],[10,-7],[6,-15],[-6,-17],[-11,-13],[-15,-12],[-19,-6],[-19,5],[1,-14],[14,-22],[5,-15],[-1,-4],[-2,-5],[0,-5],[3,-7],[4,-3],[16,-7],[4,0],[9,13],[10,-2],[12,-7],[78,-28],[22,-11],[21,-15],[13,-17],[0,-6],[0,-16],[2,-4],[7,-2],[8,-3],[6,0],[3,8],[-2,5],[-9,18],[-10,69],[3,14],[9,5],[11,3],[12,7],[0,-5],[-1,-8],[27,-22],[9,-12],[-17,2],[1,-7],[86,-84],[13,-22],[7,-33],[0,-49],[5,-7],[30,-26],[50,-66],[9,-21],[2,-18],[-2,-39],[5,-15],[5,-6],[13,-12],[2,-5],[2,-11],[7,-13],[1,-10],[7,17],[1,13],[-8,32],[0,11],[9,23],[2,12],[-9,25],[-36,38],[-11,24],[5,0],[24,-38],[17,-9],[4,-7],[2,-8],[4,-11],[5,-9],[5,-5],[29,15],[5,0],[8,-7],[11,-6],[10,-1],[7,9],[4,0],[-4,-8],[-9,-6],[-10,-2],[-9,4],[-8,5],[-6,2],[-6,-2],[-8,-3],[-12,-8],[-7,-12],[-4,-16],[-1,-21],[4,0],[0,16],[6,-5],[0,15],[4,0],[4,-9],[1,-6],[5,0],[3,2],[8,3],[0,-5],[-6,0],[0,-5],[3,-5],[6,-4],[7,-2],[9,1],[0,-6],[-14,-1],[-12,6],[-10,3],[-8,-8],[0,-31],[4,-8],[8,-10],[2,-7],[-5,0],[-11,10],[-4,5],[-15,-10],[15,-21],[7,6],[10,5],[11,2],[7,-2],[5,0],[4,8],[2,12],[-1,26],[5,-8],[4,-2],[6,0],[-2,-6],[-3,-15],[5,5],[-1,-15],[1,-19],[5,-16],[20,-10],[8,-13],[7,-4],[7,2],[5,5],[1,7],[-3,6],[4,8],[1,3],[5,0],[-1,-3],[-4,-8],[7,-7],[23,-44],[-11,4],[-11,17],[-10,5],[-11,-2],[-10,-4],[-7,-7],[-5,-8],[-4,0],[-2,7],[-1,2],[-2,0],[-6,2],[5,-10],[11,-15],[5,-12],[2,-13],[1,-10],[2,-9],[9,-9],[5,4],[5,2],[10,5],[2,-11],[7,-19],[1,-12],[-5,0],[-9,10],[-21,-12],[-19,-20],[-6,-9],[0,-4],[6,-8],[-6,-5],[-8,-5],[-2,-8],[4,-1],[14,0],[5,-2],[3,-5],[2,-6],[0,-6],[2,-6],[4,-6],[-1350,0],[0,1112]],[[1310,99],[-4,10],[4,5],[-2,6],[-3,6],[-4,9],[0,9],[0,8],[0,8],[-9,19],[-6,5],[-7,-1],[-8,-7],[-1,3],[-2,4],[-2,3],[-5,-16],[0,-19],[5,-32],[0,-27],[2,-16],[8,-8],[-3,-7],[7,-3],[11,0],[10,4],[5,9],[3,14],[1,14]],[[1300,190],[8,16],[3,6],[0,5],[-3,6],[-8,13],[-4,7],[1,0],[1,3],[0,3],[-2,4],[-2,3],[-13,7],[-10,-11],[4,-14],[10,-14],[6,-12],[-2,-18],[0,-7],[7,-1],[4,4]],[[982,289],[-3,19],[2,7],[6,10],[-10,0],[0,5],[12,23],[-2,27],[-12,19],[-18,-2],[4,10],[1,9],[-2,9],[-3,8],[-7,3],[-4,-5],[-14,-54],[1,-8],[7,-17],[2,-7],[0,-9],[-1,-4],[-3,-4],[-6,-8],[24,-7],[6,-3],[4,-5],[6,-12],[5,-4],[5,0]],[[903,470],[12,5],[3,-1],[1,3],[1,9],[-6,0],[-14,1],[-7,6],[-4,-2],[2,-6],[-10,-6],[-3,0],[-3,1],[-3,-4],[0,-4],[2,-2],[1,2],[10,2],[6,-2],[5,-5],[5,-5],[1,-4],[1,-2],[3,7],[-3,7]],[[778,587],[-3,8],[-2,3],[0,4],[27,-9],[10,-1],[10,3],[1,6],[-1,9],[2,9],[23,-24],[12,-7],[10,4],[2,12],[-8,13],[-11,13],[-8,14],[-5,5],[0,5],[-9,6],[-7,11],[-8,19],[-8,10],[-9,9],[-23,17],[-13,0],[-20,5],[-12,0],[5,-3],[4,-3],[3,-4],[3,-5],[-10,0],[20,-49],[7,-8],[0,-46],[-2,-11],[0,-4],[6,-2],[5,-2],[5,-3],[4,-4]],[[2442,942],[7,-13],[5,-28],[-7,4],[-2,4],[1,6],[-2,7],[-8,9],[-3,3],[-4,3],[-29,16],[-9,7],[-13,15],[-6,8],[-3,8],[-5,9],[-13,3],[-15,2],[-12,4],[-4,-4],[-21,-6],[-6,3],[-33,9],[-25,14],[-15,10],[-8,4],[-19,3],[-28,7],[-8,3],[-12,13],[-27,43],[-6,4],[-1,2],[1,5],[1,6],[2,5],[-2,7],[-5,0],[-5,-2],[-3,2],[-3,9],[1,8],[6,19],[-14,5],[-2,9],[7,28],[-12,-6],[-6,6],[-7,21],[-10,-16],[-10,-5],[-13,-3],[-17,-8],[-8,10],[-1,5],[-1,6],[-17,-7],[-11,8],[-12,25],[-11,-8],[-12,7],[-10,14],[-7,12],[0,-5],[-8,1],[-9,6],[-7,9],[-6,10],[0,-3],[0,-1],[-2,-1],[-3,0],[5,-5],[-2,-4],[-2,-4],[-1,-6],[0,-7],[-8,9],[2,8],[5,9],[-4,10],[-9,5],[-9,-1],[-8,0],[-8,11],[-8,36],[-8,14],[-20,7],[3,6],[5,5],[5,3],[8,1],[0,6],[-22,13],[-15,18],[-10,24],[-6,48],[-10,30],[-2,11],[3,12],[8,12],[11,5],[46,-17],[17,-2],[15,5],[2,-5],[8,-10],[8,4],[9,-1],[9,-4],[9,-5],[10,3],[61,-20],[10,-7],[9,-7],[45,-53],[39,-111],[5,0],[26,-44],[3,-18],[26,-40],[7,-33],[5,-13],[10,-14],[12,-6],[16,-1],[82,15],[24,-3],[23,-17],[8,-10],[4,-10],[3,-12],[0,-18],[-3,-13],[-14,-22],[-3,-8],[6,-8],[10,-6],[10,-7],[5,-13],[-5,-6],[-11,-2],[-12,2],[-8,4],[2,-7],[2,-5],[6,-9],[5,0],[5,5],[9,5],[8,1],[3,-8],[3,-3],[5,9],[7,17],[6,0],[-4,-21],[1,-7],[20,-6],[12,-7],[10,-7],[5,-6],[2,-9],[4,-7],[0,-4],[-11,2],[-10,4],[-18,12],[-11,5],[6,-12],[11,-13],[13,-12],[11,-5],[16,-5]],[[0,1112],[54,-13],[50,-23],[18,-12],[8,1],[3,13],[7,8],[17,5],[32,5],[21,-5],[12,0],[8,-1],[4,1],[1,3],[-1,5],[2,5],[5,2],[30,-2],[15,1],[12,7],[7,10],[5,11],[8,11],[13,4],[45,-2],[12,-3],[19,-10],[16,-11],[13,-14],[12,-17],[4,-8],[2,-6],[3,-6],[6,-6],[6,-1],[6,1],[5,-2],[3,-13],[-15,5],[5,-11],[11,-11],[24,-19],[0,8],[-10,33],[2,4],[7,5],[1,4],[2,4],[3,-4],[3,-8],[2,-8],[0,-32],[9,3],[13,-1],[13,-5],[9,-11],[26,-38],[0,22],[2,10],[3,9],[-15,0],[-9,8],[-7,11],[-9,7],[0,5],[9,3],[31,2],[-15,-15],[3,-6],[37,0],[-4,-1],[-4,-2],[-7,-7],[5,-4],[6,-1],[5,3],[3,8],[6,0],[-5,-11],[-10,-8],[-5,-6],[10,-6],[-5,1],[-4,1],[-3,2],[-3,6],[-4,-16],[11,-18],[16,-18],[12,-15],[-1,-7],[9,-7],[22,-12],[44,-46],[27,-14],[6,15],[-7,24],[-15,11],[4,8],[-1,8],[-3,7],[-5,8],[-16,-11],[-4,0],[4,8],[0,8],[-2,6],[-7,4],[3,2],[12,3],[4,-9],[11,-2],[11,5],[9,6],[-4,-8],[-1,-9],[2,-10],[3,-9],[5,0],[10,20],[5,6],[5,0],[-9,-15],[-5,-16],[-1,-33],[6,-18],[13,-1],[15,9],[10,12],[-1,5],[-3,5],[-5,3],[-6,3],[10,8],[10,-7],[6,-15],[-6,-17],[-11,-13],[-15,-12],[-19,-6],[-19,5],[1,-14],[14,-22],[5,-15],[-1,-4],[-2,-5],[0,-5],[3,-7],[4,-3],[16,-7],[4,0],[9,13],[10,-2],[12,-7],[78,-28],[22,-11],[21,-15],[13,-17],[0,-6],[0,-16],[2,-4],[7,-2],[8,-3],[6,0],[3,8],[-2,5],[-9,18],[-10,69],[3,14],[9,5],[11,3],[12,7],[0,-5],[-1,-8],[27,-22],[9,-12],[-17,2],[1,-7],[86,-84],[13,-22],[7,-33],[0,-49],[5,-7],[30,-26],[50,-66],[9,-21],[2,-18],[-2,-39],[5,-15],[5,-6],[13,-12],[2,-5],[2,-11],[7,-13],[1,-10],[7,17],[1,13],[-8,32],[0,11],[9,23],[2,12],[-9,25],[-36,38],[-11,24],[5,0],[24,-38],[17,-9],[4,-7],[2,-8],[4,-11],[5,-9],[5,-5],[29,15],[5,0],[8,-7],[11,-6],[10,-1],[7,9],[4,0],[-4,-8],[-9,-6],[-10,-2],[-9,4],[-8,5],[-6,2],[-6,-2],[-8,-3],[-12,-8],[-7,-12],[-4,-16],[-1,-21],[4,0],[0,16],[6,-5],[0,15],[4,0],[4,-9],[1,-6],[5,0],[3,2],[8,3],[0,-5],[-6,0],[0,-5],[3,-5],[6,-4],[7,-2],[9,1],[0,-6],[-14,-1],[-12,6],[-10,3],[-8,-8],[0,-31],[4,-8],[8,-10],[2,-7],[-5,0],[-11,10],[-4,5],[-15,-10],[15,-21],[7,6],[10,5],[11,2],[7,-2],[5,0],[4,8],[2,12],[-1,26],[5,-8],[4,-2],[6,0],[-2,-6],[-3,-15],[5,5],[-1,-15],[1,-19],[5,-16],[20,-10],[8,-13],[7,-4],[7,2],[5,5],[1,7],[-3,6],[4,8],[1,3],[5,0],[-1,-3],[-4,-8],[7,-7],[23,-44],[-11,4],[-11,17],[-10,5],[-11,-2],[-10,-4],[-7,-7],[-5,-8],[-4,0],[-2,7],[-1,2],[-2,0],[-6,2],[5,-10],[11,-15],[5,-12],[2,-13],[1,-10],[2,-9],[9,-9],[5,4],[5,2],[10,5],[2,-11],[7,-19],[1,-12],[-5,0],[-9,10],[-21,-12],[-19,-20],[-6,-9],[0,-4],[6,-8],[-6,-5],[-8,-5],[-2,-8],[4,-1],[14,0],[5,-2],[3,-5],[2,-6],[0,-6],[2,-6],[4,-6]],[[2442,942],[7,-13],[5,-28],[-7,4],[-2,4],[1,6],[-2,7],[-8,9],[-3,3],[-4,3],[-29,16],[-9,7],[-13,15],[-6,8],[-3,8],[-5,9],[-13,3],[-15,2],[-12,4],[-4,-4],[-21,-6],[-6,3],[-33,9],[-25,14],[-15,10],[-8,4],[-19,3],[-28,7],[-8,3],[-12,13],[-27,43],[-6,4],[-1,2],[1,5],[1,6],[2,5],[-2,7],[-5,0],[-5,-2],[-3,2],[-3,9],[1,8],[6,19],[-14,5],[-2,9],[7,28],[-12,-6],[-6,6],[-7,21],[-10,-16],[-10,-5],[-13,-3],[-17,-8],[-8,10],[-1,5],[-1,6],[-17,-7],[-11,8],[-12,25],[-11,-8],[-12,7],[-10,14],[-7,12],[0,-5],[-8,1],[-9,6],[-7,9],[-6,10],[0,-3],[0,-1],[-2,-1],[-3,0],[5,-5],[-2,-4],[-2,-4],[-1,-6],[0,-7],[-8,9],[2,8],[5,9],[-4,10],[-9,5],[-9,-1],[-8,0],[-8,11],[-8,36],[-8,14],[-20,7],[3,6],[5,5],[5,3],[8,1],[0,6],[-22,13],[-15,18],[-10,24],[-6,48],[-10,30],[-2,11],[3,12],[8,12],[11,5],[46,-17],[17,-2],[15,5],[2,-5],[8,-10],[8,4],[9,-1],[9,-4],[9,-5],[10,3],[61,-20],[10,-7],[9,-7],[45,-53],[39,-111],[5,0],[26,-44],[3,-18],[26,-40],[7,-33],[5,-13],[10,-14],[12,-6],[16,-1],[82,15],[24,-3],[23,-17],[8,-10],[4,-10],[3,-12],[0,-18],[-3,-13],[-14,-22],[-3,-8],[6,-8],[10,-6],[10,-7],[5,-13],[-5,-6],[-11,-2],[-12,2],[-8,4],[2,-7],[2,-5],[6,-9],[5,0],[5,5],[9,5],[8,1],[3,-8],[3,-3],[5,9],[7,17],[6,0],[-4,-21],[1,-7],[20,-6],[12,-7],[10,-7],[5,-6],[2,-9],[4,-7],[0,-4],[-11,2],[-10,4],[-18,12],[-11,5],[6,-12],[11,-13],[13,-12],[11,-5],[16,-5]],[[962,4096],[0,-1],[1,-11],[-1,-5],[-12,-27],[-3,-4],[-8,11],[-1,37]],[[837,649],[0,5],[-9,6],[-7,11],[-8,19],[-8,10],[-9,9],[-23,17],[-13,0],[-20,5],[-12,0],[5,-3],[4,-3],[3,-4],[3,-5],[-10,0],[20,-49],[7,-8],[0,-46],[-2,-11],[0,-4],[6,-2],[5,-2],[5,-3],[4,-4],[-3,8],[-2,3],[0,4],[27,-9],[10,-1],[10,3],[1,6],[-1,9],[2,9],[23,-24],[12,-7],[10,4],[2,12],[-8,13],[-11,13],[-8,14],[-5,5]],[[957,397],[4,10],[1,9],[-2,9],[-3,8],[-7,3],[-4,-5],[-14,-54],[1,-8],[7,-17],[2,-7],[0,-9],[-1,-4],[-3,-4],[-6,-8],[24,-7],[6,-3],[4,-5],[6,-12],[5,-4],[5,0],[-3,19],[2,7],[6,10],[-10,0],[0,5],[12,23],[-2,27],[-12,19],[-18,-2]],[[1296,243],[1,0],[1,3],[0,3],[-2,4],[-2,3],[-13,7],[-10,-11],[4,-14],[10,-14],[6,-12],[-2,-18],[0,-7],[7,-1],[4,4],[8,16],[3,6],[0,5],[-3,6],[-8,13],[-4,7]],[[1301,135],[0,9],[0,8],[0,8],[-9,19],[-6,5],[-7,-1],[-8,-7],[-1,3],[-2,4],[-2,3],[-5,-16],[0,-19],[5,-32],[0,-27],[2,-16],[8,-8],[-3,-7],[7,-3],[11,0],[10,4],[5,9],[3,14],[1,14],[-4,10],[4,5],[-2,6],[-3,6],[-4,9]],[[2554,4042],[-5,-11]],[[2612,4096],[-5,-6],[-40,-28],[-9,-9],[-4,-11]],[[533,4096],[1,-25],[9,-12],[45,-22],[15,-3],[21,-15]],[[1787,4096],[-27,-46],[-33,-22],[-18,-9]],[[841,3982],[18,3]],[[2757,3982],[-6,18],[3,9],[-6,19],[9,25],[-9,25],[0,15],[-6,3]],[[624,4019],[27,-13],[27,-3],[18,3],[36,10],[76,-31],[33,-3]],[[1150,3976],[-3,-10]],[[1128,4096],[7,-28],[6,-25],[12,-55],[-3,-12]],[[859,3985],[18,0],[48,-7],[15,0],[9,-3],[21,0],[18,-6],[18,-9],[9,-6],[30,-3],[15,3]],[[1147,3966],[-3,-22]],[[1116,3950],[28,-6]],[[1060,3954],[21,3],[35,-7]],[[1661,3952],[-10,-8],[-12,-3]],[[1709,4019],[-9,-10],[-15,-27],[-18,-25],[-6,-5]],[[1144,3944],[-7,-24]],[[1137,3920],[-2,-7],[0,-15],[-12,-28]],[[1639,3941],[11,-11]],[[1650,3930],[10,-10],[13,-16],[18,-25],[3,-15]],[[2757,3982],[12,-4],[6,-6],[0,-15],[12,-9],[6,-13],[12,-12],[6,-22],[-9,-12],[15,-25],[6,-6]],[[1123,3870],[12,0],[30,-12],[27,-16],[18,-6],[12,-9],[18,-6],[39,-13],[30,-6],[12,-6]],[[1477,3774],[12,-15],[6,-3]],[[1458,3767],[19,7]],[[1321,3796],[21,-25],[18,-9],[45,-13],[15,10],[15,0],[23,8]],[[1694,3864],[21,-16],[0,-12],[6,-15],[-9,-16],[0,-15],[15,-19],[-3,-22],[9,-37],[15,-52]],[[1123,3870],[-60,-213]],[[1495,3756],[9,-5]],[[1504,3751],[3,-2],[24,-12],[36,-9],[18,-3],[27,-10],[33,-18],[28,-13],[36,-12],[39,-15]],[[1748,3660],[3,-3]],[[1748,3657],[3,0]],[[1757,3653],[27,7],[18,-7],[39,-6],[18,-9],[21,-3],[21,3],[18,6],[9,-3],[27,3]],[[1955,3644],[6,-3],[21,-22]],[[2823,3858],[6,-3],[3,-28],[15,-16],[30,-15],[21,-6],[30,-10],[9,-15],[15,-9],[24,-34],[21,-10],[15,-24],[18,-19],[9,-6],[6,-16],[30,-18],[9,-16],[6,-25]],[[2095,3485],[13,-11]],[[1982,3619],[21,-18],[30,-9],[12,-16],[15,-31],[3,-12],[9,-19],[21,-28],[2,-1]],[[1063,3657],[-12,-44],[-21,-74],[-33,-43],[0,-25]],[[2108,3474],[15,-16]],[[2123,3458],[4,-1]],[[2127,3457],[23,-11],[39,-43],[36,-37]],[[3090,3588],[12,-21],[9,-13],[27,-15],[6,-9],[48,-34],[21,-10],[15,-15],[21,-9],[18,-25],[24,-47],[3,-9],[21,-12],[6,-25]],[[3321,3344],[3,-22]],[[997,3471],[-51,-152]],[[946,3319],[-15,-43]],[[931,3276],[-15,-56],[-12,-28],[-12,-31],[-3,-21],[-12,-7],[-3,-12]],[[3267,3084],[9,12],[21,22],[21,15],[3,7],[0,12],[-6,19],[-15,18],[-12,28],[9,34],[-6,19],[12,15],[21,37]],[[2610,3074],[9,-6]],[[2225,3366],[39,-25],[15,-9],[9,-16],[18,-22],[36,-37],[15,-15],[15,-16],[18,-24],[18,-31],[9,-10],[33,-9],[24,-22],[18,-9],[24,6],[12,-3],[30,-18],[25,-16],[27,-16]],[[874,3121],[0,-9],[-9,-16],[-3,-15],[0,-16],[-3,-3]],[[3267,3084],[-3,-16],[-3,-12]],[[2619,3068],[3,-21]],[[3261,3056],[3,-9]],[[2634,3022],[-12,25]],[[2907,3047],[-15,0],[-18,-10],[-18,0],[-6,10],[-117,0],[-21,-6],[-75,-31]],[[2636,3013],[-2,9]],[[2637,3010],[-1,3]],[[3441,2991],[15,6],[25,-3],[33,3],[39,13],[12,-3],[12,6],[15,-6],[18,6],[15,-10],[18,-3]],[[3060,2969],[0,22],[6,16],[-3,12],[-27,0],[-3,-6],[-33,3],[-9,-16],[-9,-12],[-12,6],[-15,-3],[-27,0],[-9,3],[-6,19],[-6,34]],[[3372,2954],[18,3],[12,19],[39,15]],[[3264,3047],[9,-28],[18,-28],[3,-15],[12,-16],[12,-6],[24,0]],[[3342,2954],[30,0]],[[3643,3000],[21,-6],[24,3],[12,6],[30,7],[21,-10],[9,0],[42,-18],[12,-10],[24,-6],[15,-6],[18,0],[6,-9],[33,0],[24,15],[27,0],[18,10],[12,3],[9,9],[15,6]],[[2246,2951],[6,-6]],[[3210,2945],[-9,12],[-30,25],[-18,3],[-27,-9],[-51,-7],[-15,0]],[[3294,2945],[-12,3],[-60,-6],[-12,3]],[[3303,2938],[-9,7]],[[2252,2945],[9,-2]],[[2261,2943],[12,-1],[39,0],[57,-4],[54,0]],[[2615,3019],[1,0],[18,3]],[[2423,2938],[18,-3],[33,3],[21,0],[9,4],[18,18],[45,25],[48,34]],[[668,2905],[-8,-4]],[[859,3062],[-24,-12],[-15,-13],[-9,-12],[-6,-28],[-15,-18],[-6,-19],[-18,-15],[-25,-7],[-24,-15],[-45,-16],[-4,-2]],[[660,2901],[-33,-24],[-6,-13],[0,-15]],[[621,2849],[6,-7]],[[621,2849],[-9,-7],[-3,-6]],[[2252,2945],[2,-4]],[[2254,2941],[4,-9],[3,-28],[36,-58],[0,-19],[6,-19]],[[609,2836],[-99,-39]],[[510,2797],[-57,-23],[-18,-9],[-81,6]],[[4015,2994],[21,-12],[21,-22],[6,-22],[9,-9],[6,-40],[0,-9],[3,-13],[-3,-12],[0,-16],[-3,-12],[-18,-25],[-9,-21],[-15,-22],[12,-19]],[[4045,2740],[15,-9]],[[3441,2709],[0,13],[-3,12],[-15,16],[-15,37],[6,25],[-3,21],[-15,34],[-6,13],[0,27],[-15,38],[-3,9]],[[627,2842],[6,-6],[27,-34],[20,-25]],[[680,2777],[1,-3],[9,-15],[3,-9],[-12,-28],[-6,-25],[-3,-25]],[[2303,2808],[30,-46],[3,-15],[15,-38],[39,-37],[30,-18],[9,-19]],[[2267,2629],[57,3],[33,0],[48,-3],[18,3],[6,3]],[[4096,2635],[-9,-3],[-24,-12]],[[4060,2731],[-9,-34],[-3,-40],[12,-16],[3,-21]],[[672,2672],[21,10],[18,-7],[12,0],[15,7],[28,12],[18,-3],[21,-9],[30,-7],[27,-9],[39,-9],[39,-13],[18,-6],[45,-15],[45,-13],[21,7]],[[2165,2607],[72,19],[30,3]],[[101,2622],[1,1],[0,1]],[[115,2643],[18,15]],[[335,2766],[7,1]],[[0,2596],[45,5],[30,9],[26,12]],[[102,2624],[6,14],[7,5]],[[133,2658],[11,8],[18,16],[21,-4],[9,4],[9,15],[0,15],[9,10],[12,21],[18,7],[18,-3],[77,19]],[[342,2767],[3,1],[9,3]],[[1129,2589],[-60,28]],[[1573,2592],[0,-6]],[[1147,2586],[-18,3]],[[1886,2586],[24,0],[33,0],[33,6],[21,6],[24,3],[60,-3],[15,0],[69,9]],[[1808,2582],[33,-3],[45,7]],[[1336,2576],[-39,6],[-36,4],[-33,-10],[-27,3],[-54,7]],[[1573,2586],[21,6],[45,-13],[58,-6],[39,9],[9,4],[27,3],[21,-3],[15,-4]],[[1573,2592],[-24,-3],[-21,-10],[-36,-6],[-12,6],[-12,13],[-30,3],[-24,-3],[-15,-10],[-15,-3],[-30,-3],[-18,0]],[[3402,2366],[-6,34],[-12,25],[-6,18],[-3,44],[0,34],[3,15],[0,25],[3,12],[9,31],[6,28],[6,9],[21,22],[6,9],[12,37]],[[3402,2282],[3,10],[-3,18],[0,56]],[[0,2247],[24,-14],[12,-6],[18,0],[24,-7]],[[3721,2452],[-9,-9],[0,-12],[-9,-25],[0,-12],[15,-28],[3,-25],[12,-28],[0,-12],[6,-19],[6,-6],[2,-2]],[[3804,2503],[-23,-20],[-9,-18],[-12,-6],[-2,-1]],[[3845,2551],[-19,-3],[-18,-9],[-3,-12],[12,-10],[-3,-6],[-8,-6]],[[3758,2458],[-32,-5]],[[3806,2505]],[[3758,2267],[14,-10],[1,-1]],[[3726,2453],[-5,-1]],[[3747,2274],[11,-7]],[[3773,2256],[5,-11],[-6,-15],[-15,-16]],[[3806,2505],[-2,-2]],[[4063,2620],[-9,-10],[-12,7],[-9,0],[-3,15],[-15,0],[-12,-6],[-12,-13],[-15,-6],[0,-6],[-27,-9],[-18,-3],[-9,-13],[-27,-15],[-6,0],[-12,9],[-21,-6],[-6,-12],[-5,-1]],[[3372,2205],[-3,9],[12,25],[21,43]],[[3375,2202],[-3,3]],[[83,2149],[-4,30]],[[79,2179],[-1,10],[0,31]],[[84,2146],[-1,3]],[[78,2220],[36,-3],[18,0],[33,-3],[18,-9],[12,-16],[0,-15],[6,-6],[6,-3],[21,0],[24,-13],[18,-3],[30,-9],[27,-22],[9,0]],[[424,2374],[8,-5],[1,-4]],[[442,2357],[8,-4],[9,-13]],[[478,2273],[2,-3],[-2,-5]],[[375,2112]],[[441,2205],[-3,-3],[-27,-28],[-3,-3]],[[609,2836],[-3,-37],[0,-6]],[[408,2171],[-6,-6],[-9,-25],[-18,-28]],[[606,2793],[0,-37],[-12,-31],[-9,-34],[-15,-31],[-6,-37],[-6,-53],[-27,-31],[-3,-6],[-3,-22],[-9,-12],[-27,-25],[-15,-25],[-12,-3],[-12,-9],[0,-9],[3,-19],[0,-6],[-27,-19],[-3,-9],[1,-1]],[[433,2365],[2,-5],[7,-3]],[[478,2265],[-10,-29],[-12,-13],[-15,-18]],[[459,2340],[9,-14],[3,-13],[-3,-21],[10,-19]],[[343,2118],[17,0],[15,-6]],[[336,2118],[7,0]],[[3532,2041],[6,6],[-9,9],[-12,0],[-30,10],[-6,6],[-10,25],[-30,27],[-21,19],[-24,19],[-6,6],[-15,34]],[[375,2112],[4,-1]],[[379,2111],[95,-33],[15,-22],[12,-6],[18,-3],[15,-9],[30,-16],[36,-25],[21,-15]],[[621,1982],[51,-15],[60,-22],[15,9],[34,-9],[36,-13],[30,-9],[45,-18],[15,-10]],[[1471,1827],[36,-9],[60,-6],[12,-3]],[[907,1895],[48,-21],[12,-3],[24,-10],[66,-12],[51,-9],[21,-7],[51,-21],[30,-3],[15,0],[27,0]],[[1252,1809],[9,0],[12,12],[27,3],[36,16],[15,0],[24,-3],[15,-7],[21,0],[30,0],[30,-3]],[[1579,1809],[36,-19]],[[3447,1775],[9,12],[18,19],[34,21],[6,22],[0,9],[9,31],[0,19],[3,9],[15,19],[-3,18],[-9,13],[6,15],[-9,25],[0,25],[6,9]],[[1291,1731],[3,25],[-3,6],[-21,10],[-6,9],[-12,28]],[[3517,1694],[-6,6],[-21,13],[-16,15],[-9,6],[-21,3],[-6,10],[-3,18]],[[3517,1694],[21,13],[33,-7],[12,-6],[12,-9],[12,-3],[12,-10],[21,-3],[6,10],[18,3],[24,28],[18,12],[15,34],[15,16],[6,9],[15,12],[12,6],[12,10],[12,15],[15,3],[33,-3],[18,-12],[12,0],[18,6],[39,-25],[24,-12],[9,-3],[18,9],[9,9],[18,6],[9,-3],[18,7],[24,12],[15,0],[18,6],[6,5]],[[2712,1982],[9,-15],[-3,-10],[-3,-28],[0,-18],[3,-16],[0,-9],[3,-22],[9,-15],[15,-22],[3,-55],[0,-41],[-9,-28],[0,-18],[9,-22]],[[1615,1790],[175,-83],[108,-65]],[[1898,1642],[9,-7],[36,-3]],[[2733,1617],[9,25],[6,21]],[[1339,1577],[-12,30],[-21,28],[-15,34],[-3,34],[3,28]],[[1943,1632],[60,-6],[81,-71],[9,0]],[[2093,1555],[6,-6]],[[1432,1437],[-9,10],[-48,3],[3,9],[-12,12],[-3,16],[-3,31],[-3,15],[-9,16],[-9,28]],[[1504,1369],[-6,19],[-6,6],[-12,3],[-12,15],[-21,0],[-15,25]],[[1546,1292],[-9,21],[-18,41],[-15,15]],[[3517,1694],[0,-15],[6,-31],[15,-41],[3,-27],[3,-13],[9,-15],[3,-22],[0,-25],[9,-24],[12,-13],[9,-28],[12,-18],[-9,-44],[-6,-24],[0,-19],[6,-19],[12,-24],[3,-16],[0,-9]],[[2712,1406],[-9,22],[3,19],[18,21],[30,16],[6,9],[3,15],[-3,16],[-6,22],[-18,31],[2,20]],[[2664,1186],[27,28],[0,56],[3,28],[0,34],[-3,15],[3,4],[3,34],[15,21]],[[2738,1597],[1,4],[-6,16]],[[2099,1549],[9,-7],[24,-6],[21,-12],[15,-16],[27,-18],[33,-16],[24,-15],[24,-22],[24,0],[51,-40],[30,0],[33,-31],[6,-40],[63,-90],[15,0],[57,-12],[28,-13],[12,0],[21,3],[36,-18],[12,-10]],[[3604,1267],[-12,-9],[-3,-28],[-12,-13],[-3,-12],[-15,-15],[-12,-16],[-15,-9],[-18,-3],[-21,-13],[-16,-15]],[[2664,1186],[-12,-34],[6,-15],[9,-16]],[[330,1214],[30,-3],[33,10],[9,-4],[42,-18],[21,-19],[27,-15],[27,-6],[12,-7],[27,-40],[12,-12]],[[0,1131],[21,-3],[27,-10],[27,-12]],[[283,1204],[14,10],[16,0]],[[75,1106],[15,-6],[33,-3],[15,3],[27,15],[33,19],[24,22],[9,12],[30,22],[12,6],[10,8]],[[313,1214],[17,0]],[[606,1088],[12,-4],[27,-6],[3,-3]],[[570,1100],[36,-12]],[[1847,1072],[-33,19],[-54,18],[-15,9],[-12,16],[-15,12],[-24,6],[-52,10],[-6,3],[-33,31],[-27,37],[-18,25],[-12,34]],[[1943,1019],[-9,0],[-48,25],[-39,28]],[[1979,1010],[-36,9]],[[2156,1010],[-78,0],[-78,0],[-21,0]],[[2667,1121],[9,-9],[27,0],[21,-21],[15,-13],[27,-37],[21,-6],[33,-37]],[[3477,1134],[7,-37],[3,-44],[-3,-9],[-13,-18],[-3,-10],[13,-18],[3,-19]],[[2820,998],[24,-25],[12,-37],[6,-13],[18,-15],[15,-22],[24,-28],[12,-12]],[[3757,827],[-2,1]],[[3755,828],[-22,6],[-12,0],[-15,-7],[-15,0],[-9,7],[-3,12],[-27,22],[-15,40],[-12,25],[-9,9],[-24,6],[-12,19],[-12,3],[-18,0],[-39,12],[-27,-3]],[[2931,846],[3,-31]],[[919,809],[-6,5]],[[650,1073],[-2,2]],[[913,814],[-12,13],[-15,31],[-33,34],[-9,7],[-15,0],[-6,9],[-18,6],[-18,22],[-24,28],[-28,6],[-15,-6],[-9,6],[-21,0],[-15,12],[-3,16],[-6,6],[-3,12],[0,34],[-3,10],[-10,13]],[[2480,796],[-9,10],[-12,6],[-15,0],[-6,3],[-27,34],[-24,22],[-30,25],[-9,15],[-9,25],[-6,6],[-21,19],[-21,9],[-18,-3],[-81,37],[-21,6],[-15,0]],[[2934,815],[12,-25],[18,-37]],[[3788,746],[2,4],[-3,12],[-15,28],[0,16],[-3,12],[-12,9]],[[3784,735],[4,11]],[[4096,698],[-18,6],[-24,-16],[-12,3],[-27,16],[-18,3],[-27,9],[-18,-3],[-21,-12],[-51,-3],[-15,3],[-9,-10],[-12,13],[-15,28],[-15,-7],[-12,13],[-5,-2]],[[3797,739],[-13,-4]],[[3772,666],[-3,10],[15,59]],[[2964,753],[15,-34],[3,-31],[9,-34]],[[2528,617],[-3,28],[-12,31],[-12,28],[-15,18],[-3,19],[0,18],[3,28],[-6,9]],[[3060,611],[-6,6],[-48,31],[-15,6]],[[3084,598],[-24,13]],[[2522,577],[6,40]],[[3084,598],[30,-12],[21,-3],[6,-3],[12,-13]],[[2522,577],[-6,-31],[3,-13],[9,-24],[12,-28]],[[2577,493],[-19,-6],[-9,-6]],[[2540,481],[9,0]],[[3592,484],[30,-9],[12,3],[21,-3],[15,12],[9,15],[9,19],[6,6],[12,3],[15,13],[12,15],[9,34],[12,22],[3,34],[15,18]],[[3153,567],[18,-9],[15,-3],[30,-3],[84,-46],[9,-13],[9,-6],[18,0],[36,-19]],[[3372,468],[39,-24]],[[3411,444],[21,3],[24,12],[18,-6],[19,3],[15,3],[27,0],[30,22],[27,3]],[[919,809],[17,9]],[[936,818],[7,3],[24,-12],[33,0],[3,-3],[12,-19],[18,-18],[3,-16],[9,-18],[12,-47],[45,-40],[6,-19],[3,-31],[12,-21],[3,-25],[12,-16],[18,-40],[21,-28],[6,-6],[9,-18]],[[2613,376],[-12,34],[-3,31],[-15,37],[-6,15]],[[3411,444],[15,-16],[6,-15],[3,-31],[9,-10]],[[2664,304],[-5,19]],[[2659,323],[-1,9],[-15,16],[-12,3],[-9,9],[-9,16]],[[3153,567],[-12,-27],[-15,-22],[0,-34],[-12,-3],[-24,-28],[-21,-31],[-6,-28],[-18,-18],[-6,-16],[0,-19],[0,-30],[0,-13]],[[2667,295],[-3,9]],[[1441,304],[-9,0],[-21,-9],[-27,0],[-12,-6],[-15,0],[-24,9],[-12,-3],[-3,16],[-3,9],[-33,6],[-15,15]],[[2673,280],[-6,15]],[[2667,295],[-6,-3],[-15,0]],[[2646,292],[-6,0],[-15,-12],[-18,-10]],[[3444,372],[6,-6],[-3,-15],[12,-40],[6,-41]],[[2694,270],[0,-3]],[[2694,267],[-9,3],[-12,10]],[[2471,236],[42,13],[45,9],[22,9],[27,3]],[[2673,265],[0,15]],[[2688,218],[-12,21],[-3,13],[0,13]],[[2471,236],[-33,-6],[-21,-6],[-18,0],[-27,-9]],[[2649,196],[18,0],[12,15],[9,7]],[[2372,215],[-12,-10],[-12,-15]],[[2348,190],[-42,-16],[-15,-6],[-21,-22],[-30,-21],[-21,-13]],[[3039,298],[-12,-15],[-18,-13],[-24,-21],[-12,-19],[9,-15],[3,-16],[-3,-28],[-21,-46],[-15,-6],[-6,-7]],[[3084,598],[0,-24],[-6,-16],[-12,-18],[-15,-10],[-15,-3],[-21,3],[-18,16],[-48,6],[-9,0],[-12,-9],[-9,-3],[-12,6],[-21,3],[-18,9],[-21,-18],[-12,-31],[-9,-16],[-15,-6],[-57,3],[-9,-6],[0,-9],[6,-25],[0,-16],[-27,-28],[-9,-30],[-12,-41],[-3,-15],[6,-19],[6,-9],[27,-3],[18,-6],[36,-16],[39,-21],[12,-10],[18,-9],[12,-12],[18,-4],[9,-12],[15,-22],[15,-34],[9,-31]],[[3465,270],[6,-18],[3,-6],[0,-13],[13,-46],[9,-41],[24,-21],[9,-19]],[[3529,106],[9,-15]],[[2694,267],[6,0]],[[2700,267],[9,0],[9,-3],[15,0],[21,-12],[30,-13],[9,3],[15,-15],[24,-9],[12,-13],[33,-18],[21,-16],[9,-21],[0,-25],[3,-19],[9,-25]],[[2940,112],[3,-46]],[[1472,136],[-4,10],[-18,19],[-6,19],[6,12],[-6,6],[0,25],[9,43],[-3,16],[-9,18]],[[1556,9],[-7,11],[-3,12],[-11,12]],[[1535,44],[-1,0],[-21,7],[-21,27],[-6,3],[0,16],[-9,15],[0,10],[-5,13]],[[1566,0],[-5,1],[-4,7]],[[1472,135],[0,1]],[[1557,8],[-1,1]],[[1710,0],[-7,4],[-18,0],[-18,3],[-19,9],[-15,0],[-18,-16]],[[2943,66],[18,-9],[21,-19],[24,-28],[20,-10]],[[3538,91],[9,-16],[3,-15],[9,-6],[18,-19],[6,-25],[18,-3],[11,-7]],[[2219,112],[-66,-40],[-60,-43],[-27,-13],[-33,-9],[-9,-3],[-5,-4]],[[2569,0],[1,10],[4,13],[18,24],[21,34],[3,16],[15,25],[0,12],[-3,25],[12,34],[9,3]],[[1270,179],[1,-3],[8,7],[7,1],[6,-5],[9,-19],[0,-8],[0,-8],[0,-9],[4,-9],[3,-6],[2,-6],[-4,-5],[4,-10],[-1,-14],[-3,-14],[-5,-9],[-10,-4],[-11,0],[-7,3],[3,7],[-8,8],[-2,16],[0,27],[-5,32],[0,19],[5,16],[2,-3],[2,-4]],[[1300,190],[-4,-4],[-7,1],[0,7],[2,18],[-6,12],[-10,14],[-4,14],[10,11],[13,-7],[2,-3],[2,-4],[0,-3],[-1,-3],[-1,0],[4,-7],[8,-13],[3,-6],[0,-5],[-3,-6],[-8,-16]],[[961,407],[-4,-10],[18,2],[12,-19],[2,-27],[-12,-23],[0,-5],[10,0],[-6,-10],[-2,-7],[3,-19],[-5,0],[-5,4],[-6,12],[-4,5],[-6,3],[-24,7],[6,8],[3,4],[1,4],[0,9],[-2,7],[-7,17],[-1,8],[14,54],[4,5],[7,-3],[3,-8],[2,-9],[-1,-9]],[[740,731],[20,-5],[13,0],[23,-17],[9,-9],[8,-10],[8,-19],[7,-11],[9,-6],[0,-5],[5,-5],[8,-14],[11,-13],[8,-13],[-2,-12],[-10,-4],[-12,7],[-23,24],[-2,-9],[1,-9],[-1,-6],[-10,-3],[-10,1],[-27,9],[0,-4],[2,-3],[3,-8],[-4,4],[-5,3],[-5,2],[-6,2],[0,4],[2,11],[0,46],[-7,8],[-20,49],[10,0],[-3,5],[-3,4],[-4,3],[-5,3],[12,0]],[[0,4096],[4096,0],[0,-4096],[-481,0],[-2265,0],[-4,6],[-2,6],[0,6],[-2,6],[-3,5],[-5,2],[-14,0],[-4,1],[2,8],[8,5],[6,5],[-6,8],[0,4],[6,9],[19,20],[21,12],[9,-10],[5,0],[-1,12],[-7,19],[-2,11],[-10,-5],[-5,-2],[-5,-4],[-9,9],[-2,9],[-1,10],[-2,13],[-5,12],[-11,15],[-5,10],[6,-2],[2,0],[1,-2],[2,-7],[4,0],[5,8],[7,7],[10,4],[11,2],[10,-5],[11,-17],[11,-4],[-23,44],[-7,7],[4,8],[1,3],[-5,0],[-1,-3],[-4,-8],[3,-6],[-1,-7],[-5,-5],[-7,-2],[-7,4],[-8,13],[-20,10],[-5,16],[-1,19],[1,15],[-5,-5],[3,15],[2,6],[-6,0],[-4,2],[-5,8],[1,-26],[-2,-12],[-4,-8],[-5,0],[-7,2],[-11,-2],[-10,-5],[-7,-6],[-15,21],[15,10],[4,-5],[11,-10],[5,0],[-2,7],[-8,10],[-4,8],[0,31],[8,8],[10,-3],[12,-6],[14,1],[0,6],[-9,-1],[-7,2],[-6,4],[-3,5],[0,5],[6,0],[0,5],[-8,-3],[-3,-2],[-5,0],[-1,6],[-4,9],[-4,0],[0,-15],[-6,5],[0,-16],[-4,0],[1,21],[4,16],[7,12],[12,8],[8,3],[6,2],[6,-2],[8,-5],[9,-4],[10,2],[9,6],[4,8],[-4,0],[-7,-9],[-10,1],[-11,6],[-8,7],[-5,0],[-29,-15],[-5,5],[-5,9],[-4,11],[-2,8],[-4,7],[-17,9],[-24,38],[-5,0],[11,-24],[36,-38],[9,-25],[-2,-12],[-9,-23],[0,-11],[8,-32],[-1,-13],[-7,-17],[-1,10],[-7,13],[-2,11],[-2,5],[-13,12],[-5,6],[-5,15],[2,39],[-2,18],[-9,21],[-50,66],[-30,26],[-5,7],[0,49],[-7,33],[-13,22],[-86,84],[-1,7],[17,-2],[-9,12],[-27,22],[1,8],[0,5],[-12,-7],[-11,-3],[-9,-5],[-3,-14],[10,-69],[9,-18],[2,-5],[-3,-8],[-6,0],[-8,3],[-7,2],[-2,4],[0,16],[0,6],[-13,17],[-21,15],[-22,11],[-78,28],[-12,7],[-10,2],[-9,-13],[-4,0],[-16,7],[-4,3],[-3,7],[0,5],[2,5],[1,4],[-5,15],[-14,22],[-1,14],[19,-5],[19,6],[15,12],[11,13],[6,17],[-6,15],[-10,7],[-10,-8],[6,-3],[5,-3],[3,-5],[1,-5],[-10,-12],[-15,-9],[-13,1],[-6,18],[1,33],[5,16],[9,15],[-5,0],[-5,-6],[-10,-20],[-5,0],[-3,9],[-2,10],[1,9],[4,8],[-9,-6],[-11,-5],[-11,2],[-4,9],[-12,-3],[-3,-2],[7,-4],[2,-6],[0,-8],[-4,-8],[4,0],[16,11],[5,-8],[3,-7],[1,-8],[-4,-8],[15,-11],[7,-24],[-6,-15],[-27,14],[-44,46],[-22,12],[-9,7],[1,7],[-12,15],[-16,18],[-11,18],[4,16],[3,-6],[3,-2],[4,-1],[5,-1],[-10,6],[5,6],[10,8],[5,11],[-6,0],[-3,-8],[-5,-3],[-6,1],[-5,4],[7,7],[4,2],[4,1],[-37,0],[-3,6],[15,15],[-31,-2],[-9,-3],[0,-5],[9,-7],[7,-11],[9,-8],[15,0],[-3,-9],[-2,-10],[0,-22],[-26,38],[-9,11],[-13,5],[-13,1],[-9,-3],[0,32],[-2,8],[-3,8],[-3,4],[-2,-4],[-1,-4],[-7,-5],[-2,-4],[10,-33],[0,-8],[-24,19],[-11,11],[-5,11],[15,-5],[-3,13],[-5,2],[-6,-1],[-6,1],[-6,6],[-3,6],[-2,6],[-4,8],[-12,17],[-13,14],[-16,11],[-19,10],[-12,3],[-45,2],[-13,-4],[-8,-11],[-5,-11],[-7,-10],[-12,-7],[-15,-1],[-30,2],[-5,-2],[-2,-5],[1,-5],[-1,-3],[-4,-1],[-8,1],[-12,0],[-21,5],[-32,-5],[-17,-5],[-7,-8],[-3,-13],[-8,-1],[-18,12],[-50,23],[-54,13],[0,2984]],[[1310,33],[17,47],[55,26],[-38,26],[-20,54],[48,28],[130,-102],[50,-103],[40,-9],[-244,0],[-38,33]],[[717,746],[55,-1],[91,-84],[19,-61],[48,0],[-80,-90],[-2,-68],[-39,0],[0,68],[-90,138],[-2,98]],[[799,592],[9,-4],[14,4],[-4,25],[22,-8],[-5,45],[-14,17],[8,-27],[-24,12],[-4,-34],[18,-25],[-20,-5]],[[743,698],[15,-62],[8,0],[5,26],[-28,36]],[[768,721],[27,-21],[14,-34],[-2,35],[-39,20]],[[760,607],[14,-20],[13,12],[-6,15],[-21,-7]],[[739,716],[6,-6],[21,-10],[-11,18],[-16,-2]],[[847,593],[13,-10],[5,0],[-6,10],[-12,0]],[[1164,536],[7,32],[63,16],[-6,31],[56,-5],[18,30],[-7,-22],[18,13],[1,-17],[3,-2],[4,34],[30,-43],[29,1],[43,37],[-24,62],[48,50],[-11,52],[19,27],[30,-10],[57,57],[136,-39],[43,-127],[38,-14],[8,-68],[40,37],[58,3],[47,-162],[-20,-11],[10,-143],[6,6],[70,-82],[35,28],[36,-97],[-8,-41],[-47,-19],[-8,-64],[52,-73],[-125,-13],[-26,40],[-43,11],[-16,85],[-6,-45],[-28,19],[-18,-60],[-104,9],[43,37],[-9,33],[-54,27],[-3,98],[-80,0],[-12,-33],[-87,-10],[60,81],[-43,75],[-33,-23],[-122,66],[-47,0],[-32,-33],[-9,4],[-8,57],[-72,98]],[[1429,626],[11,-74],[22,-15],[-33,89]],[[1462,537],[-16,-48],[16,48]],[[1517,439],[-2,-34],[2,34]],[[1570,399],[1,-28],[-1,28]],[[1701,475],[4,-4],[-2,5],[-2,-1]],[[1729,410],[-4,-31],[10,17],[-6,14]],[[1720,368],[-54,-27],[49,19],[5,8]],[[1666,341],[63,-84],[2,1],[-65,83]],[[4096,2354],[0,-164],[-6,-4],[-35,83],[17,-85],[-112,-80],[-8,47],[-145,121],[-24,-21],[-28,12],[26,40],[-14,109],[82,110],[18,-36],[38,5],[13,-41],[81,-11],[78,-102],[19,17]],[[3070,3426],[25,18],[40,-15],[59,-72],[0,-14],[-8,-52],[-24,-40],[-3,-67],[-20,-17],[-51,-10],[54,15],[-54,-11],[21,43],[40,3],[-40,58],[45,-14],[9,19],[-29,45],[-57,24],[37,22],[-44,65]],[[3169,3278],[3,0],[14,16],[-1,18],[-16,-34]],[[3179,3321],[8,-4],[3,18],[-6,4],[-5,-18]],[[3086,3433],[7,-1],[0,8],[-5,-2],[-2,-5]],[[3187,3356],[1,-11],[5,0],[0,9],[-6,2]],[[270,4096],[76,0],[-28,-55],[-49,8],[1,47]],[[128,4096],[121,0],[-1,-40],[-107,-49],[17,3],[5,-33],[-91,-102],[-54,31],[43,36],[-3,92],[56,31],[0,-9],[14,40]],[[115,4011],[0,-8],[4,1],[-4,7]],[[0,2517],[25,31],[74,-56],[174,-27],[66,-73],[92,2],[-16,-18],[32,-27],[19,-102],[-115,-8],[-40,-26],[4,-28],[-65,69],[-103,-16],[-24,47],[-68,-6],[-28,31],[25,7],[-8,23],[50,-6],[-79,60],[10,-55],[-22,10],[8,-22],[-11,-6],[0,196]],[[2778,2333],[28,88],[65,-23],[75,128],[46,-1],[13,-28],[62,51],[-1,29],[54,0],[-6,-57],[-71,-90],[-79,-14],[-67,-48],[-38,9],[-48,-98],[-33,54]],[[271,1597],[83,-14],[20,57],[38,0],[-33,137],[26,11],[11,-38],[51,-19],[56,19],[15,-129],[76,-50],[-116,-97],[-19,22],[-16,-18],[-14,23],[-59,2],[-45,-26],[28,-117],[-50,21],[-11,67],[-39,14],[0,47],[45,5],[-24,9],[-23,74]],[[3327,310],[47,58],[61,-24],[-33,-70],[44,-30],[-52,-10],[-5,30],[-62,46]],[[2910,1711],[50,99],[93,-22],[20,29],[-90,69],[65,48],[146,-39],[14,37],[45,-19],[-53,-58],[10,-146],[167,-125],[-3,-248],[-29,0],[-1,-25],[-39,9],[6,-42],[-22,0],[53,-102],[-19,-50],[-184,49],[12,101],[50,16],[-170,184],[-46,14],[12,122],[-28,1],[28,30],[0,55],[34,-9],[6,18],[-127,4]],[[1958,1904],[19,24],[53,-43],[33,3],[107,-75],[6,-38],[-48,-48],[-41,12],[-80,93],[9,29],[-49,13],[-9,30]],[[101,3428],[60,177],[154,-8],[1,-21],[-59,-55],[-37,1],[2,-21],[-30,1],[-2,22],[-47,-18],[-11,-63],[-31,-15]],[[743,4096],[31,0],[-101,-71],[-30,31],[23,40],[49,0],[-3,-10],[31,10]],[[2281,1535],[74,147],[34,3],[154,-32],[30,16],[165,-72],[73,27],[25,-37],[59,0],[32,-69],[-25,-9],[13,-25],[-44,-49],[-13,-76],[-92,14],[-16,35],[-45,-2],[-58,45],[-45,-19],[-40,92],[-37,-61],[-74,40],[-34,-24],[-35,24],[-52,-16],[9,54],[-58,-6]],[[893,1167],[20,10],[8,-62],[94,-41],[98,-132],[-42,-63],[-27,-10],[10,28],[-28,8],[49,15],[-24,11],[-1,53],[-42,-13],[-18,14],[22,5],[-29,18],[14,25],[-35,15],[30,14],[-88,39],[-11,66]],[[2681,338],[24,-50],[-8,-34],[-57,25],[33,75],[8,-16]],[[942,796],[-26,7],[-7,26],[26,-7],[7,-26]],[[667,1088],[-39,-33],[-26,25],[16,33],[49,-25]],[[0,1170],[78,-36],[-6,-44],[-72,22],[0,58]],[[0,1535],[20,-23],[-20,-9],[0,32]],[[84,1646],[-21,8],[-3,26],[26,-12],[-2,-22]],[[84,1855],[4,-43],[-4,-15],[-40,50],[40,8]],[[238,2038],[-1,26],[33,8],[-18,-32],[-14,-2]],[[116,1588],[41,-17],[-8,-16],[-53,10],[-4,23],[24,0]],[[0,1598],[19,1],[33,22],[-33,-50],[-19,27]],[[291,1231],[24,-8],[-12,-43],[-25,30],[13,21]],[[0,1249],[19,-11],[-19,-21],[0,32]],[[381,2110],[3,-18],[-25,5],[-24,33],[46,-20]],[[79,2179],[35,-1],[-14,-31],[-36,4],[15,28]],[[448,2197],[-14,-28],[-34,3],[16,58],[32,-33]],[[130,2659],[29,-7],[-34,-47],[-41,0],[32,34],[-16,41],[30,-21]],[[1662,2764],[-25,3],[-8,22],[21,1],[12,-26]],[[335,2764],[0,24],[8,17],[22,-25],[-30,-16]],[[0,2990],[36,-26],[40,75],[-8,-25],[40,-67],[-91,-6],[-17,49]],[[2624,3089],[41,-42],[-37,-44],[-40,47],[36,39]],[[2257,2940],[-45,7],[66,39],[15,-22],[-36,-24]],[[675,2905],[3,-48],[25,-20],[-28,-73],[-33,50],[-31,-24],[-44,27],[-10,-21],[29,-14],[-26,-18],[-23,33],[-32,0],[113,67],[24,41],[33,0]],[[1403,2847],[-60,1],[-13,7],[40,19],[33,-27]],[[764,3339],[-22,22],[30,20],[-1,-25],[-7,-17]],[[780,3389],[-41,25],[10,13],[29,-16],[2,-22]],[[2120,3438],[-22,26],[-8,50],[41,-46],[-11,-30]],[[1516,3781],[-19,-46],[-46,21],[11,17],[54,8]],[[2533,4015],[6,30],[29,-6],[-20,-22],[-15,-2]],[[1160,3974],[24,-1],[16,-50],[-54,-16],[-33,47],[18,26],[29,-6]],[[1665,3940],[-23,-15],[-29,14],[44,23],[8,-22]],[[1239,280],[57,36],[24,-28],[-11,31],[-50,12],[-12,39],[38,40],[47,0],[122,-66],[33,23],[43,-75],[-58,-52],[-2,-29],[87,10],[12,33],[80,0],[-5,-74],[25,-52],[-49,-21],[-26,-72],[25,-25],[-67,-1],[-50,103],[-126,100],[-89,-29],[-48,97]],[[1878,621],[91,37],[-23,50],[23,48],[64,24],[30,-62],[29,1],[36,76],[27,-2],[40,-69],[52,-7],[6,-47],[-34,-13],[45,-50],[-52,-68],[-95,-24],[9,-54],[-29,-31],[20,-88],[-139,-63],[-83,105],[-3,114],[20,11],[-34,112]],[[1058,746],[17,144],[44,37],[-49,58],[52,21],[23,-20],[47,104],[27,7],[9,-63],[88,12],[139,-102],[6,-121],[-25,-18],[11,-52],[-46,-44],[7,-70],[-53,-37],[-34,44],[0,-33],[-8,18],[-18,-14],[7,23],[-15,-29],[-59,4],[2,-35],[-59,-12],[4,-72],[30,-31],[-52,44],[-46,163],[-49,74]],[[2034,2216],[62,6],[-21,64],[66,1],[9,47],[26,10],[116,-54],[134,-19],[142,28],[6,-88],[71,29],[44,-77],[28,-8],[-7,-94],[32,-44],[-65,-60],[-152,39],[21,10],[1,23],[-119,-16],[-169,-81],[-44,16],[-131,135],[2,69],[-52,64]],[[2628,2414],[9,17],[90,-28],[-8,-47],[28,-57],[44,-24],[46,24],[16,70],[23,9],[55,-128],[63,-54],[68,-2],[74,44],[64,-47],[10,17],[88,-26],[-83,-58],[34,-106],[-66,-8],[-131,39],[-50,-16],[-16,51],[-67,28],[-49,74],[-170,67],[5,48],[-37,2],[-40,111]],[[4096,686],[0,-20],[-14,2],[14,18]],[[4096,1336],[0,-586],[-11,20],[-26,-20],[-70,35],[-90,-56],[-77,44],[-36,-29],[-35,94],[23,41],[48,1],[73,71],[16,64],[-24,5],[-55,42],[51,21],[36,195],[111,-9],[19,44],[47,23]],[[4096,1708],[0,-233],[-43,-31],[-74,19],[-67,-26],[-80,42],[82,44],[-20,182],[37,13],[100,7],[35,-37],[29,11],[1,9]],[[1452,1595],[122,48],[45,73],[42,-4],[19,-43],[184,-109],[183,-49],[97,-104],[42,-103],[119,-12],[77,-75],[53,-133],[52,-24],[36,-116],[-9,-91],[-85,95],[10,37],[-70,30],[-96,-24],[-162,48],[-46,83],[-260,126],[-216,267],[-84,25],[-53,55]],[[2540,1968],[128,-20],[70,-140],[-52,0],[-15,52],[-88,39],[32,37],[-53,3],[-22,29]],[[1239,280],[16,25],[44,10],[21,-27],[19,24],[43,-28],[-3,-55],[-92,-46],[-48,97]],[[4096,750],[0,-65],[-14,-19],[-46,12],[-52,-85],[-48,16],[-15,-22],[-27,52],[-66,27],[-36,85],[30,22],[86,-43],[81,55],[70,-35],[26,20],[11,-20]],[[2708,2079],[10,75],[143,37],[52,-43],[6,-36],[67,-29],[13,-84],[-194,-9],[-50,43],[-27,-5],[-20,51]],[[3455,2379],[5,18],[22,-21],[38,11],[35,-39],[-37,43],[100,2],[26,91],[44,-35],[69,7],[16,49],[34,-3],[-13,28],[46,32],[30,-69],[27,6],[-30,-13],[-18,36],[-70,-85],[-17,-47],[19,-87],[-20,-33],[-50,15],[13,29],[-7,4],[-20,-46],[26,-39],[-33,12],[-30,-47],[-111,1],[-9,57],[-44,14],[-41,109]],[[3659,2345],[40,-16],[-28,15],[-12,1]],[[947,1624],[66,-52],[57,-6],[-1,-69],[-72,-1],[-49,32],[-1,96]],[[962,1725],[0,35],[69,-5],[-10,-174],[-56,46],[-3,98]],[[1986,86],[26,85],[68,-21],[16,-46],[-23,-76],[-49,-8],[-38,66]],[[2503,3726],[44,-19],[3,65],[48,18],[35,-24],[-63,-49],[36,-34],[-72,-8],[-31,51]],[[467,3598],[44,57],[156,-74],[-108,11],[-78,-45],[-14,51]],[[321,3588],[146,37],[65,116],[-3,40],[29,0],[-15,32],[28,18],[36,-15],[5,-19],[-49,14],[10,-49],[-33,1],[18,-34],[-91,-126],[-116,-29],[-30,14]],[[424,2374],[36,36],[27,-12],[-32,33],[55,50],[-7,-27],[51,-1],[1,85],[35,27],[56,-8],[20,-70],[-63,-44],[-13,-39],[51,-9],[4,18],[85,-42],[-5,-19],[36,32],[31,-38],[168,47],[37,-41],[51,-11],[-99,-79],[-64,-6],[-13,-30],[-55,9],[0,-26],[-43,-8],[-64,19],[-25,37],[-9,-41],[-43,7],[2,-34],[-38,-12],[14,22],[-99,-4],[-14,33],[-18,-6],[-3,101],[-53,51]],[[3384,2554],[21,85],[65,72],[52,-15],[20,-54],[263,-4],[3,-134],[-30,6],[-17,-52],[-71,-10],[-46,36],[-12,-67],[-37,-36],[-61,19],[-18,-29],[-56,26],[24,-107],[56,-34],[7,-56],[48,-34],[-13,-13],[-85,-8],[-102,50],[25,105],[-36,254]],[[3401,2877],[43,89],[107,41],[47,-33],[15,-81],[65,-54],[-103,-111],[-42,21],[-7,49],[-67,-17],[-58,96]],[[4096,3754],[0,-177],[-1,2],[-38,5],[2,47],[-36,0],[7,24],[-66,49],[63,92],[59,-50],[10,8]],[[3613,4096],[135,0],[3,-1],[21,-41],[-75,-50],[3,-24],[51,-46],[10,-46],[42,-11],[38,-121],[-130,-39],[-42,21],[-13,58],[-48,17],[-34,72],[-54,-13],[2,-34],[-41,33],[-62,-41],[2,51],[-50,47],[63,79],[65,16],[20,34],[39,-31],[23,56],[26,-16],[6,30]],[[3037,3488],[44,28],[142,-43],[42,-93],[29,-4],[7,-66],[-74,-19],[19,-63],[50,-48],[-20,-49],[-74,-22],[-130,15],[17,33],[73,32],[32,171],[-62,71],[-86,6],[-9,51]],[[3134,3572],[24,56],[183,-55],[36,31],[37,-22],[113,32],[21,-31],[65,-8],[61,-87],[-164,-18],[-33,-41],[-13,32],[-97,5],[2,-43],[-235,149]],[[537,1493],[66,55],[13,-20],[32,9],[-4,-49],[83,-66],[-2,-133],[-96,-10],[-17,64],[18,59],[-51,19],[12,37],[-25,-10],[-29,45]]]}