{"objects":{"water":{"type":"GeometryCollection","geometries":[{"type":"Polygon","properties":{"source":"naturalearthdata.com","kind":"ocean","area":1576712559132672,"sort_rank":200,"min_zoom":0.0,"id":1},"arcs":[[128],[129],[130],[131],[132],[133],[134],[135],[136],[137],[138],[139],[140],[141],[142],[143],[144],[145],[146],[147],[148],[149],[150],[151],[152],[153],[154],[155],[156],[157],[158],[159],[160],[161],[162],[163],[164],[165],[166],[167],[168],[169],[170],[171],[172],[173],[174],[175],[176],[177],[178],[179],[180],[181],[182],[183],[184],[185],[186],[187],[188],[189],[190],[191],[192],[193],[194],[195],[196],[197],[198],[199],[200],[201],[202],[203],[204],[205],[206],[207],[208],[209],[210],[211],[212],[213],[214],[215]]},{"type":"LineString","properties":{"source":"naturalearthdata.com","kind":"ocean","sort_rank":205,"boundary":true,"min_zoom":0.0,"id":32},"arcs":[216]},{"type":"LineString","properties":{"source":"naturalearthdata.com","kind":"ocean","sort_rank":205,"boundary":true,"min_zoom":0.0,"id":79},"arcs":[217]},{"type":"LineString","properties":{"source":"naturalearthdata.com","kind":"ocean","sort_rank":205,"boundary":true,"min_zoom":0.0,"id":169},"arcs":[218]},{"type":"LineString","properties":{"source":"naturalearthdata.com","kind":"ocean","sort_rank":205,"boundary":true,"min_zoom":0.0,"id":170},"arcs":[219]},{"type":"LineString","properties":{"source":"naturalearthdata.com","kind":"ocean","sort_rank":205,"boundary":true,"min_zoom":0.0,"id":171},"arcs":[220]},{"type":"LineString","properties":{"source":"naturalearthdata.com","kind":"ocean","sort_rank":205,"boundary":true,"min_zoom":0.0,"id":172},"arcs":[221]},{"type":"LineString","properties":{"source":"naturalearthdata.com","kind":"ocean","sort_rank":205,"boundary":true,"min_zoom":0.0,"id":173},"arcs":[222]},{"type":"LineString","properties":{"source":"naturalearthdata.com","kind":"ocean","sort_rank":205,"boundary":true,"min_zoom":0.0,"id":174},"arcs":[223]},{"type":"LineString","properties":{"source":"naturalearthdata.com","kind":"ocean","sort_rank":205,"boundary":true,"min_zoom":0.0,"id":175},"arcs":[224]},{"type":"LineString","properties":{"source":"naturalearthdata.com","kind":"ocean","sort_rank":205,"boundary":true,"min_zoom":0.0,"id":1626},"arcs":[225]},{"type":"LineString","properties":{"source":"naturalearthdata.com","kind":"ocean","sort_rank":205,"boundary":true,"min_zoom":0.0,"id":1627},"arcs":[226]},{"type":"LineString","properties":{"source":"naturalearthdata.com","kind":"ocean","sort_rank":205,"boundary":true,"min_zoom":0.0,"id":1628},"arcs":[227]},{"type":"LineString","properties":{"source":"naturalearthdata.com","kind":"ocean","sort_rank":205,"boundary":true,"min_zoom":0.0,"id":1629},"arcs":[228]},{"type":"LineString","properties":{"source":"naturalearthdata.com","kind":"ocean","sort_rank":205,"boundary":true,"min_zoom":0.0,"id":1630},"arcs":[229]},{"type":"LineString","properties":{"source":"naturalearthdata.com","kind":"ocean","sort_rank":205,"boundary":true,"min_zoom":0.0,"id":1631},"arcs":[230]},{"type":"LineString","properties":{"source":"naturalearthdata.com","kind":"ocean","sort_rank":205,"boundary":true,"min_zoom":0.0,"id":1632},"arcs":[231]},{"type":"LineString","properties":{"source":"naturalearthdata.com","kind":"ocean","sort_rank":205,"boundary":true,"min_zoom":0.0,"id":1633},"arcs":[232]},{"type":"LineString","properties":{"source":"naturalearthdata.com","kind":"ocean","sort_rank":205,"boundary":true,"min_zoom":0.0,"id":1634},"arcs":[233]},{"type":"LineString","properties":{"source":"naturalearthdata.com","kind":"ocean","sort_rank":205,"boundary":true,"min_zoom":0.0,"id":1635},"arcs":[234]},{"type":"LineString","properties":{"source":"naturalearthdata.com","kind":"ocean","sort_rank":205,"boundary":true,"min_zoom":0.0,"id":1636},"arcs":[235]},{"type":"LineString","properties":{"source":"naturalearthdata.com","kind":"ocean","sort_rank":205,"boundary":true,"min_zoom":0.0,"id":1637},"arcs":[236]},{"type":"LineString","properties":{"source":"naturalearthdata.com","kind":"ocean","sort_rank":205,"boundary":true,"min_zoom":0.0,"id":1638},"arcs":[237]},{"type":"LineString","properties":{"source":"naturalearthdata.com","kind":"ocean","sort_rank":205,"boundary":true,"min_zoom":0.0,"id":1639},"arcs":[238]},{"type":"LineString","properties":{"source":"naturalearthdata.com","kind":"ocean","sort_rank":205,"boundary":true,"min_zoom":0.0,"id":1640},"arcs":[239]},{"type":"LineString","properties":{"source":"naturalearthdata.com","kind":"ocean","sort_rank":205,"boundary":true,"min_zoom":0.0,"id":1641},"arcs":[240]},{"type":"LineString","properties":{"source":"naturalearthdata.com","kind":"ocean","sort_rank":205,"boundary":true,"min_zoom":0.0,"id":1642},"arcs":[241]},{"type":"LineString","properties":{"source":"naturalearthdata.com","kind":"ocean","sort_rank":205,"boundary":true,"min_zoom":0.0,"id":1643},"arcs":[242]},{"type":"LineString","properties":{"source":"naturalearthdata.com","kind":"ocean","sort_rank":205,"boundary":true,"min_zoom":0.0,"id":1644},"arcs":[243]},{"type":"LineString","properties":{"source":"naturalearthdata.com","kind":"ocean","sort_rank":205,"boundary":true,"min_zoom":0.0,"id":1756},"arcs":[244]},{"type":"LineString","properties":{"source":"naturalearthdata.com","kind":"ocean","sort_rank":205,"boundary":true,"min_zoom":0.0,"id":1757},"arcs":[245]},{"type":"LineString","properties":{"source":"naturalearthdata.com","kind":"ocean","sort_rank":205,"boundary":true,"min_zoom":0.0,"id":2027},"arcs":[246]},{"type":"LineString","properties":{"source":"naturalearthdata.com","kind":"ocean","sort_rank":205,"boundary":true,"min_zoom":0.0,"id":2028},"arcs":[247]},{"type":"LineString","properties":{"source":"naturalearthdata.com","kind":"ocean","sort_rank":205,"boundary":true,"min_zoom":0.0,"id":2029},"arcs":[248]},{"type":"LineString","properties":{"source":"naturalearthdata.com","kind":"ocean","sort_rank":205,"boundary":true,"min_zoom":0.0,"id":2030},"arcs":[249]},{"type":"LineString","properties":{"source":"naturalearthdata.com","kind":"ocean","sort_rank":205,"boundary":true,"min_zoom":0.0,"id":2031},"arcs":[250]},{"type":"LineString","properties":{"source":"naturalearthdata.com","kind":"ocean","sort_rank":205,"boundary":true,"min_zoom":0.0,"id":2032},"arcs":[251]},{"type":"LineString","properties":{"source":"naturalearthdata.com","kind":"ocean","sort_rank":205,"boundary":true,"min_zoom":0.0,"id":2033},"arcs":[252]},{"type":"MultiLineString","properties":{"source":"naturalearthdata.com","kind":"ocean","sort_rank":205,"boundary":true,"min_zoom":0.0,"id":3576},"arcs":[[253],[254]]},{"type":"LineString","properties":{"source":"naturalearthdata.com","kind":"ocean","sort_rank":205,"boundary":true,"min_zoom":0.0,"id":3577},"arcs":[255]},{"type":"LineString","properties":{"source":"naturalearthdata.com","kind":"ocean","sort_rank":205,"boundary":true,"min_zoom":0.0,"id":3592},"arcs":[256]},{"type":"LineString","properties":{"source":"naturalearthdata.com","kind":"ocean","sort_rank":205,"boundary":true,"min_zoom":0.0,"id":3593},"arcs":[257]}]},"buildings":{"type":"GeometryCollection","geometries":[]},"places":{"type":"GeometryCollection","geometries":[{"type":"Point","properties":{"name:ka":"\u10db\u10d0\u10da\u10d0\u10d8\u10d6\u10d8\u10d0","name:tr":"Malezya","name:cv":"\u041c\u0430\u043b\u0430\u0439\u0437\u0438","name:km":"\u1798\u17c9\u17b6\u17a1\u17c1\u179f\u17ca\u17b8","name:cs":"Malajsie","name:ki":"Malesia","name:kw":"Malaysi","name:kv":"\u041c\u0430\u043b\u0430\u0439\u0437\u0438\u044f","name:ku":"Malezya","name:ti":"\u121b\u120c\u12e2\u12eb","name:ks":"\u0645\u064e\u0644\u06cc\u0634\u0650\u06cc\u0627","name:to":"Mal\u0113sia","name:ce":"\u041c\u0430\u043b\u0430\u0439\u0437\u0438","name:ta":"\u0bae\u0bb2\u0bc7\u0bb7\u0bbf\u0baf\u0bbe","name:tg":"\u041c\u0430\u043b\u0430\u0439\u0437\u0438\u044f","name:ca":"Mal\u00e0isia","name:te":"\u0c2e\u0c32\u0c47\u0c37\u0c3f\u0c2f\u0c3e","name:hr":"Malezija","name:dz":"\u0f58\u0f0b\u0f63\u0f7a\u0f0b\u0f64\u0f72\u0f0b\u0f61","name:ko":"\ub9d0\ub808\uc774\uc2dc\uc544","name:kn":"\u0cae\u0cb2\u0cc7\u0cb6\u0cbf\u0caf\u0cbe","name:dv":"\u0789\u07ac\u078d\u07ad\u079d\u07a8\u0794\u07a7","name:lv":"Malaizija","name:lt":"Malaizija","name:uz":"Malayziya","name:kk":"\u041c\u0430\u043b\u0430\u0439\u0437\u0438\u044f","name:ur":"\u0645\u0644\u06cc\u0634\u06cc\u0627","name:la":"Malaesia","name:lg":"Malezya","name:uk":"\u041c\u0430\u043b\u0430\u0439\u0437\u0456\u044f","name:ug":"\u0645\u0627\u0644\u0627\u064a\u0633\u0649\u064a\u0627","name:li":"Maleisi\u00eb","name:ln":"Malezi","name:lo":"\u0ea1\u0eb2\u0ec0\u0ea5\u0ec0\u0e8a\u0e8d","name:el":"\u039c\u03b1\u03bb\u03b1\u03b9\u03c3\u03af\u03b1","name:eo":"Malajzio","name":"Malaysia","name:tk":"Mala\u00fdzi\u00fda","name:ee":"Malaysia nutome","name:th":"\u0e1b\u0e23\u0e30\u0e40\u0e17\u0e28\u0e21\u0e32\u0e40\u0e25\u0e40\u0e0b\u0e35\u0e22","name:eu":"Malasia","name:et":"Malaisia","name:es":"Malasia","name:rm":"Malaisia","name:rn":"Maleziya","name:az":"Malayziya","name:ar":"\u0645\u0627\u0644\u064a\u0632\u064a","name:io":"Malaizia","name:ak":"Malehyia","name:am":"\u121b\u120c\u12e2\u12eb","name:it":"Malesia","name:an":"Malaisia","name:ru":"\u041c\u0430\u043b\u0430\u0439\u0437\u0438\u044f","name:rw":"Malesiya","name:af":"Maleisi\u00eb","name:zu":"i-Malaysia","name:za":"Majlaizsihya","name:zh-yue":"\u99ac\u4f86\u897f\u4e9e","name:zh":"\u9a6c\u6765\u897f\u4e9a","name:so":"Malaysiya","name:sl":"Malezija","name:sk":"Malajzia","name:ja":"\u30de\u30ec\u30fc\u30b7\u30a2","name:si":"\u0db8\u0dd0\u0dbd\u0dda\u0dc3\u0dd2\u0dba\u0dcf\u0dc0","name:sh":"Malezija","name:sg":"Malez\u00efi","name:se":"Malesia","name:sa":"\u092e\u0932\u092f\u0947\u0936\u093f\u092f\u093e","name:bs":"Malezija","name:bm":"Mal\u025bzi","name:bn":"\u09ae\u09be\u09b2\u09cd\u09af\u09be\u09b6\u09bf\u09af\u09bc\u09be","name:bo":"\u0f58\u0f0b\u0f63\u0f7a\u0f0b\u0f64\u0f72\u0f0b\u0f61\u0f0d","name:sw":"Malesia","name:be":"\u041c\u0430\u043b\u0430\u0439\u0437\u0456\u044f","name:bg":"\u041c\u0430\u043b\u0430\u0439\u0437\u0438\u044f","name:ss":"IMaleshiya","name:ba":"\u041c\u0430\u043b\u0430\u0439\u0437\u0438\u044f","name:sq":"Malajzi","name:pt":"Mal\u00e1sia","name:ps":"\u0645\u0627\u0644\u06cc\u0632\u06cc\u0627","name:oc":"Mal\u00e0isia","min_zoom":2.0,"name:ro":"Malaezia","name:zh-min-nan":"M\u00e1-l\u00e2i-se-a","name:os":"\u041c\u0430\u043b\u0430\u0439\u0437\u0438","name:or":"\u0b2e\u0b3e\u0b32\u0b47\u0b38\u0b3f\u0b06","name:pl":"Malezja","source":"openstreetmap.org","name:sr":"\u041c\u0430\u043b\u0435\u0437\u0438\u0458\u0430","name:pa":"\u0a2e\u0a32\u0a47\u0a38\u0a3c\u0a40\u0a06","name:hi":"\u092e\u0932\u0947\u0936\u093f\u092f\u093e","name:he":"\u05de\u05dc\u05d6\u05d9\u05d4","name:ha":"Malaisiya","name:hy":"\u0544\u0561\u056c\u0561\u0575\u0566\u056b\u0561","name:ht":"Malezi","name:hu":"Malajzia","name:qu":"Malasya","population":28334135,"kind":"country","name:is":"Malas\u00eda","name:yi":"\u05de\u05d0\u05dc\u05d9\u05d9\u05d6\u05d9\u05e2","name:yo":"Or\u00edl\u1eb9\u0301\u00e8de Malasia","name:mt":"Malasja","name:mr":"\u092e\u0932\u0947\u0936\u093f\u092f\u093e","name:my":"\u1019\u101c\u1031\u1038\u101b\u103e\u102c\u1038","name:mg":"Malaizia","name:ml":"\u0d2e\u0d32\u0d47\u0d37\u0d4d\u0d2f","name:mn":"\u041c\u0430\u043b\u0430\u0439\u0437","name:mi":"Mar\u0113hia","id":249399394,"name:mk":"\u041c\u0430\u043b\u0435\u0437\u0438\u0458\u0430","name:vo":"Malaysiy\u00e4n","name:fa":"\u0645\u0627\u0644\u0632\u06cc","name:ff":"Malesii","name:fi":"Malesia","name:ky":"\u041c\u0430\u043b\u0430\u0439\u0437\u0438\u044f","name:fo":"Maleisia","name:fr":"Malaisie","name:fy":"Maleizje","name:nl":"Maleisi\u00eb","name:na":"Maraidja","name:ne":"\u092e\u0932\u0947\u0938\u093f\u092f\u093e","name:wo":"Maleesi","name:nv":"Mal\u00e9\u00edzha","name:ga":"An Mhalaeisia","name:gd":"Malaidhsia","name:gl":"Malaisia","name:gv":"Yn Valaysia","name:gu":"\u0aae\u0ab2\u0ac7\u0ab6\u0abf\u0aaf\u0abe","name:tt":"\u041c\u0430\u043b\u0430\u0439\u0437\u0438\u044f"},"coordinates":[740,3333]},{"type":"Point","properties":{"source":"naturalearthdata.com","kind":"locality","name":"Singapore","country_capital":true,"population":5183700,"min_zoom":2.0,"id":7288},"coordinates":[1896,944]},{"type":"Point","properties":{"name:ka":"\u10e1\u10d8\u10dc\u10d2\u10d0\u10de\u10e3\u10e0\u10d8","name:ko":"\uc2f1\uac00\ud3ec\ub974","name:cv":"\u0421\u0438\u043d\u0433\u0430\u043f\u0443\u0440","name:km":"\u179f\u17b7\u1784\u17d2\u17a0\u1794\u17bb\u179a\u17b8","name:cs":"Singapur","name:ki":"Singapoo","name:kw":"Singapour","name:kv":"\u0421\u0438\u043d\u0433\u0430\u043f\u0443\u0440","name:ku":"Singap\u00fbr","name:ti":"\u1232\u1295\u130b\u1356\u122d","name:ks":"\u065b\u0633\u0650\u0646\u065b\u06af\u0627\u067e\u0648\u0657\u0631","name:to":"Singapoa","name:ce":"\u0421\u0438\u043d\u0433\u0430\u043f\u0443\u0440","name:ta":"\u0b9a\u0bbf\u0b99\u0bcd\u0b95\u0baa\u0bcd\u0baa\u0bc2\u0bb0\u0bcd","name:tg":"\u0421\u0438\u043d\u0433\u0430\u043f\u0443\u0440","name:ca":"Singapur","name:te":"\u0c38\u0c3f\u0c02\u0c17\u0c2a\u0c42\u0c30\u0c4d","name:hr":"Singapur","name:de":"Singapur","name:dz":"\u0f66\u0f72\u0f44\u0f0b\u0f42\u0f0b\u0f54\u0f7c\u0f62","source":"openstreetmap.org","name:kn":"\u0cb8\u0cbf\u0c82\u0c97\u0caa\u0cc1\u0cb0","name:dv":"\u0790\u07a8\u0782\u07b0\u078e\u07a6\u0795\u07ab\u0783\u07aa","name:lv":"Singap\u016bra","name:lt":"Singap\u016bras","name:uz":"Singapur","name:kk":"\u0421\u0438\u043d\u0433\u0430\u043f\u0443\u0440","name:ur":"\u0633\u0646\u06af\u0627\u067e\u0648\u0631","name:lb":"Singapur","name:la":"Singapura","name:lg":"Singapowa","name:uk":"\u0421\u0456\u043d\u0433\u0430\u043f\u0443\u0440","name:ug":"\u0633\u0649\u0646\u06af\u0627\u067e\u0648\u0631","name:ln":"Singapur\u025b","name:lo":"\u0eaa\u0eb4\u0e87\u0e81\u0eb0\u0ec2\u0e9b","name:el":"\u03a3\u03b9\u03b3\u03ba\u03b1\u03c0\u03bf\u03cd\u03c1\u03b7","name:eo":"Singapuro","name":"Singapore","name:tk":"Singapur","name:ee":"Singap\u0254r nutome","name:th":"\u0e1b\u0e23\u0e30\u0e40\u0e17\u0e28\u0e2a\u0e34\u0e07\u0e04\u0e42\u0e1b\u0e23\u0e4c","name:eu":"Singapur","name:et":"Singapur","name:es":"Singapur","name:ia":"Singapur","name:rm":"Singapur","name:rn":"Singapuru","name:az":"Sinqapur","name:ie":"Singapor","name:id":"Singapura","name:ar":"\u0633\u0646\u063a\u0627\u0641\u0648\u0631\u0629","name:io":"Singapur","name:ak":"Singap\u0254","name:am":"\u1232\u1295\u130b\u1356\u122d","name:an":"Singapur","name:ru":"\u0421\u0438\u043d\u0433\u0430\u043f\u0443\u0440","name:af":"Singapoer","name:zu":"i-Singapore","name:ky":"\u0421\u0438\u043d\u0433\u0430\u043f\u0443\u0440","name:zh-yue":"\u661f\u67b6\u5761","name:zh":"\u65b0\u52a0\u5761","name:so":"Singaboor","name:sm":"Sigapoa","name:sl":"Singapur","name:sk":"Singapur","name:ja":"\u30b7\u30f3\u30ac\u30dd\u30fc\u30eb","name:si":"\u0dc3\u0dd2\u0d82\u0d9c\u0db4\u0dca\u0db4\u0dd6\u0dbb\u0dd4\u0dc0","name:sh":"Singapur","name:sg":"S\u00efng\u00e4p\u00fbru","name:sa":"\u0938\u093f\u0919\u094d\u0917\u093e\u092a\u0941\u0930\u092e\u094d","name:bs":"Singapur","name:bm":"S\u025bngapuri","name:bn":"\u09b8\u09bf\u0999\u09cd\u0997\u09be\u09aa\u09c1\u09b0","name:bo":"\u0f66\u0f72\u0f44\u0f92\u0f0b\u0f54\u0f74\u0f62\u0f0d","name:br":"Singapour","name:sw":"Singapoo","name:be":"\u0421\u0456\u043d\u0433\u0430\u043f\u0443\u0440","name:su":"Singapura","name:bg":"\u0421\u0438\u043d\u0433\u0430\u043f\u0443\u0440","name:ss":"ISingapholo","name:ba":"\u0421\u0438\u043d\u0433\u0430\u043f\u0443\u0440","name:sq":"Singapor","name:jv":"Singapura","name:pt":"Cingapura","name:ps":"\u0633\u064a\u0646\u06ab\u0627\u067e\u0648\u0631","name:oc":"Singapor","min_zoom":2.0,"name:zh-min-nan":"Sin-ka-pho","name:os":"\u0421\u0438\u043d\u0433\u0430\u043f\u0443\u0440","name:or":"\u0b38\u0b3f\u0b19\u0b4d\u0b17\u0b3e\u0b2a\u0b41\u0b30\u0b4d","name:pl":"Singapur","name:sr":"\u0421\u0438\u043d\u0433\u0430\u043f\u0443\u0440","name:pa":"\u0a38\u0a3f\u0a70\u0a18\u0a3e\u0a2a\u0a41\u0a30","name:tr":"Singapur","name:hi":"\u0938\u093f\u0902\u0917\u093e\u092a\u0941\u0930","name:he":"\u05e1\u05d9\u05e0\u05d2\u05e4\u05d5\u05e8","name:ha":"Singapur","name:hy":"\u054d\u056b\u0576\u0563\u0561\u057a\u0578\u0582\u0580","name:ht":"Sengapou","name:hu":"Szingap\u00far","name:qu":"Singapur","population":4839400,"kind":"country","name:is":"Singap\u00far","name:yi":"\u05e1\u05d9\u05e0\u05d2\u05d0\u05e4\u05d5\u05e8","name:yo":"Or\u00edl\u1eb9\u0301\u00e8de Singapo","name:mt":"Singapor","name:ms":"Singapura","name:mr":"\u0938\u093f\u0902\u0917\u093e\u092a\u0942\u0930","name:my":"\u1005\u1004\u103a\u1039\u1000\u102c\u1015\u1030","official_name":"Republic of Singapore","name:mg":"Singaporo","name:ml":"\u0d38\u0d3f\u0d02\u0d17\u0d2a\u0d4d\u0d2a\u0d41\u0d7c","name:vi":"T\u00e2n Gia Ba","name:mn":"\u0421\u0438\u043d\u0433\u0430\u043f\u0443\u0440","name:mi":"Hingapoa","id":424313428,"name:mk":"\u0421\u0438\u043d\u0433\u0430\u043f\u0443\u0440","name:vo":"Singapur\u00e4n","name:fa":"\u0633\u0646\u06af\u0627\u067e\u0648\u0631","name:ff":"Sinngapuur","old_name:vi":"Chi\u00eau Nam","name:fo":"Singapor","name:fr":"Singapour","name:fy":"Singapoer","name:na":"Tsingapoar","name:ne":"\u0938\u093f\u0919\u094d\u0917\u093e\u092a\u0941\u0930","name:wo":"Singapoor","name:nv":"S\u012f\u0301\u02bcgaboo","name:ga":"Singeap\u00f3r","name:gd":"Siongap\u00f2r","name:gl":"Singapur","name:gu":"\u0ab8\u0abf\u0a82\u0a97\u0abe\u0aaa\u0ac1\u0ab0","name:tt":"\u0421\u0438\u043d\u0433\u0430\u043f\u0443\u0440"},"coordinates":[1871,990]},{"type":"Point","properties":{"name:short":"KL","name:ja":"\u30af\u30a2\u30e9\u30eb\u30f3\u30d7\u30fc\u30eb\u9023\u90a6\u76f4\u8f44\u9818","name:ms":"Wilayah Persekutuan Kuala Lumpur","name:ko":"\ucfe0\uc54c\ub77c\ub8f8\ud478\ub974\uc5f0\ubc29\uc9c1\ud560\uad6c","name:th":"\u0e14\u0e34\u0e19\u0e41\u0e14\u0e19\u0e2a\u0e2b\u0e1e\u0e31\u0e19\u0e18\u0e4c\u0e01\u0e31\u0e27\u0e25\u0e32\u0e25\u0e31\u0e21\u0e40\u0e1b\u0e2d\u0e23\u0e4c","name:ru":"\u041a\u0443\u0430\u043b\u0430-\u041b\u0443\u043c\u043f\u0443\u0440 \u0421\u0442\u043e\u043b\u0438\u0447\u043d\u0430\u044f \u0442\u0435\u0440\u0440\u0438\u0442\u043e\u0440\u0438\u044f","name:ta":"\u0b95\u0bcb\u0bb2\u0bbe\u0bb2\u0bae\u0bcd\u0baa\u0bc2\u0bb0\u0bcd","id":4165116689,"population":1768000,"kind":"region","name":"Federal Territory of Kuala Lumpur","kind_detail":"state","short_name":"KUL","min_zoom":4.0,"source":"openstreetmap.org","name:zh":"\u5409\u9686\u5761\u8054\u90a6\u76f4\u8f96\u533a"},"coordinates":[329,2299]},{"type":"Point","properties":{"source":"naturalearthdata.com","kind":"locality","name":"Kuala Lumpur","country_capital":true,"population":1448000,"min_zoom":4.0,"id":7151},"coordinates":[326,2311]},{"type":"Point","properties":{"name:short":"N","name:ja":"\u30cc\u30b0\u30ea\u30fb\u30b9\u30f3\u30d3\u30e9\u30f3\u5dde","short_name":"NSN","name:hi":"\u0928\u0947\u0917\u0947\u0930\u0940 \u0938\u0947\u092e\u092c\u093f\u0932\u093e\u0928","name:ko":"\ub290\uadf8\ub9ac\uc2b4\ube4c\ub780 \uc8fc","name:he":"\u05e0\u05d2\u05e8\u05d9 \u05e1\u05de\u05d1\u05d9\u05dc\u05df","name:th":"\u0e23\u0e31\u0e10\u0e40\u0e19\u0e2d\u0e40\u0e01\u0e2d\u0e23\u0e35\u0e40\u0e0b\u0e34\u0e21\u0e1a\u0e35\u0e25\u0e31\u0e19","name:ru":"\u041d\u0435\u0433\u0440\u0438-\u0421\u0435\u043c\u0431\u0438\u043b\u0430\u043d","name:ta":"\u0ba8\u0bc6\u0b95\u0bbf\u0bb0\u0bbf \u0b9a\u0bc6\u0bae\u0bcd\u0baa\u0bbf\u0bb2\u0bbe\u0ba9\u0bcd","id":4556962889,"population":1098400,"kind":"region","name":"Negeri Sembilan","kind_detail":"state","min_zoom":4.0,"source":"openstreetmap.org","name:zh":"\u68ee\u7f8e\u5170\u5dde"},"coordinates":[658,2072]},{"type":"Point","properties":{"name:short":"M","name:ja":"\u30e0\u30e9\u30ab\u5dde","name:ms":"Melaka","name:ko":"\ubbc8\ub77c\uce74 \uc8fc","name:th":"\u0e23\u0e31\u0e10\u0e21\u0e30\u0e25\u0e30\u0e01\u0e32","name:ru":"\u041c\u0430\u043b\u0430\u043a\u043a\u0430 \u0448\u0442\u0430\u0442","name:ta":"\u0bae\u0bb2\u0bbe\u0b95\u0bcd\u0b95\u0bbe","id":4165154141,"population":872900,"name:el":"\u039c\u03b1\u03bb\u03ac\u03ba\u03b1","kind":"region","name":"Malacca","kind_detail":"state","short_name":"MLK","min_zoom":4.0,"source":"openstreetmap.org","name:zh":"\u9a6c\u516d\u7532\u5dde"},"coordinates":[729,1605]},{"type":"Point","properties":{"kind":"region","name:short":"F","name":"Federal Territory of Putrajaya","name:ms":"Wilayah Persekutuan Putrajaya","name:hi":"\u092a\u0941\u0924\u094d\u0930\u091c\u092f","name:ko":"\ud478\ud2b8\ub77c\uc790\uc57c","kind_detail":"state","source":"openstreetmap.org","min_zoom":4.0,"population":88300,"name:ru":"\u041f\u0443\u0442\u0440\u0430\u0434\u0436\u0430\u044f","name:ta":"\u0baa\u0bc1\u0ba4\u0bcd\u0bb0\u0bbe\u0b9c\u0bbe\u0baf\u0bbe","name:zh":"\u5e03\u57ce\u8054\u90a6\u76f4\u8f96\u533a","id":4534491713,"name:ja":"\u30d7\u30c8\u30e9\u30b8\u30e3\u30e4"},"coordinates":[313,2118]},{"type":"Point","properties":{"source":"openstreetmap.org","kind":"region","name":"Terengganu","kind_detail":"state","name:zh":"\u767b\u5609\u697c\u5dde","min_zoom":4.0,"id":4165045379},"coordinates":[1179,3796]},{"type":"Point","properties":{"kind":"region","name":"Johor","name:lt":"D\u017eohoras","kind_detail":"state","source":"openstreetmap.org","min_zoom":4.0,"name:zh":"\u67d4\u4f5b\u5dde","id":2609539356},"coordinates":[1600,1467]},{"type":"Point","properties":{"source":"openstreetmap.org","kind":"region","name":"Kelantan","kind_detail":"state","name:zh":"\u5409\u5170\u4e39\u5dde","min_zoom":4.0,"id":4165056889},"coordinates":[588,3864]},{"type":"Point","properties":{"kind":"region","name":"Pahang","name:lt":"Pahangas","kind_detail":"state","source":"openstreetmap.org","min_zoom":4.0,"name:zh":"\u5f6d\u4ea8\u5dde","id":3222282161},"coordinates":[974,2646]},{"type":"Point","properties":{"kind":"region","name":"Selangor","name:lt":"Selangoras","kind_detail":"state","source":"openstreetmap.org","min_zoom":4.0,"name:zh":"\u96ea\u5170\u83aa\u5dde","id":3665372243,"name:ja":"\u30bb\u30e9\u30f3\u30b4\u30fc\u30eb"},"coordinates":[39,2340]},{"type":"Point","properties":{"kind":"region","name":"Riau","kind_detail":"state","name:eo":"Riauo","source":"openstreetmap.org","min_zoom":4.0,"name:zh":"\u5ed6\u5185\u7701","id":1898283470},"coordinates":[217,365]},{"type":"Point","properties":{"source":"naturalearthdata.com","kind":"locality","name":"Putrajaya","country_capital":true,"population":67964,"min_zoom":5.0,"id":6513},"coordinates":[329,2125]},{"type":"Point","properties":{"source":"naturalearthdata.com","kind":"locality","name":"Kelang","population":956000,"min_zoom":6.0,"id":5001},"coordinates":[217,2204]},{"type":"Point","properties":{"source":"naturalearthdata.com","kind":"locality","name":"Johor Bahru","population":875000,"region_capital":true,"min_zoom":6.0,"id":5000},"coordinates":[1804,1081]},{"type":"Point","properties":{"source":"naturalearthdata.com","kind":"locality","name":"Pekanbaru","population":799000,"region_capital":true,"min_zoom":6.0,"id":5796},"coordinates":[126,413]},{"type":"Point","properties":{"source":"naturalearthdata.com","kind":"locality","name":"Malacca","population":788706,"region_capital":true,"min_zoom":6.0,"id":5818},"coordinates":[726,1609]},{"type":"Point","properties":{"source":"naturalearthdata.com","kind":"locality","name":"Kuantan","population":366229,"min_zoom":6.0,"id":5819},"coordinates":[1507,2793]}]},"transit":{"type":"GeometryCollection","geometries":[{"type":"MultiLineString","properties":{"kind":"train","name":"Port Klang Line","sort_rank":275,"name:zh":"\u5df4\u751f\u6e2f\u7ebf","colour":"Red","source":"openstreetmap.org","min_zoom":6.0,"network":"KTM Komuter","operator":"KTMB","ref":"2","osm_relation":true,"colour_name":"red"},"arcs":[[111],[112],[113],[114],[115],[116],[117],[118],[119],[120],[121],[122],[123],[124],[125],[126],[127]]}]},"pois":{"type":"GeometryCollection","geometries":[{"type":"Point","properties":{"source":"openstreetmap.org","kind":"museum","name":"istana siak","area":361214000,"min_zoom":4.47,"id":485341339},"coordinates":[591,590]}]},"boundaries":{"type":"GeometryCollection","geometries":[{"type":"LineString","properties":{"source":"naturalearthdata.com","kind":"country","sort_rank":262,"kind_detail":"2","min_zoom":0.0,"id":4},"arcs":[0]},{"type":"LineString","properties":{"source":"naturalearthdata.com","kind":"region","sort_rank":256,"kind_detail":"4","min_zoom":6.0,"id":107},"arcs":[1]},{"type":"LineString","properties":{"source":"naturalearthdata.com","kind":"region","sort_rank":256,"kind_detail":"4","min_zoom":6.0,"id":108},"arcs":[2]},{"type":"LineString","properties":{"source":"naturalearthdata.com","kind":"region","sort_rank":256,"kind_detail":"4","min_zoom":6.0,"id":110},"arcs":[3]},{"type":"LineString","properties":{"source":"naturalearthdata.com","kind":"region","sort_rank":256,"kind_detail":"4","min_zoom":6.0,"id":111},"arcs":[4]},{"type":"LineString","properties":{"source":"naturalearthdata.com","kind":"region","sort_rank":256,"kind_detail":"4","min_zoom":2.0,"id":246},"arcs":[5]},{"type":"MultiLineString","properties":{"source":"naturalearthdata.com","kind":"region","sort_rank":256,"kind_detail":"4","min_zoom":6.0,"id":2444},"arcs":[[6],[7],[8]]},{"type":"LineString","properties":{"source":"naturalearthdata.com","kind":"region","sort_rank":256,"kind_detail":"4","min_zoom":6.0,"id":2451},"arcs":[9]},{"type":"MultiLineString","properties":{"source":"naturalearthdata.com","kind":"region","sort_rank":256,"kind_detail":"4","min_zoom":6.0,"id":2439},"arcs":[[10],[11],[12],[13],[14],[15],[16],[17],[18],[19],[20],[21],[22],[23],[24],[25],[26],[27],[28],[29],[30],[31],[32],[33],[34]]},{"type":"MultiLineString","properties":{"source":"naturalearthdata.com","kind":"region","sort_rank":256,"kind_detail":"4","min_zoom":6.0,"id":2449},"arcs":[[35],[36],[37],[38],[39],[40],[41],[42]]},{"type":"MultiLineString","properties":{"source":"naturalearthdata.com","kind":"region","sort_rank":256,"kind_detail":"4","min_zoom":6.0,"id":2450},"arcs":[[43],[44],[45],[46],[47],[48],[49],[50]]},{"type":"MultiLineString","properties":{"source":"naturalearthdata.com","kind":"region","sort_rank":256,"kind_detail":"4","min_zoom":6.0,"id":2441},"arcs":[[51],[52],[53],[54],[55],[56],[57],[58],[59],[60],[61],[62],[63],[64],[65],[66],[67]]},{"type":"MultiLineString","properties":{"source":"naturalearthdata.com","kind":"region","sort_rank":256,"kind_detail":"4","min_zoom":6.0,"id":2442},"arcs":[[68],[69],[70]]},{"type":"MultiLineString","properties":{"source":"naturalearthdata.com","kind":"region","sort_rank":256,"kind_detail":"4","min_zoom":6.0,"id":2443},"arcs":[[71],[72],[73],[74]]},{"type":"MultiLineString","properties":{"source":"naturalearthdata.com","kind":"region","sort_rank":256,"kind_detail":"4","min_zoom":6.0,"id":2445},"arcs":[[75],[76],[77],[78]]},{"type":"MultiLineString","properties":{"source":"naturalearthdata.com","kind":"region","sort_rank":256,"kind_detail":"4","min_zoom":6.0,"id":2446},"arcs":[[79],[80],[81],[82],[83],[84]]},{"type":"MultiLineString","properties":{"source":"naturalearthdata.com","kind":"region","sort_rank":256,"kind_detail":"4","min_zoom":6.0,"id":2447},"arcs":[[85],[86],[87]]},{"type":"MultiLineString","properties":{"source":"naturalearthdata.com","kind":"region","sort_rank":256,"kind_detail":"4","min_zoom":6.0,"id":2448},"arcs":[[88],[89]]},{"type":"MultiLineString","properties":{"source":"naturalearthdata.com","kind":"region","sort_rank":256,"kind_detail":"4","min_zoom":6.0,"id":2452},"arcs":[[90],[91],[92]]},{"type":"MultiLineString","properties":{"source":"naturalearthdata.com","kind":"region","sort_rank":256,"kind_detail":"4","min_zoom":6.0,"id":3126},"arcs":[[93],[94],[95],[96],[97]]},{"type":"MultiLineString","properties":{"source":"naturalearthdata.com","kind":"region","sort_rank":256,"kind_detail":"4","min_zoom":6.0,"id":3127},"arcs":[[98],[99],[100],[101],[102],[103],[104],[105],[106],[107],[108],[109],[110]]}]},"roads":{"type":"GeometryCollection","geometries":[{"type":"LineString","properties":{"source":"naturalearthdata.com","kind":"highway","sort_rank":355,"kind_detail":"trunk","min_zoom":6.0,"id":11061},"arcs":[258]},{"type":"LineString","properties":{"source":"naturalearthdata.com","kind":"minor_road","sort_rank":355,"kind_detail":"tertiary","min_zoom":5.0,"id":40172},"arcs":[259]},{"type":"LineString","properties":{"source":"naturalearthdata.com","kind":"major_road","kind_detail":"secondary","sort_rank":379,"landuse_kind":"urban_area","min_zoom":3.0,"id":40215},"arcs":[260]},{"type":"LineString","properties":{"source":"naturalearthdata.com","kind":"minor_road","kind_detail":"tertiary","sort_rank":355,"landuse_kind":"urban_area","min_zoom":5.0,"id":40216},"arcs":[261]},{"type":"LineString","properties":{"source":"naturalearthdata.com","kind":"minor_road","sort_rank":355,"kind_detail":"tertiary","min_zoom":5.0,"id":40216},"arcs":[262]},{"type":"LineString","properties":{"source":"naturalearthdata.com","kind":"highway","sort_rank":383,"kind_detail":"motorway","min_zoom":3.0,"id":40217},"arcs":[263]},{"type":"LineString","properties":{"source":"naturalearthdata.com","kind":"major_road","kind_detail":"secondary","sort_rank":379,"landuse_kind":"urban_area","min_zoom":3.0,"id":40218},"arcs":[264]},{"type":"LineString","properties":{"source":"naturalearthdata.com","kind":"major_road","kind_detail":"secondary","sort_rank":379,"landuse_kind":"urban_area","min_zoom":3.0,"id":40401},"arcs":[265]},{"type":"LineString","properties":{"source":"naturalearthdata.com","kind":"major_road","sort_rank":379,"kind_detail":"secondary","min_zoom":3.0,"id":40401},"arcs":[266]},{"type":"MultiLineString","properties":{"source":"naturalearthdata.com","kind":"major_road","kind_detail":"secondary","sort_rank":379,"landuse_kind":"park","min_zoom":3.0,"id":40549},"arcs":[[267],[268]]},{"type":"MultiLineString","properties":{"source":"naturalearthdata.com","kind":"major_road","sort_rank":379,"kind_detail":"secondary","min_zoom":3.0,"id":40549},"arcs":[[269],[270],[271]]},{"type":"LineString","properties":{"source":"naturalearthdata.com","kind":"major_road","sort_rank":379,"kind_detail":"secondary","min_zoom":3.0,"id":40550},"arcs":[272]},{"type":"LineString","properties":{"source":"naturalearthdata.com","kind":"major_road","sort_rank":379,"kind_detail":"secondary","min_zoom":3.0,"id":40585},"arcs":[273]},{"type":"LineString","properties":{"source":"naturalearthdata.com","kind":"major_road","sort_rank":379,"kind_detail":"secondary","min_zoom":3.0,"id":40626},"arcs":[274]},{"type":"LineString","properties":{"source":"naturalearthdata.com","kind":"major_road","kind_detail":"secondary","sort_rank":379,"landuse_kind":"urban_area","min_zoom":3.0,"id":40674},"arcs":[275]},{"type":"MultiLineString","properties":{"source":"naturalearthdata.com","kind":"major_road","kind_detail":"secondary","sort_rank":379,"landuse_kind":"urban_area","min_zoom":3.0,"id":40674},"arcs":[[276],[277]]},{"type":"LineString","properties":{"source":"naturalearthdata.com","kind":"major_road","kind_detail":"secondary","sort_rank":379,"landuse_kind":"urban_area","min_zoom":3.0,"id":40674},"arcs":[278]},{"type":"MultiLineString","properties":{"source":"naturalearthdata.com","kind":"major_road","sort_rank":379,"kind_detail":"secondary","min_zoom":3.0,"id":40674},"arcs":[[279],[280],[281],[282],[283]]},{"type":"LineString","properties":{"source":"naturalearthdata.com","kind":"major_road","sort_rank":379,"kind_detail":"secondary","min_zoom":3.0,"id":40685},"arcs":[284]},{"type":"LineString","properties":{"source":"naturalearthdata.com","kind":"highway","sort_rank":383,"kind_detail":"motorway","min_zoom":3.0,"id":40691},"arcs":[285]},{"type":"LineString","properties":{"source":"naturalearthdata.com","kind":"highway","sort_rank":383,"kind_detail":"motorway","min_zoom":3.0,"id":40718},"arcs":[286]},{"type":"LineString","properties":{"source":"naturalearthdata.com","kind":"major_road","sort_rank":379,"kind_detail":"secondary","min_zoom":3.0,"id":40719},"arcs":[287]},{"type":"LineString","properties":{"source":"naturalearthdata.com","kind":"highway","sort_rank":383,"kind_detail":"motorway","min_zoom":3.0,"id":40724},"arcs":[288]},{"type":"LineString","properties":{"source":"naturalearthdata.com","kind":"highway","sort_rank":383,"kind_detail":"motorway","min_zoom":3.0,"id":40739},"arcs":[289]},{"type":"LineString","properties":{"source":"naturalearthdata.com","kind":"highway","sort_rank":383,"kind_detail":"motorway","min_zoom":5.0,"id":40753},"arcs":[290]},{"type":"LineString","properties":{"source":"naturalearthdata.com","kind":"minor_road","sort_rank":355,"kind_detail":"tertiary","min_zoom":5.0,"id":40754},"arcs":[291]},{"type":"LineString","properties":{"source":"naturalearthdata.com","kind":"highway","sort_rank":383,"kind_detail":"motorway","min_zoom":5.0,"id":40762},"arcs":[292]},{"type":"LineString","properties":{"source":"naturalearthdata.com","kind":"highway","sort_rank":383,"kind_detail":"motorway","min_zoom":3.0,"id":40763},"arcs":[293]},{"type":"LineString","properties":{"source":"naturalearthdata.com","kind":"highway","kind_detail":"motorway","sort_rank":383,"landuse_kind":"urban_area","min_zoom":3.0,"id":40817},"arcs":[294]},{"type":"LineString","properties":{"source":"naturalearthdata.com","kind":"highway","kind_detail":"motorway","sort_rank":383,"landuse_kind":"urban_area","min_zoom":3.0,"id":40817},"arcs":[295]},{"type":"MultiLineString","properties":{"source":"naturalearthdata.com","kind":"highway","sort_rank":383,"kind_detail":"motorway","min_zoom":3.0,"id":40817},"arcs":[[296],[297]]},{"type":"LineString","properties":{"source":"naturalearthdata.com","kind":"highway","kind_detail":"motorway","sort_rank":383,"landuse_kind":"protected_area","min_zoom":3.0,"id":40826},"arcs":[298]},{"type":"LineString","properties":{"source":"naturalearthdata.com","kind":"highway","kind_detail":"motorway","sort_rank":383,"landuse_kind":"urban_area","min_zoom":3.0,"id":40826},"arcs":[299]},{"type":"MultiLineString","properties":{"source":"naturalearthdata.com","kind":"highway","sort_rank":383,"kind_detail":"motorway","min_zoom":3.0,"id":40826},"arcs":[[300],[301]]},{"type":"LineString","properties":{"source":"naturalearthdata.com","kind":"minor_road","kind_detail":"tertiary","sort_rank":355,"landuse_kind":"urban_area","min_zoom":5.0,"id":40827},"arcs":[302]},{"type":"LineString","properties":{"source":"naturalearthdata.com","kind":"highway","kind_detail":"motorway","sort_rank":383,"landuse_kind":"urban_area","min_zoom":3.0,"id":40872},"arcs":[303]},{"type":"LineString","properties":{"source":"naturalearthdata.com","kind":"highway","sort_rank":383,"kind_detail":"motorway","min_zoom":3.0,"id":40872},"arcs":[304]},{"type":"LineString","properties":{"source":"naturalearthdata.com","kind":"highway","kind_detail":"motorway","sort_rank":383,"landuse_kind":"urban_area","min_zoom":3.0,"id":40919},"arcs":[305]},{"type":"LineString","properties":{"source":"naturalearthdata.com","kind":"highway","kind_detail":"motorway","sort_rank":383,"landuse_kind":"urban_area","min_zoom":3.0,"id":40919},"arcs":[306]},{"type":"MultiLineString","properties":{"source":"naturalearthdata.com","kind":"highway","sort_rank":383,"kind_detail":"motorway","min_zoom":3.0,"id":40919},"arcs":[[307],[308]]},{"type":"LineString","properties":{"source":"naturalearthdata.com","kind":"minor_road","kind_detail":"tertiary","sort_rank":355,"landuse_kind":"urban_area","min_zoom":5.0,"id":40921},"arcs":[309]},{"type":"LineString","properties":{"source":"naturalearthdata.com","kind":"minor_road","sort_rank":355,"kind_detail":"tertiary","min_zoom":5.0,"id":40921},"arcs":[310]},{"type":"LineString","properties":{"source":"naturalearthdata.com","kind":"minor_road","sort_rank":355,"kind_detail":"tertiary","min_zoom":5.0,"id":40951},"arcs":[311]},{"type":"LineString","properties":{"source":"naturalearthdata.com","kind":"minor_road","sort_rank":355,"kind_detail":"tertiary","min_zoom":5.0,"id":40952},"arcs":[312]},{"type":"LineString","properties":{"source":"naturalearthdata.com","kind":"minor_road","sort_rank":355,"kind_detail":"tertiary","min_zoom":5.0,"id":40956},"arcs":[313]},{"type":"LineString","properties":{"source":"naturalearthdata.com","kind":"highway","sort_rank":383,"kind_detail":"motorway","min_zoom":3.0,"id":40962},"arcs":[314]},{"type":"LineString","properties":{"source":"naturalearthdata.com","kind":"minor_road","sort_rank":355,"kind_detail":"tertiary","min_zoom":5.0,"id":40964},"arcs":[315]},{"type":"LineString","properties":{"source":"naturalearthdata.com","kind":"minor_road","sort_rank":355,"kind_detail":"tertiary","min_zoom":5.0,"id":40965},"arcs":[316]},{"type":"LineString","properties":{"source":"naturalearthdata.com","kind":"major_road","kind_detail":"secondary","sort_rank":379,"landuse_kind":"nature_reserve","min_zoom":3.0,"id":41008},"arcs":[317]},{"type":"MultiLineString","properties":{"source":"naturalearthdata.com","kind":"major_road","sort_rank":379,"kind_detail":"secondary","min_zoom":3.0,"id":41008},"arcs":[[318],[319]]},{"type":"LineString","properties":{"source":"naturalearthdata.com","kind":"highway","kind_detail":"motorway","sort_rank":383,"landuse_kind":"urban_area","min_zoom":4.0,"id":41020},"arcs":[320]},{"type":"LineString","properties":{"source":"naturalearthdata.com","kind":"highway","sort_rank":383,"kind_detail":"motorway","min_zoom":4.0,"id":41020},"arcs":[321]},{"type":"LineString","properties":{"source":"naturalearthdata.com","kind":"highway","kind_detail":"motorway","sort_rank":383,"landuse_kind":"urban_area","min_zoom":3.0,"id":41042},"arcs":[322]},{"type":"LineString","properties":{"source":"naturalearthdata.com","kind":"highway","kind_detail":"motorway","sort_rank":383,"landuse_kind":"urban_area","min_zoom":3.0,"id":41042},"arcs":[323]},{"type":"LineString","properties":{"source":"naturalearthdata.com","kind":"highway","sort_rank":383,"kind_detail":"motorway","min_zoom":3.0,"id":41042},"arcs":[324]},{"type":"LineString","properties":{"source":"naturalearthdata.com","kind":"minor_road","kind_detail":"tertiary","sort_rank":355,"landuse_kind":"urban_area","min_zoom":5.0,"id":41054},"arcs":[325]},{"type":"LineString","properties":{"source":"naturalearthdata.com","kind":"minor_road","sort_rank":355,"kind_detail":"tertiary","min_zoom":5.0,"id":41066},"arcs":[326]},{"type":"LineString","properties":{"source":"naturalearthdata.com","kind":"highway","kind_detail":"motorway","sort_rank":383,"landuse_kind":"urban_area","min_zoom":3.0,"id":41070},"arcs":[327]},{"type":"LineString","properties":{"source":"naturalearthdata.com","kind":"highway","sort_rank":383,"kind_detail":"motorway","min_zoom":3.0,"id":41070},"arcs":[328]},{"type":"LineString","properties":{"source":"naturalearthdata.com","kind":"highway","sort_rank":383,"kind_detail":"motorway","min_zoom":6.0,"id":41071},"arcs":[329]},{"type":"LineString","properties":{"source":"naturalearthdata.com","kind":"highway","sort_rank":383,"kind_detail":"motorway","min_zoom":3.0,"id":41076},"arcs":[330]},{"type":"LineString","properties":{"source":"naturalearthdata.com","kind":"minor_road","sort_rank":355,"kind_detail":"tertiary","min_zoom":5.0,"id":41090},"arcs":[331]},{"type":"LineString","properties":{"source":"naturalearthdata.com","kind":"minor_road","kind_detail":"tertiary","sort_rank":355,"landuse_kind":"urban_area","min_zoom":5.0,"id":41093},"arcs":[332]},{"type":"LineString","properties":{"source":"naturalearthdata.com","kind":"minor_road","sort_rank":355,"kind_detail":"tertiary","min_zoom":5.0,"id":41093},"arcs":[333]},{"type":"LineString","properties":{"source":"naturalearthdata.com","kind":"major_road","sort_rank":379,"kind_detail":"secondary","min_zoom":3.0,"id":41095},"arcs":[334]},{"type":"LineString","properties":{"source":"naturalearthdata.com","kind":"highway","sort_rank":383,"kind_detail":"motorway","min_zoom":3.0,"id":41158},"arcs":[335]},{"type":"LineString","properties":{"source":"naturalearthdata.com","kind":"major_road","kind_detail":"secondary","sort_rank":379,"landuse_kind":"urban_area","min_zoom":3.0,"id":41176},"arcs":[336]},{"type":"MultiLineString","properties":{"source":"naturalearthdata.com","kind":"major_road","sort_rank":379,"kind_detail":"secondary","min_zoom":3.0,"id":41176},"arcs":[[337],[338]]},{"type":"LineString","properties":{"source":"naturalearthdata.com","kind":"highway","sort_rank":383,"kind_detail":"motorway","min_zoom":5.0,"id":41177},"arcs":[339]},{"type":"MultiLineString","properties":{"source":"naturalearthdata.com","kind":"highway","kind_detail":"motorway","sort_rank":383,"landuse_kind":"urban_area","min_zoom":3.0,"id":41216},"arcs":[[340],[341],[342]]},{"type":"LineString","properties":{"source":"naturalearthdata.com","kind":"highway","kind_detail":"motorway","sort_rank":383,"landuse_kind":"urban_area","min_zoom":3.0,"id":41216},"arcs":[343]},{"type":"MultiLineString","properties":{"source":"naturalearthdata.com","kind":"highway","sort_rank":383,"kind_detail":"motorway","min_zoom":3.0,"id":41216},"arcs":[[344],[345],[346],[347],[348]]},{"type":"LineString","properties":{"source":"naturalearthdata.com","kind":"minor_road","sort_rank":355,"kind_detail":"tertiary","min_zoom":5.0,"id":41221},"arcs":[349]},{"type":"LineString","properties":{"source":"naturalearthdata.com","kind":"minor_road","kind_detail":"tertiary","sort_rank":355,"landuse_kind":"urban_area","min_zoom":5.0,"id":41228},"arcs":[350]},{"type":"LineString","properties":{"source":"naturalearthdata.com","kind":"minor_road","sort_rank":355,"kind_detail":"tertiary","min_zoom":5.0,"id":41228},"arcs":[351]},{"type":"LineString","properties":{"source":"naturalearthdata.com","kind":"minor_road","sort_rank":355,"kind_detail":"tertiary","min_zoom":5.0,"id":41232},"arcs":[352]},{"type":"LineString","properties":{"source":"naturalearthdata.com","kind":"minor_road","sort_rank":355,"kind_detail":"tertiary","min_zoom":5.0,"id":41342},"arcs":[353]},{"type":"LineString","properties":{"source":"naturalearthdata.com","kind":"minor_road","kind_detail":"tertiary","sort_rank":355,"landuse_kind":"urban_area","min_zoom":5.0,"id":41420},"arcs":[354]},{"type":"MultiLineString","properties":{"source":"naturalearthdata.com","kind":"minor_road","sort_rank":355,"kind_detail":"tertiary","min_zoom":5.0,"id":41420},"arcs":[[355],[356]]},{"type":"LineString","properties":{"source":"naturalearthdata.com","kind":"minor_road","sort_rank":355,"kind_detail":"tertiary","min_zoom":5.0,"id":41472},"arcs":[357]}]},"earth":{"type":"GeometryCollection","geometries":[{"type":"MultiPolygon","properties":{"sort_rank":10,"source":"naturalearthdata.com","min_zoom":0.0,"kind":"earth","area":320865930757},"arcs":[[[358]],[[359]],[[360]],[[361]],[[362]],[[363]],[[364]],[[365]],[[366]],[[367]],[[368]],[[369]],[[370]],[[371]],[[372]],[[373]],[[374]],[[375]],[[376]],[[377]],[[378]],[[379]],[[380]],[[381]],[[382]],[[383]],[[384]],[[385]],[[386]],[[387]],[[388]],[[389]],[[390]],[[391]],[[392]],[[393]],[[394]],[[395]],[[396]],[[397]]]}]},"landuse":{"type":"GeometryCollection","geometries":[{"type":"Polygon","properties":{"source":"openstreetmap.org","kind":"nature_reserve","area":1260099968,"tier":2,"id":197886608,"min_zoom":4.0,"sort_rank":23},"arcs":[[398]]},{"type":"MultiPolygon","properties":{"source":"naturalearthdata.com","kind":"urban_area","name":"","area":2996067208,"sort_rank":11,"min_zoom":4.0},"arcs":[[[399]],[[400]],[[401]],[[402]],[[403]],[[404]],[[405]],[[406]],[[407]],[[408]],[[409]],[[410]],[[411]],[[412]],[[413]],[[414]],[[415],[416],[417]]]},{"type":"Polygon","properties":{"kind":"protected_area","area":980334016,"sort_rank":17,"source":"openstreetmap.org","min_zoom":6.0,"tier":2,"id":-4462678,"osm_relation":true},"arcs":[[418],[419]]},{"type":"Polygon","properties":{"kind":"protected_area","protect_class":"2","area":4476279808,"sort_rank":17,"source":"openstreetmap.org","min_zoom":4.0,"tier":2,"id":-2790348,"osm_relation":true},"arcs":[[420]]},{"type":"MultiPolygon","properties":{"source":"openstreetmap.org","kind":"nature_reserve","tier":2,"area":1292529972,"sort_rank":23,"min_zoom":6.0},"arcs":[[[421]]]},{"type":"MultiPolygon","properties":{"source":"openstreetmap.org","kind":"park","tier":2,"area":6427726369,"sort_rank":24,"min_zoom":4.0,"osm_relation":true},"arcs":[[[422]]]}]}},"type":"Topology","transform":{"translate":[101.25,-0.0],"scale":[0.001373291,0.0013710903]},"arcs":[[[2052,932],[-2,35],[0,51],[-10,15],[-19,2],[-21,-5],[-16,-1],[-17,-2],[-12,5],[-10,4],[-26,12],[-33,18],[-22,-1],[-15,-6],[-13,-7],[-19,-2],[-19,1],[-18,-4],[-14,-13],[-13,-22],[-58,-82],[16,-51]],[[1597,3041]],[[902,1527],[0,-1]],[[538,1744]],[[343,1893]],[[1419,759],[18,-30],[18,-40],[11,-48],[-7,-40],[11,-37],[26,-48],[36,-51],[33,-26],[48,-30],[63,-7]],[[983,1766],[-16,-10],[-17,-8],[-6,-5],[-14,-18],[-4,-7],[-1,-4],[0,-3],[2,-8],[0,-2],[-1,-6],[-14,-38],[-2,-8],[0,-3],[0,-3],[2,-5],[0,-4],[0,-5],[-1,-3],[-2,-2],[-12,-11],[-1,-3],[1,-2],[2,-5],[2,-4],[1,-2],[2,-1],[5,-1],[11,-5],[4,-3],[2,0],[6,-1],[2,-1],[2,-2],[1,-4],[1,-6],[-1,-15],[-2,-6],[-3,-3],[-2,0]],[[930,1549],[-8,1]],[[922,1550],[-7,-4],[-13,-19]],[[1059,2071],[-4,-22],[-41,-108],[-6,-20],[0,-4],[0,-4],[3,-5],[3,-5],[0,-3],[-1,-2],[-5,-5],[-2,-4],[-3,-4],[-4,-10],[-2,-7],[-1,-8],[0,-4],[1,-4],[2,-3],[1,-6],[-1,-3],[-4,-9],[-1,-4],[2,-8],[2,-7],[0,-2],[0,-4],[-2,-4],[-9,-10],[-2,-7],[-2,-19]],[[997,3487],[2,-1],[8,-6],[6,-2],[14,0]],[[982,3423],[3,1],[2,2],[1,2],[0,3],[0,6],[-2,11],[-1,2],[-3,4],[0,2],[0,3],[0,2],[1,2],[3,5],[0,2],[1,3],[0,2],[0,4],[1,3],[3,4],[3,1],[3,0]],[[402,3474],[4,0],[3,-1],[2,-1],[1,-2],[1,-2],[1,-3],[1,-6],[0,-6],[0,-3],[0,-3],[2,-2],[2,-1],[3,0],[5,-1],[3,-1],[2,-1],[1,-2],[1,-2],[1,-2],[1,-3],[0,-3],[0,-3],[1,-2],[2,-1],[4,-1],[3,-1],[2,-1],[4,-3],[12,-7],[2,-2],[1,-2],[2,-2],[0,-2],[0,-3],[0,-3],[-1,-5],[0,-3],[0,-2],[4,-10],[1,-2],[1,-2],[3,-2],[5,-2]],[[273,3323],[17,4],[5,2],[4,2],[4,6],[2,4],[4,4],[6,4],[22,12],[5,3],[6,7],[4,2],[17,4],[5,2],[3,2],[1,2],[1,2],[3,10],[0,6],[0,15],[2,17],[1,3],[-1,19],[0,4],[3,7],[2,4],[3,2],[4,1],[6,1]],[[547,3474],[2,-1],[1,-2],[7,-10],[2,-1],[3,0]],[[532,3466],[5,0],[3,2],[3,4],[2,2],[2,0]],[[523,3474],[2,-1],[2,-4],[2,-2],[3,-1]],[[482,3368],[3,1],[1,1],[0,9],[1,3],[1,2],[2,5],[4,6],[8,7],[2,2],[2,5],[7,32],[1,6],[0,6],[-1,3],[-1,2],[1,4],[1,4],[6,6],[3,2]],[[631,3471],[1,-1],[2,-2],[4,-12],[1,-2],[0,-6],[0,-2],[1,-3],[1,-1],[27,-20],[4,-6],[2,-1],[1,-3],[0,-3],[0,-3],[1,-2],[0,-3],[2,-1],[2,-1],[3,-1],[2,-1],[2,-2],[1,-2],[2,-4],[1,-2],[3,-2],[3,-1],[15,-2]],[[577,3453],[8,0],[40,17],[6,1]],[[565,3460],[2,0],[2,-1],[4,-3],[4,-3]],[[562,3460],[3,0]],[[845,3441],[3,0],[5,-2],[4,-1],[3,0]],[[787,3386],[6,1],[3,1],[5,9],[1,2],[6,7],[9,10],[1,3],[1,2],[-1,2],[-1,2],[-1,3],[1,3],[7,6],[6,2],[9,2],[6,0]],[[867,3438],[4,0],[3,-1],[2,-2],[4,-6],[3,-3],[13,-7],[7,-6],[3,-1],[3,-2],[6,-1]],[[860,3438],[7,0]],[[948,3434],[3,0],[2,-2],[2,-2],[1,-1],[2,-2],[3,-1],[11,-1],[10,-2]],[[915,3409],[4,0],[3,1],[5,3],[5,4],[1,1],[4,3],[1,2],[2,2],[3,5],[3,3],[2,1]],[[748,3400],[4,0],[14,-9],[4,-1],[6,-2],[11,-2]],[[712,3382],[8,10],[2,1],[5,2],[15,5],[6,0]],[[94,3364],[29,-7],[9,-3],[10,-10],[2,-2],[10,-7],[8,-2],[5,0]],[[198,3355],[9,-2],[5,-1],[3,-2],[1,-2],[3,-2],[3,-2],[11,-4],[3,-1],[5,-5],[8,-8]],[[167,3333],[2,2],[0,3],[0,3],[1,3],[1,2],[2,2],[9,2],[3,1],[4,2],[9,2]],[[260,3328],[6,-2],[3,-3],[4,0]],[[249,3326],[11,2]],[[566,2352],[-13,1],[-4,1],[-3,1],[-2,2],[-2,1],[-3,3],[-5,3],[-1,1],[-2,2],[-1,2],[0,3],[-3,5],[-5,5],[-13,9],[-7,3],[-4,1]],[[498,2395],[-2,-2],[-1,-2],[0,-3],[-1,-2],[-1,-2],[-3,-2],[-1,-1],[-4,-3]],[[600,2313],[-4,0],[-2,2],[-1,2],[0,3],[-1,8],[0,3],[-1,2],[-1,3],[-2,8],[-2,3],[-4,4],[-3,2],[-3,0]],[[576,2353],[-10,-1]],[[1037,2108],[-2,0],[-2,1],[-147,100],[-22,28],[-1,2],[-29,32],[-5,3],[-56,9],[-5,1],[-91,30],[-29,14],[-7,2],[-4,0]],[[637,2330],[-2,-2],[-1,-1],[-2,-2],[-8,-1],[-3,-1],[-2,-1],[-6,-4],[-6,-3],[-7,-2]],[[1059,2071],[-7,34],[-5,8]],[[1047,2113],[-2,-1],[-2,-2],[-2,-1],[-1,-1],[-3,0]],[[741,1797],[-30,6],[-19,7],[-12,7],[-3,1]],[[677,1818],[-1,0],[-3,-2],[-12,-13],[-2,-1],[-4,-2],[-31,-9],[-4,0]],[[983,1766],[-104,24],[-11,7],[-42,18],[-23,0]],[[803,1815],[-7,-1],[-49,-17],[-6,0]],[[620,1791],[-14,4]],[[606,1795],[-3,0],[-2,-1],[-1,-1],[-1,-2],[1,-8],[-1,-1],[-2,-1],[-2,-2],[-2,-2],[-3,-7],[-2,-1]],[[588,1769],[-2,1],[-2,1],[-1,2],[-3,5]],[[580,1778],[-12,-15],[-7,-6],[-23,-13]],[[1027,3478],[16,-29],[6,-8],[11,-7],[14,-10],[7,-4],[13,-4],[5,-1],[5,-1],[13,-2],[12,0]],[[1150,3414],[11,-4],[13,-12],[7,-8],[1,-2],[2,-6],[1,-4],[2,-9],[1,-5],[-1,-2],[-2,-2],[-2,-3],[-1,-16],[-1,-3],[-1,-2],[-1,-2],[-2,-1],[-2,-2],[-8,-2],[-2,-1],[-2,-2],[-1,-4],[-2,-6],[1,-6],[1,-7],[4,-13],[2,-6],[3,-3],[6,-4],[5,-6],[4,-6],[3,-3],[3,-2],[9,0],[3,-1],[2,0]],[[1129,3412],[21,2]],[[1253,3266],[3,-2],[25,-23],[2,-3],[1,-3],[0,-8],[2,-6],[1,-2],[5,-1],[1,-9],[-4,-10],[-6,-11],[-1,-5],[-1,-4],[4,-12],[-1,-3],[-1,-2],[-5,0]],[[1237,3250],[2,0],[2,1],[1,3],[1,5],[1,2],[2,2],[2,1],[2,2],[3,0]],[[1215,3259],[8,0],[3,-1],[2,-1],[3,-2],[4,-4],[2,-1]],[[1206,3259],[6,0],[3,0]],[[1278,3162],[-3,0],[-6,1],[-2,1]],[[1267,3164],[-3,0],[-4,-2],[-4,-2],[-7,-6],[-3,-3],[-2,-4],[-4,-11],[-3,-5],[-6,-6],[-3,-5],[-2,-3],[0,-3],[-2,-13],[-7,-29],[1,-12],[0,-6],[-1,-10],[-2,-5],[-1,-4],[-9,-12],[-1,-3],[0,-3],[7,-12],[3,-4],[2,-1],[2,-2],[2,-1],[2,0]],[[1508,3059],[6,-2],[2,-2],[2,-1],[1,-2],[2,-2],[2,-1],[3,0],[53,-2],[10,-3],[5,-1],[3,-2]],[[1508,2826],[1,1],[1,3],[-3,16],[1,3],[1,2],[2,1],[1,2],[2,1],[3,4],[4,6],[2,5],[1,8],[1,2],[-1,3],[0,3],[-6,20],[-6,11],[0,1],[-1,0],[-1,4],[0,2],[0,3],[1,6],[1,5],[0,3],[1,3],[-1,6],[-2,5],[-1,1],[-1,2],[-2,1],[-5,3],[-2,1],[-1,2],[-1,2],[-1,3],[-1,5],[0,3],[0,3],[3,17],[1,2],[2,2],[3,3],[1,2],[3,4],[1,2],[1,3],[1,6],[0,6],[-2,11],[0,3],[-3,14],[0,3],[2,0]],[[1280,3016],[4,-4],[2,-1],[2,-1],[9,-4],[20,-4],[5,-2],[3,-2],[3,-3],[5,-4],[25,-9],[3,-1],[2,-1],[1,-2],[1,-2],[1,-3],[1,-2],[2,-1],[2,-2],[2,-1],[2,-5],[3,-2],[4,-3],[4,-2],[17,-11],[5,-2]],[[1222,2997],[8,0],[39,17],[11,2]],[[1420,2946],[2,-1],[2,-2],[0,-6],[1,-3],[2,-2],[3,-4],[3,-1]],[[1408,2942],[3,0],[5,3],[4,1]],[[1446,2931],[3,-1],[1,-2],[1,-11],[1,-1],[2,-4],[2,-4],[6,-8],[11,-11],[3,-4],[1,-2],[1,-3],[-1,-2],[-1,-6],[1,-2],[1,-3],[8,-9],[2,-4],[7,-16],[2,-3],[2,-3],[6,-5],[3,-1]],[[1433,2927],[2,1],[3,1],[3,2],[5,0]],[[931,3575],[-8,3],[-3,3],[-2,4],[1,14],[2,6],[-2,12],[-7,20],[-1,6],[0,3],[0,1],[-1,0],[0,1],[1,1],[0,2],[2,2],[2,1],[2,1],[2,1],[2,3],[0,4],[-8,35],[0,4],[1,2],[2,1],[5,1],[2,2],[1,2],[1,2],[0,3],[1,2],[4,4],[1,3],[-1,2],[-6,4],[-7,8],[-3,2],[-2,1],[-2,1],[-3,2],[-4,2],[-10,12],[-2,1],[-6,3],[-3,3],[-3,2],[-2,1],[-3,0],[-3,0],[-2,1],[-4,3],[-2,1],[-10,3],[-5,2],[-1,3],[-1,3],[5,12],[1,5],[0,3],[0,3],[-2,11],[2,42],[2,17],[1,3],[8,18],[4,18],[-2,7],[-3,3],[-16,14],[-11,14],[-2,4],[1,3],[2,1],[2,7],[-1,11],[-5,43],[1,8],[5,4],[2,2],[1,2],[-1,39],[2,12],[-1,5],[0,1]],[[1027,3478],[4,11],[0,5],[-7,16],[-2,3],[-2,2],[-4,6],[-2,6],[-1,10],[-1,4],[-3,2],[-5,2],[-2,1],[-37,25],[-18,9],[-2,0],[-3,0]],[[942,3580],[-2,0],[-2,-2],[-1,-2],[-3,-1],[-3,0]],[[1059,2071],[32,-11],[38,-15],[10,-7],[104,-124],[26,-21],[114,-47],[4,-1]],[[1725,1784],[2,1],[0,3],[-1,3],[0,1],[1,2],[1,2],[8,10],[1,3],[0,2],[1,5],[-1,4],[0,4],[-2,4],[-2,4],[-4,4],[-2,2],[-2,0],[-7,2],[-2,1],[-2,2],[-1,2],[0,1],[0,1],[0,2],[2,5],[1,2],[5,6],[1,1],[0,1],[0,2],[-3,9],[-1,3],[1,2],[2,2],[2,2],[1,1],[2,4],[1,2],[1,4],[1,3],[-1,2],[-1,2],[-2,3],[-1,3],[-2,1],[-2,2],[-6,3],[-1,1],[-2,2],[0,3],[3,4],[16,8],[2,1],[6,10],[3,5]],[[1530,1892],[10,0],[9,-5],[9,-6],[41,-16],[4,-3],[6,-7],[4,-5],[2,-2],[103,-62],[7,-2]],[[1387,1845],[3,0],[109,41],[31,6]],[[192,2680],[-2,1],[-2,1],[-1,1],[-1,2],[-5,7],[-2,2],[-2,1],[-4,2],[-2,2],[-2,1],[-1,2],[-2,2],[-1,2],[-3,1],[-6,2],[-2,1],[-1,1],[-1,2],[-3,9],[-2,2],[-5,7],[-2,2],[-2,1],[-2,1],[-9,1],[-6,2],[-4,2],[-2,2],[-2,1],[-4,2],[-1,1],[-2,2],[-2,1],[-2,2],[-1,2],[-1,2],[-1,3],[-2,3],[-2,2],[-7,4],[-7,0]],[[81,2767],[-10,-1],[-4,-1],[-4,-1],[-2,-1],[-1,-2],[-1,-3],[-1,-2],[-2,-5],[-1,-2],[0,-2],[0,-2],[2,-2],[4,-5],[1,-2],[4,-10],[3,-12],[2,-13],[-7,-10],[-16,-9],[-7,-3],[-18,-3],[-12,-1]],[[274,2751],[-13,-4],[-2,-2],[-3,-3],[-2,-4],[-25,-33],[-15,-15],[-8,-5],[-6,-3],[-3,-1],[-5,-1]],[[11,2675],[-2,1],[-3,1],[-2,2],[-1,1],[-1,2],[-2,5]],[[340,2338],[-6,1],[-17,8],[-9,9],[-3,1]],[[305,2357],[-3,0],[-1,-1],[-1,-1],[-5,-4],[-9,-5],[-2,-1],[0,-1],[-3,-5],[-10,-18],[0,-3],[2,-25],[1,-2],[3,-6],[1,-2],[2,-2],[3,-2],[9,-5],[2,-3],[2,-3],[0,-3],[1,-4],[0,-2],[1,-1],[1,0],[1,-1],[1,-2],[1,-4],[1,-3],[0,-2],[-1,-2],[-4,-6],[-2,-2],[0,-3],[0,-3],[2,-5],[1,-4],[1,-3],[2,-3],[4,-1],[5,0]],[[348,2208],[2,2],[2,3],[1,4],[2,2],[2,1],[3,1],[2,0],[2,2],[2,3],[0,4],[-3,28],[-4,14],[-1,8],[1,5],[1,2],[3,3],[1,3],[1,10],[2,3],[5,5],[1,2],[1,3],[-1,5],[-1,4],[-3,6],[-3,8],[-3,3],[-2,3],[-2,1]],[[359,2346],[-4,-1],[-7,-3],[-3,-2],[-5,-2]],[[335,2216],[5,0],[2,-1],[2,-1],[1,-2],[1,-3],[2,-1]],[[311,2214],[4,0],[20,2]],[[274,2751],[21,-33],[9,-8],[5,-2],[12,-7],[4,-1]],[[328,2700],[5,0],[3,0],[15,-6],[25,-14],[4,-4],[3,-7],[1,-2],[3,-3],[1,-2],[1,-3],[1,-2],[3,-8],[10,-15],[7,-10],[1,-7],[-5,-22],[-1,-3],[-2,-2],[-2,-2],[-2,-1],[-4,-2],[-3,-1],[-2,-1],[-12,-24],[-3,-7],[-1,-5],[1,-2],[0,-3],[1,-2],[1,-3],[5,-8],[2,-4],[1,-3],[5,-23],[0,-4],[-1,-3],[-6,-12],[-8,-20],[48,-61],[2,-1],[2,-1],[8,-2],[27,-13],[4,-2],[19,-2]],[[325,2700],[3,0]],[[314,2096],[5,2],[11,9],[3,5],[3,6],[14,18],[0,13],[-5,7],[-6,5],[-2,13]],[[337,2174],[-6,-3],[-3,-1],[-4,-2],[-10,-2],[-5,-3],[-2,-4],[2,-4],[2,-4],[1,-3],[-3,-3],[0,-5],[3,-11],[-1,-4],[-1,-2],[-2,-4],[-2,-2],[-2,-6],[0,-6],[3,-5],[4,-3],[3,-1]],[[485,2378],[4,0],[4,-3],[2,-1],[3,-4],[2,-7],[5,-9],[2,-5],[0,-2],[0,-3],[-2,-19],[1,-3],[0,-3],[3,-7],[5,-8],[1,-2],[1,-3],[2,-5],[0,-2],[1,-6],[-4,-22],[-1,-11],[2,-11],[0,-12],[4,-10],[0,-5],[-1,-3],[-1,-2],[-4,-2],[-6,-3],[-2,-1],[-2,-3],[-2,-5],[-3,-9],[-2,-10],[1,-6],[-1,-3],[-1,-5],[-2,-3],[-2,-2],[-14,-10],[-1,-2],[-2,-2],[-2,-4],[-3,-14],[-3,-17],[-2,-8],[-2,-3],[-4,-4],[-9,-7],[-5,-2],[-4,-1]],[[441,2084],[-3,0],[-27,5],[-22,1]],[[389,2090],[-7,0],[-10,-2],[-1,0],[0,-6],[0,-12],[8,-43],[2,-30],[-18,-39],[-6,-10],[-1,-3],[-1,-13],[-2,-6],[-4,-6],[-4,-9],[-2,-18]],[[91,3210],[-3,1],[-4,3],[-8,12],[-9,6],[7,11],[4,4],[2,1],[2,3],[1,4],[3,7],[5,13],[3,2],[2,1],[2,1],[1,3],[0,4],[-3,7],[-7,7],[-2,2],[0,2],[-4,15],[-1,5],[1,12],[11,28]],[[198,3010],[-3,5],[-3,8],[-4,19],[0,9],[0,5],[3,4],[0,2],[-1,2],[-3,2],[-7,2],[-2,1],[-10,2],[-7,4],[-3,1],[-1,2],[-1,4],[1,9],[1,4],[2,3],[0,3],[-1,3],[-4,5],[-2,2],[-4,8],[-2,31],[-2,7],[-3,2],[-5,4],[-3,2],[-1,3],[1,3],[1,2],[3,4],[2,5],[1,2],[2,5],[0,2],[0,3],[0,2],[-2,2],[-3,2],[-9,1],[-33,11]],[[96,3212],[-5,-2]],[[274,2751],[-7,11],[-6,3],[-3,0],[-2,1],[-2,4],[-1,6],[4,31],[0,8],[-1,5],[-3,6],[-6,7],[-2,4],[-4,12],[-5,54],[-1,6],[-8,8],[0,1],[-1,2],[3,13],[15,44],[-18,25],[-7,6],[-3,2],[-5,3],[-3,1]],[[208,3014],[-2,-1],[-6,-3],[-2,0]],[[311,4023],[-3,1],[-2,1],[-1,3],[1,4],[4,14],[6,9],[2,8],[1,3],[-1,5],[-1,9],[-2,4],[-2,3],[-5,3],[-2,2],[-2,2],[-1,2]],[[330,4018],[-3,1],[-5,4],[-3,1],[-2,0]],[[317,4024],[-6,-1]],[[343,3900],[2,0],[3,1],[3,2],[9,6],[2,2],[2,5],[1,3],[-4,10],[2,21],[1,8],[1,3],[-1,5],[-3,8],[0,6],[1,6],[3,6],[1,3],[0,2],[0,4],[0,4],[-2,5],[-3,6],[-3,2],[-3,1],[-3,0],[-2,1],[-4,2],[-2,1]],[[344,4023],[-3,-1],[-2,0],[-4,-3],[-3,-1],[-2,0]],[[270,3909],[4,-2],[6,-6],[2,-1],[2,-1],[6,0],[6,-1],[4,-2],[8,-5],[2,-1]],[[214,3846],[3,0],[2,2],[3,4],[2,6],[3,2],[11,10],[3,4],[2,4],[-1,3],[0,2],[0,3],[2,4],[4,3],[9,7],[4,3],[3,3],[1,2],[2,1],[3,0]],[[331,3901],[3,0],[3,0],[3,-1],[3,0]],[[310,3890],[3,1],[5,5],[3,3],[6,2],[4,0]],[[205,3847],[5,0],[4,-1]],[[96,3432],[2,1],[2,2],[1,4],[0,10],[-1,8],[-1,3],[-1,2],[0,3],[1,2],[4,3],[4,1],[2,0],[3,2],[2,4],[3,8],[2,4],[2,3],[1,1],[1,3],[0,4],[-2,7],[-5,11],[0,2],[1,3],[3,3],[4,8],[2,1],[2,1],[6,1],[3,0],[5,1],[3,2],[2,4],[7,21],[1,6],[0,3],[-5,29],[-2,5],[-7,7],[-6,13],[11,9],[2,2],[2,4],[1,5],[0,7],[1,3],[2,5],[2,4],[1,2],[2,12],[0,6],[1,5],[1,4],[9,16],[1,5],[1,4],[-1,3],[1,3],[1,3],[2,5],[1,3],[0,3],[0,3],[-1,6],[1,4],[1,4],[1,7],[0,6],[2,11],[1,3],[2,3],[10,15],[2,3],[0,3],[0,12],[1,3],[4,8],[1,4],[1,7],[1,2],[2,2]],[[91,3433],[2,-1],[3,0]],[[94,3364],[-6,20],[-6,11],[-14,20],[9,13],[2,1],[3,1],[2,1],[3,1],[2,1],[2,0]],[[162,2217],[-25,4],[-30,-40]],[[315,2333],[3,-47]],[[318,2286],[-1,0]],[[317,2286],[-11,-28]],[[306,2258]],[[306,2258],[-94,-25]],[[103,2188],[0,-1],[0,1]],[[111,2198],[0,-1],[0,1]],[[117,2203]],[[127,2213]],[[133,2218]],[[145,2220],[1,-1],[-1,1]],[[306,2258]],[[306,2258]],[[317,2286],[1,0]],[[318,2286],[-1,-1],[0,1]],[[317,2286]],[[0,2421],[24,-21],[11,-12],[4,-14],[14,-95],[5,-9],[21,-17],[5,-9],[5,-35],[0,-19],[-8,-8],[-10,-5],[-11,-9],[-36,-45],[-1,-9],[16,-3],[-13,-33],[18,-11],[33,-3],[32,-8],[22,-19],[36,-55],[17,-20],[29,-21],[16,-7],[24,-4],[15,-7],[40,-7],[13,-9],[7,-8],[9,-5],[35,-3],[10,-4],[6,-8],[15,-42],[10,-12],[7,-6],[5,-2],[13,-9],[3,-20],[2,-23],[5,-19],[9,11],[23,1],[13,9],[21,-13],[12,-5],[12,-3],[-1,-12],[8,-12],[15,-8],[15,-3],[8,-4],[56,-61],[19,-15],[25,-14],[117,-49],[102,-42],[28,-16],[13,-9],[9,-9],[1,-4],[1,-3],[-1,-2],[-6,-1],[5,-10],[8,-9],[60,-47],[12,-15],[14,-31],[9,-14],[17,-9],[12,0],[36,5],[12,5],[23,-11],[20,-13],[17,-15],[14,-17],[12,-19],[9,-7],[12,-3],[16,-2],[17,-5],[29,-14],[123,-76],[87,-33],[31,-20],[20,-23],[14,-28],[23,-80],[7,-14],[10,-14],[25,-22],[9,-14],[11,25],[13,19],[2,8],[-1,6],[-4,11],[0,8],[2,4],[6,-5],[5,-8],[2,-3],[25,-5],[22,18],[37,47],[12,6],[11,1],[30,-2],[15,3],[29,15],[19,2],[63,-33],[35,-8],[26,21],[2,11],[-2,11],[-3,11],[-2,9],[4,20],[0,11],[-28,43],[-7,20],[4,9],[16,-11],[17,-26],[23,-48],[5,-13],[2,-5],[6,2],[24,19],[12,7],[13,3],[14,-3],[-18,-20],[-27,-11],[-19,-13],[4,-26],[7,-8],[10,-6],[9,-8],[4,-11],[-1,-14],[1,-7],[6,-5],[29,-12],[14,-3],[33,-1],[4,2],[7,11],[4,2],[27,0],[4,11],[-2,32],[6,7],[5,8],[-1,18],[-7,34],[-15,40],[-5,30],[-5,10],[4,7],[-5,10],[-9,10],[-4,10],[-1,25],[-4,10],[-14,19],[-6,34],[-21,35],[-4,0],[-9,-7],[-10,9],[-8,15],[-3,15],[2,32],[-2,14],[-5,16],[-5,8],[-15,18],[-5,8],[-9,18],[-13,18],[-19,46],[-34,42],[-5,15],[2,9],[7,14],[2,7],[-3,8],[-13,16],[-5,8],[-1,8],[0,15],[-4,8],[-5,4],[-16,12],[-6,6],[-54,68],[-5,14],[0,14],[7,16],[-19,42],[-9,11],[-25,20],[-2,7],[2,6],[-2,5],[-11,4],[-17,-8],[-7,-1],[-8,2],[-11,10],[-4,3],[-13,0],[-11,2],[-8,4],[-2,1],[-86,85],[-34,45],[-23,52],[-5,29],[15,177],[-3,14],[-5,15],[-12,90],[4,30],[35,75],[-24,-5],[10,22],[-17,24],[-25,24],[-13,18],[-2,9],[-28,61],[-4,13],[-1,14],[3,10],[6,13],[7,9],[13,0],[2,13],[-1,27],[3,24],[8,33],[12,21],[17,-10],[2,18],[-27,67],[-5,23],[1,13],[6,12],[16,19],[5,5],[6,2],[2,1],[4,2],[5,8],[-5,19],[0,6],[2,6],[11,12],[4,4],[6,9],[10,26],[2,8],[-2,22],[-24,67],[2,11],[-9,33],[5,14],[7,14],[1,17],[-12,110],[-7,30],[-1,17],[5,21],[0,9],[-4,7],[-13,15],[-3,5],[-4,14],[-43,78],[-72,121],[-26,62],[-74,117],[-68,76],[-37,33],[-12,8],[-30,6],[-31,16],[-41,32],[2953,0],[0,-4096],[-1650,0],[-15,6],[-12,7],[-5,9],[-1,-6],[-3,-9],[-1,-5],[-15,14],[-7,-16],[-526,0],[4,6],[2,8],[-4,3],[-6,8],[-29,150],[-12,27],[-10,12],[-14,13],[-15,11],[-19,6],[-6,4],[-8,4],[-8,0],[-7,-4],[-5,-7],[-8,-14],[-14,48],[-34,42],[-43,35],[-44,25],[-23,10],[-20,4],[-19,-3],[-20,-14],[-21,-10],[-41,-8],[-16,-14],[-15,-31],[-11,-13],[-16,-6],[-15,-2],[-18,-4],[-16,-7],[-14,-7],[-36,-35],[-11,-5],[-14,-4],[-52,-33],[-12,-4],[-49,-6],[-40,-18],[-16,-2],[-33,4],[-13,-4],[-8,-5],[-17,-7],[-8,-6],[-4,-4],[-6,-11],[-5,-5],[-25,-11],[-23,7],[-21,17],[-16,18],[-7,9],[-4,4],[-6,1],[-17,0],[-7,2],[-6,6],[5,2],[16,-1],[19,-4],[12,-5],[25,-26],[13,-10],[20,-4],[7,4],[15,26],[6,5],[5,4],[14,6],[50,11],[12,6],[11,9],[83,42],[28,6],[16,10],[29,21],[55,25],[28,16],[13,19],[-7,34],[-20,31],[-74,86],[-26,23],[-30,14],[-70,3],[-83,14],[-14,-1],[-23,-8],[-16,-1],[-31,1],[-14,3],[-17,6],[-33,18],[-28,22],[-76,82],[-59,47],[-23,31],[-10,30],[-1,28],[6,57],[-3,13],[-8,13],[-10,10],[-12,4],[-7,8],[0,19],[5,28],[-8,33],[-18,21],[-70,38],[-177,150],[-21,13],[-28,7],[-28,-1],[-59,-11],[-18,1],[-27,11],[-26,5],[-49,23],[-22,19],[-14,27],[-19,64],[-18,41],[-3,16],[3,31],[-1,15],[-6,17],[-13,16],[-36,30],[0,599],[4,2],[2,40],[-5,2],[-1,-1],[0,43],[7,2],[6,4],[2,8],[-6,7],[-9,-4],[0,196]],[[41,2235],[-10,-16],[-18,-44],[-1,-8],[1,-4],[6,1],[4,4],[4,4],[11,8],[14,5],[10,10],[2,16],[-1,10],[1,5],[-1,9],[-9,5],[-13,-5]],[[266,1544],[-36,-36],[-11,-7],[-14,-1],[-26,9],[-13,3],[-27,-6],[-17,-15],[-9,-22],[-8,-61],[2,-15],[18,-27],[6,-16],[8,-34],[14,-28],[22,-21],[29,-14],[34,-6],[15,0],[20,3],[18,6],[7,8],[5,9],[36,24],[10,15],[2,14],[-2,33],[5,18],[23,27],[6,17],[-4,27],[-9,19],[-27,34],[-10,15],[-19,22],[-23,14],[-25,-8]],[[775,1037],[12,-6],[30,-39],[46,-44],[32,-21],[22,5],[2,13],[-12,50],[0,57],[-4,35],[-20,18],[-61,17],[-7,3],[-15,9],[-8,3],[-7,0],[-22,0],[-44,8],[-45,4],[-17,4],[-12,6],[-11,8],[-35,17],[-14,3],[-33,-9],[-3,-21],[16,-28],[23,-27],[28,-26],[28,-14],[110,-17],[14,-7],[7,-1]],[[1579,958],[3,-3],[1,0],[7,5],[2,7],[-8,13],[-7,-6],[2,-16]],[[758,1024],[-28,7],[-16,0],[-10,-3],[-4,-8],[-2,-16],[4,-30],[-1,-7],[-7,-14],[-1,-6],[2,-13],[6,-16],[7,-15],[14,-12],[3,-13],[-2,-27],[-6,-31],[-1,-18],[4,-13],[9,-11],[12,-22],[48,-53],[26,-21],[22,-5],[6,3],[22,19],[7,3],[7,0],[6,1],[2,6],[-2,17],[-13,41],[-1,18],[1,18],[21,68],[2,18],[-4,17],[-5,7],[-11,11],[-55,40],[-39,44],[-23,16]],[[1858,922],[18,0],[9,2],[4,1],[2,3],[4,4],[26,17],[14,6],[18,2],[16,4],[15,12],[13,15],[8,14],[-3,5],[-10,3],[-18,5],[-21,7],[-55,27],[-18,6],[-20,2],[-10,-4],[-21,-9],[-16,-2],[-16,2],[-7,-1],[-10,-6],[-8,-9],[-3,-7],[-3,-14],[-22,-31],[-3,-12],[5,-10],[13,-3],[31,1],[16,-2],[18,-4],[15,-7],[7,-10],[3,-4],[9,-3]],[[2097,1692],[-11,2],[-4,-1],[-5,0],[-4,1],[-2,-2],[1,-3],[-1,-3],[7,-9],[10,-7],[11,-2],[3,4],[3,12],[-8,8]],[[2385,1774],[10,5],[2,15],[-8,4],[-3,6],[-2,3],[-10,-2],[-5,-6],[2,-5],[-1,-4],[6,-3],[3,-5],[6,-8]],[[2244,1897],[-6,3],[-7,-2],[0,-7],[4,-4],[7,-8],[6,-5],[8,9],[-3,4],[-5,5],[0,3],[-4,2]],[[1938,1956],[1,1],[-1,4],[1,0],[6,-5],[3,4],[-1,9],[-4,4],[-7,3],[-3,-9],[5,-11]],[[2117,1979],[11,-4],[14,1],[14,4],[9,7],[1,8],[-1,37],[-9,30],[-5,10],[-9,14],[-2,5],[-1,9],[-1,4],[-3,4],[-8,1],[-7,-5],[-4,-7],[-2,-8],[2,-12],[3,-11],[0,-11],[-7,-11],[-4,-4],[-10,-4],[-3,-4],[-1,-7],[4,-12],[-1,-4],[1,-6],[5,-9],[14,-15]],[[3250,2074],[8,-3],[9,1],[9,3],[9,1],[2,2],[1,6],[-2,5],[-6,2],[-7,1],[-4,1],[-4,3],[-3,5],[33,13],[5,5],[5,1],[10,-6],[7,4],[15,54],[5,0],[0,-6],[5,0],[5,10],[-7,4],[-22,5],[-8,1],[-6,-2],[-1,-5],[-2,-4],[-4,-3],[-5,0],[-11,3],[-6,1],[-12,3],[-1,9],[2,11],[-2,12],[-3,3],[-13,6],[-1,1],[-2,2],[-6,13],[-10,-4],[4,-9],[1,-10],[-3,-10],[-7,-7],[7,-6],[18,-10],[5,-8],[0,-6],[-8,-19],[-4,-17],[-6,-17],[-2,-9],[1,-8],[2,-9],[4,-8],[6,-5]],[[3433,2217],[0,-6],[3,1],[4,1],[-1,-4],[3,-4],[6,12],[-4,2],[3,6],[3,2],[-4,7],[1,5],[2,10],[-1,5],[-11,-5],[-2,-7],[-1,-3],[1,-7],[-1,-3],[-1,-3],[0,-9]],[[3647,2271],[15,-19],[4,0],[0,67],[-5,12],[-13,14],[-15,8],[-11,-2],[-12,1],[-1,-14],[8,-37],[-1,-6],[0,-4],[-1,-5],[-3,-4],[11,-2],[6,-8],[6,-5],[12,4]],[[3210,2276],[-5,4],[-7,-1],[-1,-5],[1,-4],[-2,-2],[2,-1],[2,-5],[8,-5],[-1,4],[2,2],[7,-3],[0,6],[-6,10]],[[3753,2290],[5,-1],[5,2],[7,-2],[3,-2],[2,10],[-5,5],[-7,2],[-2,2],[-7,-8],[-3,-6],[2,-2]],[[3619,2012],[9,-12],[4,-7],[3,4],[1,5],[0,11],[-4,25],[-3,9],[-5,8],[-8,4],[-9,-3],[-3,-7],[4,-10],[6,-10],[5,-17]],[[3659,2373],[-7,21],[0,5],[1,2],[4,1],[3,-1],[2,-2],[0,-8],[2,-8],[3,-3],[4,6],[2,7],[-2,26],[4,30],[-4,8],[-15,-6],[-12,-11],[-3,-14],[-2,-15],[-8,-15],[0,-12],[-1,-4],[-3,-4],[35,-20],[3,8],[-2,5],[-4,4]],[[3602,2409],[0,14],[1,4],[2,2],[1,-3],[1,-9],[4,-6],[5,0],[11,22],[2,13],[-7,0],[-4,7],[0,11],[2,7],[3,4],[-5,1],[-10,-4],[-5,-7],[3,-12],[-2,-6],[-18,-10],[-3,-8],[8,-13],[5,-5],[4,-7],[2,5]],[[2354,17],[0,9],[-2,7],[-8,14],[8,0],[4,1],[8,4],[-5,8],[-36,47],[-9,12],[-5,7],[-5,2],[-4,-4],[-1,-6],[1,-8],[11,-28],[4,-5],[-10,4],[-3,3],[-3,3],[-4,0],[7,-20],[35,-32],[13,-18],[4,0]],[[2245,76],[2,16],[-11,15],[-13,13],[-5,4],[-5,-1],[6,-8],[1,-4],[-2,-4],[-1,-6],[3,-4],[3,-4],[5,3],[7,-8],[4,-8],[3,-1],[2,-2],[1,-1]],[[2173,119],[3,11],[-4,12],[-6,3],[-5,-3],[-12,-17],[15,-8],[9,2]],[[2388,129],[3,-5],[5,-3],[5,-2],[4,-1],[6,0],[2,-3],[1,-11],[2,-4],[8,-9],[12,-17],[8,-7],[10,10],[4,-2],[6,-18],[4,-6],[16,-13],[17,-12],[13,-2],[4,8],[-14,20],[-102,112],[-4,2],[-3,0],[-3,-1],[-2,-2],[-1,-3],[0,-2],[-14,12],[-7,4],[-9,3],[3,-8],[4,-6],[19,-20],[1,-5],[2,-9]],[[2558,36],[-12,-4],[-7,3],[-2,-2],[1,-5],[2,-4],[12,-1],[9,3],[8,-4],[-1,11],[-3,4],[-4,5],[-2,2],[-2,3],[1,-11]],[[2365,106],[-8,3],[0,-5],[1,-5],[6,-5],[5,-2],[3,-7],[5,-3],[5,5],[-3,5],[-2,4],[-1,2],[-6,5],[-5,3]],[[2281,209],[-7,8],[-21,15],[-13,2],[-2,-6],[3,-4],[3,-3],[4,-2],[4,-3],[9,-13],[5,-2],[16,2],[2,3],[-3,3]],[[2234,230],[1,11],[-3,7],[-2,3],[-4,1],[-4,-1],[0,-4],[2,-18],[2,-3],[3,-2],[5,6]],[[2274,237],[5,-3],[5,-1],[4,-2],[2,-12],[3,-4],[4,-2],[5,2],[6,8],[1,9],[-3,8],[-8,7],[-22,11],[-13,11],[-4,2],[-3,-1],[-5,-3],[-1,0],[5,-4],[19,-26]],[[2388,261],[2,0],[0,1],[1,3],[-1,7],[-1,4],[-2,8],[1,7],[-1,10],[12,-1],[9,0],[-2,3],[-2,5],[-5,2],[-10,0],[-6,2],[-6,-1],[1,-5],[1,-10],[0,-8],[3,-5],[2,-5],[0,-10],[4,-7]],[[2330,283],[-10,13],[-4,-3],[3,-7],[11,-3]],[[1701,307],[-9,13],[-22,5],[5,-8],[9,-11],[19,-9],[-2,10]],[[2333,345],[-4,7],[-4,1],[-4,-4],[4,-3],[12,-12],[-1,4],[-3,7]],[[2302,344],[-9,1],[0,-4],[5,-2],[4,-1],[4,-2],[6,0],[-10,8]],[[2219,351],[-2,8],[0,6],[0,3],[-2,3],[0,3],[1,6],[-4,3],[-2,-1],[-1,-3],[-1,-2],[3,-5],[1,-7],[7,-19],[0,5]],[[1713,381],[-3,6],[-7,6],[-5,8],[-2,5],[-7,-2],[1,-6],[15,-17],[8,-24],[5,5],[7,0],[2,7],[-6,3],[-8,9]],[[1490,401],[3,19],[-2,21],[-3,15],[-6,15],[-9,15],[-8,10],[-11,10],[-12,8],[-13,2],[-24,-9],[-15,-22],[-16,-66],[-1,-13],[4,-13],[9,-11],[13,-7],[9,0],[9,5],[62,12],[11,9]],[[1315,480],[-9,2],[-5,-2],[0,-4],[3,-4],[2,-5],[2,-9],[8,-23],[5,-8],[5,-6],[4,-2],[4,4],[2,9],[1,6],[-1,6],[-4,11],[-4,9],[-6,10],[-7,6]],[[1299,514],[7,12],[4,27],[6,14],[-2,0],[-2,5],[-2,9],[-6,18],[-3,5],[-11,13],[-82,60],[-56,26],[-36,28],[-14,6],[-15,4],[-17,1],[-10,-3],[-20,-10],[-11,-3],[-13,1],[-17,4],[-12,6],[3,13],[6,12],[-2,9],[-5,9],[-38,41],[-21,10],[-28,-4],[-15,-20],[1,-29],[23,-68],[0,-15],[-8,-10],[-33,-7],[-15,-11],[-11,-14],[-2,-16],[38,-30],[6,-4],[36,-26],[30,-8],[29,4],[61,14],[15,-1],[32,-7],[16,-2],[62,5],[31,-6],[25,-14],[39,-35],[12,-16],[2,-2],[4,-3],[7,2],[8,3],[4,3]],[[1002,737],[16,-3],[16,6],[16,8],[15,4],[44,3],[13,-3],[7,-7],[8,-10],[9,-9],[13,-4],[13,-2],[25,-9],[9,-4],[33,-30],[0,-3],[98,-61],[30,-4],[29,17],[5,17],[-8,13],[-27,21],[-35,55],[-30,30],[-51,34],[-59,31],[-61,21],[-34,4],[-29,-10],[-10,-12],[-12,-31],[-11,-15],[-24,-25],[-9,-14],[1,-8]],[[2016,860],[-5,-25],[-11,-8],[-7,0],[-15,6],[-8,-1],[-8,-4],[-1,-3],[3,-5],[3,-15],[3,-7],[1,-7],[-6,-4],[-8,0],[-10,12],[-7,3],[-8,-7],[3,-13],[8,-15],[23,-27],[4,-3],[8,-2],[16,2],[6,0],[26,-15],[12,-4],[17,4],[3,0],[8,-1],[4,1],[0,3],[-1,8],[1,4],[4,6],[2,6],[3,5],[6,3],[-5,6],[-2,4],[0,4],[2,6],[12,-11],[6,-1],[15,51],[0,15],[-4,15],[-3,5],[-3,4],[-8,7],[-8,4],[-9,2],[-10,-2],[-8,-4],[6,-8],[3,-9],[0,-10],[-4,-8],[-11,9],[-21,26],[-8,4],[-9,-6]],[[2289,869],[-3,-9],[-8,-2],[-16,4],[-11,-2],[-3,-4],[0,-6],[-3,-8],[-8,-12],[-4,-4],[-8,-4],[-36,-13],[-18,-12],[1,-13],[7,-14],[-1,-15],[3,-13],[19,-10],[7,-1],[25,1],[9,2],[9,11],[7,2],[16,1],[11,3],[32,17],[6,3],[10,1],[4,-3],[7,-10],[4,-2],[9,-3],[-4,-6],[-9,-5],[-4,-1],[-3,-11],[0,-6],[3,-8],[-25,-6],[-5,-4],[0,-9],[6,-6],[15,-5],[18,-1],[9,-3],[2,-6],[-4,-4],[-8,-2],[-17,1],[0,-5],[14,-5],[11,-10],[4,-14],[-5,-12],[61,-21],[24,4],[10,35],[0,10],[2,7],[6,4],[9,2],[10,3],[6,7],[2,7],[-3,3],[-2,4],[0,21],[-5,15],[3,9],[12,16],[-9,36],[-1,12],[-5,6],[-35,16],[-8,13],[-1,13],[4,26],[-4,16],[-8,4],[-6,-4],[3,-8],[-25,-14],[-21,-8],[-24,-1],[-29,7],[-17,10],[-9,1],[-5,-8]],[[2623,711],[0,6],[-2,6],[-3,5],[-5,4],[4,11],[-10,3],[-14,2],[-9,4],[-5,-5],[22,-19],[3,-4],[0,-12],[2,-8],[3,-7],[5,2],[4,4],[3,4],[2,4]],[[2454,628],[4,-3],[8,2],[15,14],[3,5],[-5,4],[-6,0],[-4,0],[-6,5],[-2,-1],[-3,-2],[-4,-6],[-1,-9],[0,-6],[1,-3]],[[2504,650],[-7,-2],[-6,-6],[-4,-8],[-1,-8],[2,-5],[3,-3],[4,-2],[3,0],[3,1],[3,1],[4,1],[0,21],[2,5],[0,3],[-6,2]],[[2483,617],[-8,9],[-7,-8],[-3,-14],[-4,-9],[-3,-4],[4,-3],[9,0],[6,3],[4,3],[3,4],[1,7],[0,3],[-2,9]],[[2139,583],[38,17],[8,5],[5,7],[6,12],[-6,10],[-12,6],[-11,2],[-30,0],[-9,2],[-4,6],[-3,8],[-4,6],[-22,23],[-11,8],[-9,-3],[-4,-11],[4,-28],[-5,-11],[11,-5],[19,-4],[10,-7],[6,-9],[4,-20],[4,-10],[7,-5],[8,1]],[[2194,583],[-6,-1],[-4,-2],[-3,-6],[-8,0],[-13,3],[-15,-8],[-5,-11],[2,-14],[10,-14],[7,-4],[15,-2],[14,-10],[7,-2],[7,1],[7,3],[10,0],[-8,17],[-5,12],[-1,12],[-1,18],[-3,6],[-7,2]],[[2542,546],[-12,1],[-3,-9],[8,-11],[6,-5],[7,5],[4,11],[-10,8]],[[2472,535],[6,8],[2,5],[-5,-1],[-5,-5],[-5,-1],[-4,2],[-4,-2],[-3,-2],[-4,-3],[-2,-4],[1,-4],[-2,-7],[-5,-4],[-4,-2],[2,-4],[6,-2],[1,0],[3,-1],[2,0],[2,-1],[0,2],[1,1],[2,5],[2,5],[4,3],[1,2],[3,3],[0,2],[3,2],[2,3]],[[2178,507],[-18,9],[4,-8],[20,-21],[8,-18],[5,-7],[7,-5],[8,18],[-13,17],[-21,15]],[[2216,506],[-7,-3],[-5,1],[-1,-3],[3,-7],[7,-2],[6,2],[2,-2],[3,2],[0,3],[-3,0],[-1,2],[1,3],[-1,3],[-4,1]],[[2229,495],[0,-3],[0,-3],[0,-4],[5,-1],[0,2],[4,-2],[4,-1],[1,2],[-2,6],[0,5],[-4,4],[-4,0],[-2,-4],[-2,-1]],[[2068,471],[-4,1],[-3,-4],[3,-2],[2,-8],[-1,-12],[1,-4],[4,8],[5,3],[3,3],[1,3],[-4,2],[-4,5],[-3,5]],[[2144,443],[-2,-6],[-3,-5],[-1,-4],[4,-25],[1,-3],[3,-4],[1,3],[1,7],[3,7],[5,2],[6,2],[3,4],[-4,8],[-11,7],[-1,4],[0,4],[-3,1],[-2,-2]],[[2162,400],[1,-7],[3,-3],[3,0],[3,0],[4,-4],[1,1],[-1,4],[-1,4],[-3,10],[-7,2],[-2,-5],[-1,-2]],[[1784,442],[0,2],[1,5],[3,6],[-4,3],[-6,2],[-7,5],[-5,0],[-3,2],[0,-4],[1,-3],[-1,-6],[0,-6],[4,-2],[4,1],[2,-3],[3,-1],[8,-1]],[[1637,457],[6,10],[8,20],[3,8],[0,8],[-3,6],[-8,3],[-5,-5],[-10,-20],[-5,-5],[-4,-5],[-3,-12],[2,-11],[12,-2],[7,5]],[[1624,500],[22,42],[-3,9],[-3,6],[-10,10],[-13,22],[-8,9],[-23,9],[-8,10],[-5,14],[-7,11],[-11,6],[-11,-2],[-9,-10],[-6,-24],[-6,-16],[-2,-9],[1,-15],[4,-15],[28,-41],[7,-6],[7,-15],[9,-16],[14,-7],[18,8],[15,20]],[[1362,569],[-6,9],[-4,0],[-5,-2],[-4,-3],[-7,-7],[-3,-5],[-3,-6],[0,-6],[0,-5],[3,-8],[4,-7],[5,-2],[8,9],[9,17],[3,16]],[[1598,637],[10,-3],[8,0],[7,7],[0,11],[-5,11],[-7,7],[-6,1],[-34,-6],[2,-5],[8,-6],[5,-5],[4,-7],[8,-5]],[[2045,676],[4,-6],[8,3],[4,14],[-1,8],[-6,5],[-7,6],[-1,3],[-3,1],[-3,-6],[-3,-24],[2,-3],[3,0],[3,-1]],[[1979,700],[-5,11],[-6,10],[-8,5],[-24,8],[-12,6],[-9,12],[-4,-14],[0,-6],[-13,8],[-9,-1],[-4,-7],[1,-10],[5,-9],[7,-7],[40,-22],[7,-2],[9,-1],[9,1],[10,3],[5,6],[1,9]],[[1860,716],[-3,24],[0,4],[1,9],[-3,10],[-3,2],[-3,-2],[-7,4],[-4,0],[0,-4],[-11,-11],[1,-5],[-2,-8],[3,-3],[4,3],[4,1],[2,-4],[2,-13],[2,-7],[5,-6],[6,-3],[4,-2],[2,-3],[3,4],[-1,5],[-2,5]],[[1598,734],[-1,5],[-2,3],[-4,5],[-2,3],[-1,4],[1,3],[-1,3],[-2,4],[-4,2],[-9,1],[-5,2],[-4,7],[-3,9],[-5,17],[1,9],[2,8],[-1,5],[-9,3],[-8,-2],[-13,-7],[-5,-1],[-6,-6],[-7,-14],[-6,-14],[0,-9],[18,-30],[13,-11],[16,4],[20,-11],[12,-4],[10,1],[3,3],[2,4],[0,4]],[[1495,817],[4,12],[0,5],[-2,2],[-4,2],[-2,-4],[0,-2],[-2,-4],[1,-5],[-2,-5],[7,-1]],[[1549,843],[11,-15],[11,1],[-1,10],[-5,6],[-6,6],[-10,-8]],[[1922,845],[-1,-4],[-4,0],[-3,-6],[7,-2],[3,1],[-2,11]],[[1859,794],[7,-2],[4,5],[-2,5],[-3,0],[-2,2],[-5,6],[-4,-10],[5,-6]],[[2177,713],[4,-4],[5,2],[7,-2],[3,4],[0,5],[-4,5],[-5,3],[-12,-4],[-2,-4],[0,-5],[4,0]],[[2126,723],[8,6],[0,4],[5,5],[1,3],[-2,6],[-4,3],[-3,-5],[-2,-2],[-8,-1],[-4,-4],[0,-11],[4,-4],[3,1],[2,-1]],[[2128,746],[4,5],[6,5],[3,3],[1,6],[-6,10],[2,4],[-6,-1],[-9,-4],[0,-4],[-3,-9],[4,-10],[4,-5]],[[2109,696],[1,-5],[1,-2],[0,-3],[3,-5],[5,-2],[2,1],[3,3],[6,3],[3,0],[3,0],[3,1],[2,1],[4,0],[3,2],[-3,2],[-17,8],[0,8],[-7,-2],[-9,1],[-4,2],[2,-4],[-1,-3],[3,-4],[-3,-2]],[[2045,669],[-2,1],[-3,0],[-4,-3],[-1,-7],[-4,-2],[-2,-3],[2,-5],[-1,-1],[1,0],[6,3],[2,2],[2,5],[2,4],[2,6]],[[1821,648],[-5,4],[-13,-15],[3,-19],[12,-18],[13,-13],[27,-15],[14,-11],[4,-3],[4,0],[4,3],[2,14],[-7,20],[-10,19],[-11,8],[-17,20],[-8,3],[-12,3]],[[1945,564],[9,-2],[6,4],[0,11],[-13,23],[-19,22],[-25,18],[-33,6],[0,-4],[18,-22],[2,-6],[5,-5],[26,-12],[5,-6],[12,-22],[7,-5]],[[1786,594],[-25,18],[-1,-11],[16,-24],[4,-13],[5,-6],[9,-2],[8,3],[2,10],[-7,13],[-11,12]],[[1676,575],[-4,4],[-6,0],[-3,-3],[-1,-4],[-2,-11],[10,-11],[2,11],[3,3],[3,2],[-2,9]],[[1655,567],[1,15],[-1,7],[-3,8],[-4,6],[-6,5],[-6,5],[-6,4],[-42,16],[-7,4],[3,-14],[11,-7],[26,-9],[10,-8],[24,-32]],[[1762,526],[5,-6],[1,1],[3,3],[-1,3],[6,3],[-6,7],[-14,5],[-4,-1],[7,-9],[0,-4],[3,-2]],[[1811,537],[-17,-4],[-8,-1],[-7,2],[-1,-3],[0,-7],[3,-6],[16,-14],[9,0],[7,-3],[2,3],[-6,12],[1,5],[3,5],[4,3],[3,4],[0,5],[-4,0],[-5,-1]],[[2261,539],[3,4],[-9,7],[-7,2],[-7,3],[-7,1],[-11,-1],[3,-5],[7,-2],[7,2],[12,-4],[9,-7]],[[2375,564],[0,-17],[21,12],[10,3],[13,0],[22,-5],[8,2],[5,8],[1,7],[-11,5],[-30,3],[-17,-2],[-13,-5],[-9,-11]],[[2506,561],[8,-4],[11,-3],[18,-7],[6,2],[3,5],[-1,8],[-4,9],[-9,3],[-24,3],[-8,-4],[-2,-7],[2,-5]],[[2520,551],[-8,5],[-6,-3],[4,-10],[7,-4],[4,5],[-1,7]],[[2322,644],[-7,-3],[-3,-5],[3,-4],[7,2],[3,-1],[9,-4],[6,-4],[3,4],[3,3],[7,1],[4,3],[-13,6],[-2,2],[-7,2],[-5,-1],[-8,-1]],[[2265,612],[-1,-18],[5,2],[1,9],[-1,6],[0,8],[-3,0],[-1,-7]],[[1157,212],[6,-9],[21,4],[23,11],[14,9],[-9,7],[-22,-4],[-22,-9],[-11,-9]],[[0,1523],[36,-30],[13,-16],[6,-17],[1,-15],[-3,-31],[3,-16],[18,-41],[19,-64],[14,-27],[22,-19],[49,-23],[26,-5],[27,-11],[18,-1],[59,11],[28,1],[28,-7],[21,-13],[177,-150],[70,-38],[18,-21],[8,-33],[-5,-28],[0,-19],[7,-8],[12,-4],[10,-10],[8,-13],[3,-13],[-6,-57],[1,-28],[10,-30],[23,-31],[59,-47],[76,-82],[28,-22],[33,-18],[17,-6],[14,-3],[31,-1],[16,1],[23,8],[14,1],[83,-14],[70,-3],[30,-14],[26,-23],[74,-86],[20,-31],[7,-34],[-13,-19],[-28,-16],[-55,-25],[-29,-21],[-16,-10],[-28,-6],[-83,-42],[-11,-9],[-12,-6],[-50,-11],[-14,-6],[-5,-4],[-6,-5],[-15,-26],[-7,-4],[-20,4],[-13,10],[-25,26],[-12,5],[-19,4],[-16,1],[-5,-2],[6,-6],[7,-2],[17,0],[6,-1],[4,-4],[7,-9],[16,-18],[21,-17],[23,-7],[25,11],[5,5],[6,11],[4,4],[8,6],[17,7],[8,5],[13,4],[33,-4],[16,2],[40,18],[49,6],[12,4],[52,33],[14,4],[11,5],[36,35],[14,7],[16,7],[18,4],[15,2],[16,6],[11,13],[15,31],[16,14],[41,8],[21,10],[20,14],[19,3],[20,-4],[23,-10],[44,-25],[43,-35],[34,-42],[14,-48],[8,14],[5,7],[7,4],[8,0],[8,-4],[6,-4],[19,-6],[15,-11],[14,-13],[10,-12],[12,-27],[29,-150],[6,-8],[4,-3],[-2,-8],[-4,-6]],[[0,2421],[24,-21],[11,-12],[4,-14],[14,-95],[5,-9],[21,-17],[5,-9],[5,-35],[0,-19],[-8,-8],[-10,-5],[-11,-9],[-36,-45],[-1,-9],[16,-3],[-13,-33],[18,-11],[33,-3],[32,-8],[22,-19],[36,-55],[17,-20],[29,-21],[16,-7],[24,-4],[15,-7],[40,-7],[13,-9],[7,-8],[9,-5],[35,-3],[10,-4],[6,-8],[15,-42],[10,-12],[7,-6],[5,-2],[13,-9],[3,-20],[2,-23],[5,-19],[9,11],[23,1],[13,9],[21,-13],[12,-5],[12,-3],[-1,-12],[8,-12],[15,-8],[15,-3],[8,-4],[56,-61],[19,-15],[25,-14],[117,-49],[102,-42],[28,-16],[13,-9],[9,-9],[1,-4],[1,-3],[-1,-2],[-6,-1],[5,-10],[8,-9],[60,-47],[12,-15],[14,-31],[9,-14],[17,-9],[12,0],[36,5],[12,5],[23,-11],[20,-13],[17,-15],[14,-17],[12,-19],[9,-7],[12,-3],[16,-2],[17,-5],[29,-14],[123,-76],[87,-33],[31,-20],[20,-23],[14,-28],[23,-80],[7,-14],[10,-14],[25,-22],[9,-14],[11,25],[13,19],[2,8],[-1,6],[-4,11],[0,8],[2,4],[6,-5],[5,-8],[2,-3],[25,-5],[22,18],[37,47],[12,6],[11,1],[30,-2],[15,3],[29,15],[19,2],[63,-33],[35,-8],[26,21],[2,11],[-2,11],[-3,11],[-2,9],[4,20],[0,11],[-28,43],[-7,20],[4,9],[16,-11],[17,-26],[23,-48],[5,-13],[2,-5],[6,2],[24,19],[12,7],[13,3],[14,-3],[-18,-20],[-27,-11],[-19,-13],[4,-26],[7,-8],[10,-6],[9,-8],[4,-11],[-1,-14],[1,-7],[6,-5],[29,-12],[14,-3],[33,-1],[4,2],[7,11],[4,2],[27,0],[4,11],[-2,32],[6,7],[5,8],[-1,18],[-7,34],[-15,40],[-5,30],[-5,10],[4,7],[-5,10],[-9,10],[-4,10],[-1,25],[-4,10],[-14,19],[-6,34],[-21,35],[-4,0],[-9,-7],[-10,9],[-8,15],[-3,15],[2,32],[-2,14],[-5,16],[-5,8],[-15,18],[-5,8],[-9,18],[-13,18],[-19,46],[-34,42],[-5,15],[2,9],[7,14],[2,7],[-3,8],[-13,16],[-5,8],[-1,8],[0,15],[-4,8],[-5,4],[-16,12],[-6,6],[-54,68],[-5,14],[0,14],[7,16],[-19,42],[-9,11],[-25,20],[-2,7],[2,6],[-2,5],[-11,4],[-17,-8],[-7,-1],[-8,2],[-11,10],[-4,3],[-13,0],[-11,2],[-8,4],[-2,1],[-86,85],[-34,45],[-23,52],[-5,29],[15,177],[-3,14],[-5,15],[-12,90],[4,30],[35,75],[-24,-5],[10,22],[-17,24],[-25,24],[-13,18],[-2,9],[-28,61],[-4,13],[-1,14],[3,10],[6,13],[7,9],[13,0],[2,13],[-1,27],[3,24],[8,33],[12,21],[17,-10],[2,18],[-27,67],[-5,23],[1,13],[6,12],[16,19],[5,5],[6,2],[2,1],[4,2],[5,8],[-5,19],[0,6],[2,6],[11,12],[4,4],[6,9],[10,26],[2,8],[-2,22],[-24,67],[2,11],[-9,33],[5,14],[7,14],[1,17],[-12,110],[-7,30],[-1,17],[5,21],[0,9],[-4,7],[-13,15],[-3,5],[-4,14],[-43,78],[-72,121],[-26,62],[-74,117],[-68,76],[-37,33],[-12,8],[-30,6],[-31,16],[-41,32]],[[2414,582],[-17,-2],[-13,-5],[-9,-11],[0,-17],[21,12],[10,3],[13,0],[22,-5],[8,2],[5,8],[1,7],[-11,5],[-30,3]],[[1761,612],[-1,-11],[16,-24],[4,-13],[5,-6],[9,-2],[8,3],[2,10],[-7,13],[-11,12],[-25,18]],[[1643,512],[-5,-5],[-10,-20],[-5,-5],[-4,-5],[-3,-12],[2,-11],[12,-2],[7,5],[6,10],[8,20],[3,8],[0,8],[-3,6],[-8,3]],[[1611,670],[-6,1],[-34,-6],[2,-5],[8,-6],[5,-5],[4,-7],[8,-5],[10,-3],[8,0],[7,7],[0,11],[-5,11],[-7,7]],[[1332,455],[-4,9],[-6,10],[-7,6],[-9,2],[-5,-2],[0,-4],[3,-4],[2,-5],[2,-9],[8,-23],[5,-8],[5,-6],[4,-2],[4,4],[2,9],[1,6],[-1,6],[-4,11]],[[1356,578],[-4,0],[-5,-2],[-4,-3],[-7,-7],[-3,-5],[-3,-6],[0,-6],[0,-5],[3,-8],[4,-7],[5,-2],[8,9],[9,17],[3,16],[-6,9]],[[1157,212],[6,-9],[21,4],[23,11],[14,9],[-9,7],[-22,-4],[-22,-9],[-11,-9]],[[2584,752],[-5,-5],[22,-19],[3,-4],[0,-12],[2,-8],[3,-7],[5,2],[4,4],[3,4],[2,4],[0,6],[-2,6],[-3,5],[-5,4],[4,11],[-10,3],[-14,2],[-9,4]],[[2479,800],[-5,6],[-35,16],[-8,13],[-1,13],[4,26],[-4,16],[-8,4],[-6,-4],[3,-8],[-25,-14],[-21,-8],[-24,-1],[-29,7],[-17,10],[-9,1],[-5,-8],[-3,-9],[-8,-2],[-16,4],[-11,-2],[-3,-4],[0,-6],[-3,-8],[-8,-12],[-4,-4],[-8,-4],[-36,-13],[-18,-12],[1,-13],[7,-14],[-1,-15],[3,-13],[19,-10],[7,-1],[25,1],[9,2],[9,11],[7,2],[16,1],[11,3],[32,17],[6,3],[10,1],[4,-3],[7,-10],[4,-2],[9,-3],[-4,-6],[-9,-5],[-4,-1],[-3,-11],[0,-6],[3,-8],[-25,-6],[-5,-4],[0,-9],[6,-6],[15,-5],[18,-1],[9,-3],[2,-6],[-4,-4],[-8,-2],[-17,1],[0,-5],[14,-5],[11,-10],[4,-14],[-5,-12],[61,-21],[24,4],[10,35],[0,10],[2,7],[6,4],[9,2],[10,3],[6,7],[2,7],[-3,3],[-2,4],[0,21],[-5,15],[3,9],[12,16],[-9,36],[-1,12]],[[2109,846],[-3,5],[-3,4],[-8,7],[-8,4],[-9,2],[-10,-2],[-8,-4],[6,-8],[3,-9],[0,-10],[-4,-8],[-11,9],[-21,26],[-8,4],[-9,-6],[-5,-25],[-11,-8],[-7,0],[-15,6],[-8,-1],[-8,-4],[-1,-3],[3,-5],[3,-15],[3,-7],[1,-7],[-6,-4],[-8,0],[-10,12],[-7,3],[-8,-7],[3,-13],[8,-15],[23,-27],[4,-3],[8,-2],[16,2],[6,0],[26,-15],[12,-4],[17,4],[3,0],[8,-1],[4,1],[0,3],[-1,8],[1,4],[4,6],[2,6],[3,5],[6,3],[-5,6],[-2,4],[0,4],[2,6],[12,-11],[6,-1],[15,51],[0,15],[-4,15]],[[1960,726],[-24,8],[-12,6],[-9,12],[-4,-14],[0,-6],[-13,8],[-9,-1],[-4,-7],[1,-10],[5,-9],[7,-7],[40,-22],[7,-2],[9,-1],[9,1],[10,3],[5,6],[1,9],[-5,11],[-6,10],[-8,5]],[[1870,646],[0,-4],[18,-22],[2,-6],[5,-5],[26,-12],[5,-6],[12,-22],[7,-5],[9,-2],[6,4],[0,11],[-13,23],[-19,22],[-25,18],[-33,6]],[[1858,622],[-17,20],[-8,3],[-12,3],[-5,4],[-13,-15],[3,-19],[12,-18],[13,-13],[27,-15],[14,-11],[4,-3],[4,0],[4,3],[2,14],[-7,20],[-10,19],[-11,8]],[[1652,597],[-4,6],[-6,5],[-6,5],[-6,4],[-42,16],[-7,4],[3,-14],[11,-7],[26,-9],[10,-8],[24,-32],[1,15],[-1,7],[-3,8]],[[1630,567],[-13,22],[-8,9],[-23,9],[-8,10],[-5,14],[-7,11],[-11,6],[-11,-2],[-9,-10],[-6,-24],[-6,-16],[-2,-9],[1,-15],[4,-15],[28,-41],[7,-6],[7,-15],[9,-16],[14,-7],[18,8],[15,20],[22,42],[-3,9],[-3,6],[-10,10]],[[1597,739],[-2,3],[-4,5],[-2,3],[-1,4],[1,3],[-1,3],[-2,4],[-4,2],[-9,1],[-5,2],[-4,7],[-3,9],[-5,17],[1,9],[2,8],[-1,5],[-9,3],[-8,-2],[-13,-7],[-5,-1],[-6,-6],[-7,-14],[-6,-14],[0,-9],[18,-30],[13,-11],[16,4],[20,-11],[12,-4],[10,1],[3,3],[2,4],[0,4],[-1,5]],[[1488,456],[-6,15],[-9,15],[-8,10],[-11,10],[-12,8],[-13,2],[-24,-9],[-15,-22],[-16,-66],[-1,-13],[4,-13],[9,-11],[13,-7],[9,0],[9,5],[62,12],[11,9],[3,19],[-2,21],[-3,15]],[[1366,677],[-35,55],[-30,30],[-51,34],[-59,31],[-61,21],[-34,4],[-29,-10],[-10,-12],[-12,-31],[-11,-15],[-24,-25],[-9,-14],[1,-8],[16,-3],[16,6],[16,8],[15,4],[44,3],[13,-3],[7,-7],[8,-10],[9,-9],[13,-4],[13,-2],[25,-9],[9,-4],[33,-30],[0,-3],[98,-61],[30,-4],[29,17],[5,17],[-8,13],[-27,21]],[[1310,581],[-6,18],[-3,5],[-11,13],[-82,60],[-56,26],[-36,28],[-14,6],[-15,4],[-17,1],[-10,-3],[-20,-10],[-11,-3],[-13,1],[-17,4],[-12,6],[3,13],[6,12],[-2,9],[-5,9],[-38,41],[-21,10],[-28,-4],[-15,-20],[1,-29],[23,-68],[0,-15],[-8,-10],[-33,-7],[-15,-11],[-11,-14],[-2,-16],[38,-30],[6,-4],[36,-26],[30,-8],[29,4],[61,14],[15,-1],[32,-7],[16,-2],[62,5],[31,-6],[25,-14],[39,-35],[12,-16],[2,-2],[4,-3],[7,2],[8,3],[4,3],[7,12],[4,27],[6,14],[-2,0],[-2,5],[-2,9]],[[907,995],[0,57],[-4,35],[-20,18],[-61,17],[-7,3],[-15,9],[-8,3],[-7,0],[-22,0],[-44,8],[-45,4],[-17,4],[-12,6],[-11,8],[-35,17],[-14,3],[-33,-9],[-3,-21],[16,-28],[23,-27],[28,-26],[28,-14],[110,-17],[14,-7],[7,-1],[12,-6],[30,-39],[46,-44],[32,-21],[22,5],[2,13],[-12,50]],[[891,906],[-5,7],[-11,11],[-55,40],[-39,44],[-23,16],[-28,7],[-16,0],[-10,-3],[-4,-8],[-2,-16],[4,-30],[-1,-7],[-7,-14],[-1,-6],[2,-13],[6,-16],[7,-15],[14,-12],[3,-13],[-2,-27],[-6,-31],[-1,-18],[4,-13],[9,-11],[12,-22],[48,-53],[26,-21],[22,-5],[6,3],[22,19],[7,3],[7,0],[6,1],[2,6],[-2,17],[-13,41],[-1,18],[1,18],[21,68],[2,18],[-4,17]],[[343,1501],[-10,15],[-19,22],[-23,14],[-25,-8],[-36,-36],[-11,-7],[-14,-1],[-26,9],[-13,3],[-27,-6],[-17,-15],[-9,-22],[-8,-61],[2,-15],[18,-27],[6,-16],[8,-34],[14,-28],[22,-21],[29,-14],[34,-6],[15,0],[20,3],[18,6],[7,8],[5,9],[36,24],[10,15],[2,14],[-2,33],[5,18],[23,27],[6,17],[-4,27],[-9,19],[-27,34]],[[3315,2186],[-6,-2],[-1,-5],[-2,-4],[-4,-3],[-5,0],[-11,3],[-6,1],[-12,3],[-1,9],[2,11],[-2,12],[-3,3],[-13,6],[-1,1],[-2,2],[-6,13],[-10,-4],[4,-9],[1,-10],[-3,-10],[-7,-7],[7,-6],[18,-10],[5,-8],[0,-6],[-8,-19],[-4,-17],[-6,-17],[-2,-9],[1,-8],[2,-9],[4,-8],[6,-5],[8,-3],[9,1],[9,3],[9,1],[2,2],[1,6],[-2,5],[-6,2],[-7,1],[-4,1],[-4,3],[-3,5],[33,13],[5,5],[5,1],[10,-6],[7,4],[15,54],[5,0],[0,-6],[5,0],[5,10],[-7,4],[-22,5],[-8,1]],[[3636,2013],[-4,25],[-3,9],[-5,8],[-8,4],[-9,-3],[-3,-7],[4,-10],[6,-10],[5,-17],[9,-12],[4,-7],[3,4],[1,5],[0,11]],[[3666,2319],[-5,12],[-13,14],[-15,8],[-11,-2],[-12,1],[-1,-14],[8,-37],[-1,-6],[0,-4],[-1,-5],[-3,-4],[11,-2],[6,-8],[6,-5],[12,4],[15,-19],[4,0],[0,67]],[[3656,2451],[-12,-11],[-3,-14],[-2,-15],[-8,-15],[0,-12],[-1,-4],[-3,-4],[35,-20],[3,8],[-2,5],[-4,4],[-7,21],[0,5],[1,2],[4,1],[3,-1],[2,-2],[0,-8],[2,-8],[3,-3],[4,6],[2,7],[-2,26],[4,30],[-4,8],[-15,-6]],[[2165,2032],[-9,30],[-5,10],[-9,14],[-2,5],[-1,9],[-1,4],[-3,4],[-8,1],[-7,-5],[-4,-7],[-2,-8],[2,-12],[3,-11],[0,-11],[-7,-11],[-4,-4],[-10,-4],[-3,-4],[-1,-7],[4,-12],[-1,-4],[1,-6],[5,-9],[14,-15],[11,-4],[14,1],[14,4],[9,7],[1,8],[-1,37]],[[1974,1015],[-21,7],[-55,27],[-18,6],[-20,2],[-10,-4],[-21,-9],[-16,-2],[-16,2],[-7,-1],[-10,-6],[-8,-9],[-3,-7],[-3,-14],[-22,-31],[-3,-12],[5,-10],[13,-3],[31,1],[16,-2],[18,-4],[15,-7],[7,-10],[3,-4],[9,-3],[18,0],[9,2],[4,1],[2,3],[4,4],[26,17],[14,6],[18,2],[16,4],[15,12],[13,15],[8,14],[-3,5],[-10,3],[-18,5]],[[2446,0],[-15,6],[-12,7],[-5,9],[-1,-6],[-3,-9],[-1,-5],[-15,14],[-7,-16]],[[2504,52],[-102,112],[-4,2],[-3,0],[-3,-1],[-2,-2],[-1,-3],[0,-2],[-14,12],[-7,4],[-9,3],[3,-8],[4,-6],[19,-20],[1,-5],[2,-9],[3,-5],[5,-3],[5,-2],[4,-1],[6,0],[2,-3],[1,-11],[2,-4],[8,-9],[12,-17],[8,-7],[10,10],[4,-2],[6,-18],[4,-6],[16,-13],[17,-12],[13,-2],[4,8],[-14,20]],[[2364,52],[-5,8],[-36,47],[-9,12],[-5,7],[-5,2],[-4,-4],[-1,-6],[1,-8],[11,-28],[4,-5],[-10,4],[-3,3],[-3,3],[-4,0],[7,-20],[35,-32],[13,-18],[4,0],[0,9],[-2,7],[-8,14],[8,0],[4,1],[8,4]],[[2298,247],[-22,11],[-13,11],[-4,2],[-3,-1],[-5,-3],[-1,0],[5,-4],[19,-26],[5,-3],[5,-1],[4,-2],[2,-12],[3,-4],[4,-2],[5,2],[6,8],[1,9],[-3,8],[-8,7]],[[2209,516],[10,0],[-8,17],[-5,12],[-1,12],[-1,18],[-3,6],[-7,2],[-6,-1],[-4,-2],[-3,-6],[-8,0],[-13,3],[-15,-8],[-5,-11],[2,-14],[10,-14],[7,-4],[15,-2],[14,-10],[7,-2],[7,1],[7,3]],[[2160,516],[4,-8],[20,-21],[8,-18],[5,-7],[7,-5],[8,18],[-13,17],[-21,15],[-18,9]],[[2167,642],[-30,0],[-9,2],[-4,6],[-3,8],[-4,6],[-22,23],[-11,8],[-9,-3],[-4,-11],[4,-28],[-5,-11],[11,-5],[19,-4],[10,-7],[6,-9],[4,-20],[4,-10],[7,-5],[8,1],[38,17],[8,5],[5,7],[6,12],[-6,10],[-12,6],[-11,2]],[[15,2222],[-6,7],[-9,-4]],[[0,2208],[7,2],[6,4],[2,8]],[[2530,547],[-3,-9],[8,-11],[6,-5],[7,5],[4,11],[-10,8],[-12,1]],[[64,2226],[-1,9],[-9,5],[-13,-5],[-10,-16],[-18,-44],[-1,-8],[1,-4],[6,1],[4,4],[4,4],[11,8],[14,5],[10,10],[2,16],[-1,10],[1,5]],[[2483,617],[-8,9],[-7,-8],[-3,-14],[-4,-9],[-3,-4],[4,-3],[9,0],[6,3],[4,3],[3,4],[1,7],[0,3],[-2,9]],[[1245,1410],[25,0],[44,52]],[[291,4096],[-3,-6],[-12,-15],[-15,-6],[-15,-15],[-12,-3],[-18,3],[-15,-3],[-9,-6],[-15,-9],[-18,0],[-24,-3],[-27,-12],[-36,-3],[-12,-24],[-3,-15],[-21,-18],[-21,-12],[-15,2]],[[1381,3873],[0,6],[-9,9]],[[1355,3877],[2,-1],[9,-6]],[[1339,3903],[3,-24],[13,-2]],[[1039,4096],[3,-3],[15,-12],[15,-21],[21,-30],[15,-9],[6,-9],[21,-30],[15,-12],[15,-21],[12,-10],[15,-27],[30,-33],[15,0],[9,-9],[9,0],[9,3],[9,21],[15,6],[12,-6],[18,9],[6,-3],[15,3]],[[1366,3870],[15,3]],[[1381,3873],[12,-20]],[[1393,3853],[3,-7],[12,-27],[12,-24],[24,-33],[12,-24],[36,-87],[21,-27],[27,-39],[6,-19],[24,-39],[6,-21],[-6,-15],[0,-15]],[[549,3561],[-5,-3]],[[574,3581],[-2,-4]],[[544,3558],[-10,-7],[-18,-6],[-27,12],[-15,3],[-21,-6],[-21,12],[-15,-6],[-12,9],[-15,-12],[-24,-3],[-12,-18],[-21,-12],[-24,3],[-24,-9],[-24,-3],[-12,-12],[-24,-3],[-6,-9],[-9,-3],[-12,-30],[-6,0],[-18,-33],[3,-18],[-9,-24],[-9,-15],[-15,-12],[-12,-3],[-12,-18],[0,-15],[12,-9],[-6,-18],[-27,-21],[-9,-27],[12,-18],[-27,-52],[-12,0],[-6,-9],[-3,-18],[3,-12],[-12,-39],[-6,-3],[-6,-15],[-9,-6],[-18,-12]],[[572,3577],[-2,-1],[-12,-10],[-9,-5]],[[688,4096],[5,-42],[6,-15],[6,-12],[15,-48],[9,-15],[-3,-18],[6,-40],[12,-15],[3,-39],[-6,-18],[-18,-6],[-12,-12],[-6,-15],[9,-24],[0,-9],[-15,-63],[-6,-66],[-9,-21],[-21,-27],[-18,-9],[-15,3],[-27,12],[-18,0],[-11,-16]],[[0,3067],[6,-6]],[[6,3061],[15,-48],[3,-18]],[[820,2872],[-9,-9],[-15,-3],[-18,6],[-15,-6],[-13,3],[-21,15],[-18,-3],[-21,15],[-18,0],[-24,12],[-24,15],[-18,9],[-27,6],[-12,-6],[-6,-6],[-24,-3],[-12,12]],[[1559,2928],[8,-17],[9,-15],[-12,-6],[-8,-8]],[[1616,3116],[-4,-16],[-9,-3],[-15,0],[-6,-9],[3,-11]],[[1586,3075],[8,-5],[0,-5]],[[1591,3382],[6,-23],[9,-20]],[[1556,2882],[-1,-1],[-12,-30],[-6,-22],[6,-21],[0,-3],[-21,-15],[-6,-21],[-33,-18],[-21,-3]],[[1594,3065],[0,-7],[-24,-18],[-6,-18],[-12,-24],[6,-30],[0,-39],[1,-1]],[[1570,3476],[9,-18],[-6,-18],[-15,-3],[0,-9],[12,-24],[15,-9],[3,-6],[3,-7]],[[1585,3077],[0,-1],[1,-1]],[[1606,3339],[3,-10],[0,-6],[-9,-24],[-3,-12],[0,-33],[6,-24],[0,-31],[18,-36],[-3,-39],[-2,-8]],[[525,2929],[-21,-3],[-18,-12],[-12,-24],[-6,-33],[3,-40],[0,-18],[-9,-18],[-18,-9],[-9,-21],[-18,-12],[-6,-18],[-3,-6]],[[1462,2748],[-21,-3],[-24,-12],[-12,-9],[-12,-3],[-12,-12],[-18,-12]],[[1363,2697],[-9,0],[-12,9],[-12,-9],[-12,0],[-24,9],[-24,-15],[-24,9],[-15,-9],[-18,-21],[-3,-3],[-24,6],[-6,-9],[-12,-24],[-12,-12],[-18,-9],[-12,-9],[-15,-3]],[[1111,2607],[-18,9],[-24,24],[-18,15],[-6,12],[-9,9],[-9,18],[-9,9],[-9,30],[0,33],[-9,36],[-18,18],[-45,6],[-21,0],[-15,6],[-30,16],[-15,30],[-9,3],[-27,-9]],[[24,2995],[6,-30],[6,-12],[3,-18],[9,-24],[12,-15],[3,-15],[9,-21],[21,-15],[3,-13],[3,-21],[12,-12],[18,-15],[24,-42],[15,-21],[12,-12],[15,-18],[9,-33],[21,0],[12,-21],[6,-24],[6,-15],[12,-6],[15,-6],[3,-3]],[[486,2547],[-6,27],[-18,21],[-3,24],[-15,18],[-33,69],[-3,9]],[[1111,2607],[-24,-6],[-18,0],[-9,-12],[-18,3],[-18,-15],[-18,-3],[-33,-12],[-12,-9],[-21,-6],[-15,-12],[-21,-9],[-12,-9],[-15,0],[-21,-6]],[[856,2511],[-21,15],[-12,3]],[[823,2529],[-12,3],[-18,6],[-9,0],[-15,6],[-6,0],[-25,3],[-15,-6],[-15,3],[-30,3],[-15,-15],[-18,-6],[-15,0],[-18,-6],[-18,-15],[-15,-18]],[[579,2487],[-9,0],[-6,9],[-12,9],[-15,15],[-21,12],[-15,12],[-15,3]],[[285,2372],[0,-3],[12,-6],[6,-27]],[[263,2458],[-17,-14],[-3,-6],[-3,-12],[9,-12],[4,-1]],[[253,2413],[14,-8],[18,-18],[0,-15]],[[279,2583],[0,-27],[3,-15],[-3,-21],[0,-30],[-3,-21],[-13,-11]],[[401,2439],[-11,-4],[-15,-15],[-15,-15]],[[345,2375],[-9,-15],[-3,-15],[-6,-27],[-9,-9]],[[360,2405],[-6,-6],[-6,-18],[-3,-6]],[[486,2547],[-3,-18],[-12,-12],[-3,-24],[-6,-12],[-27,-25],[-12,-15],[-15,0],[-7,-2]],[[303,2336],[6,-15],[9,-12]],[[318,2309],[3,-9],[-9,-15],[-6,-24],[9,-12],[6,-15],[0,-18],[9,-39],[4,-16]],[[334,2161],[2,-8],[12,-24],[12,-24]],[[490,1987],[2,0],[9,-6]],[[384,2072],[18,-22],[6,-6]],[[360,2105],[3,-9],[21,-24]],[[408,2044],[36,-39],[21,-18],[25,0]],[[501,1981],[2,-9]],[[503,1972],[1,-3]],[[1363,2697],[-3,-33],[6,-21],[-15,-36],[0,-24],[-6,-24],[15,-66],[-3,-15],[3,-25],[-6,-36],[0,-15],[6,-9],[0,-39],[3,-21],[-6,-18],[-27,-45],[-27,-54],[-27,-36],[-30,-27],[-12,-18],[-9,-27],[-6,-22],[-3,-39],[-12,-36],[-21,-39],[-15,-33],[-9,-6],[-9,-12],[-24,-27],[-6,-9],[0,-27]],[[946,1888],[24,0],[24,0],[21,0],[15,-15],[36,-12],[24,0],[18,3],[12,-6]],[[1120,1858],[12,-6],[12,-24]],[[504,1969],[9,-12],[39,-18],[15,-21],[15,-9],[9,-18],[18,-9],[21,0],[0,-18],[3,-12],[15,-12],[18,-24],[6,-6]],[[672,1810],[42,-3]],[[714,1807],[18,9],[28,0],[30,-9],[15,3],[6,18],[18,3],[39,24],[33,24],[12,9],[12,0],[21,0]],[[1799,1867],[21,-18],[23,-24]],[[1462,2748],[3,-24],[6,-9],[0,-15],[12,-21],[6,-18],[12,-15],[3,-18],[15,-6],[6,-9],[15,-3],[3,-12],[3,-15],[12,-18],[9,-18],[15,-12],[3,-15],[-3,-12],[-6,-27],[-3,-22],[3,-42],[6,-36],[3,-24],[6,-21],[-3,-27],[3,-27],[-6,-48],[-9,-33],[3,-30],[0,-39],[6,-21],[3,-9],[-9,-22],[6,-15],[21,-24],[21,-6],[6,-6],[6,-27],[18,-9],[58,-51],[6,-15],[12,-15],[21,0],[6,-6],[12,-15],[21,-18],[6,-6]],[[1843,1825],[7,-6],[18,-33],[12,-21],[6,-24],[-3,-25],[3,-27],[6,-9],[6,-36]],[[732,1608],[-9,9],[-18,36],[-2,16]],[[703,1669],[-1,2],[0,27],[-15,31],[-12,33],[-3,27],[-3,15],[3,6]],[[949,1506],[-6,6],[-1,1]],[[783,1581],[-51,27]],[[942,1513],[-26,29],[-6,0],[-24,6],[-15,3],[-9,12],[-18,0],[-21,3],[-27,12],[-12,3],[-1,0]],[[961,1491],[-12,15]],[[1144,1828],[6,-15],[6,-6],[24,0],[27,-9],[33,-3],[18,-6],[18,-15],[9,-33],[6,-31],[6,-12],[-3,-24],[3,-18],[9,-27],[0,-15],[-3,-39],[-3,-33],[6,-36],[6,-45]],[[961,1491],[19,0]],[[980,1491],[14,0],[24,-12],[30,-21],[15,6],[18,-3],[12,9],[27,-6],[39,-18],[15,-12],[9,-3],[30,-3],[12,-12],[21,-6]],[[1246,1410],[24,0],[12,9],[15,18],[15,24]],[[1312,1461],[3,-6],[39,-30],[30,-15],[18,-15]],[[1402,1395],[-6,-18],[-9,-12],[-24,-3],[-33,-19],[-12,0],[-18,6],[-24,-3],[-12,10],[-33,-7]],[[969,1482],[-8,9]],[[1231,1349],[-12,-3],[-30,0],[-12,-3],[-36,22],[-81,27],[-9,-6],[-15,24],[-18,21],[-24,24],[-25,27]],[[1898,1644],[3,-24],[-3,-33],[6,-18],[0,-15],[-3,-33],[-6,-39],[0,-33],[6,-6],[6,-21],[18,-12],[6,-9],[3,-33],[6,-6],[15,-10],[12,-15]],[[1402,1395],[21,-12],[51,-27],[15,-16],[12,-24],[6,-9],[39,-18],[12,-15],[15,-3],[15,-12],[12,-3],[9,-6],[18,-18],[24,-15],[9,-3],[19,0],[18,-3],[12,-6],[15,-18],[21,-48],[0,-12]],[[1861,1127],[-5,-9],[-21,-12],[-24,0],[-12,-6],[-4,-10]],[[1795,1090],[-2,-8]],[[1967,1337],[3,-3],[-3,-27],[-18,-24],[-18,-33],[-12,-18],[-21,-15],[-12,-18],[-15,-24],[0,-33],[-10,-15]],[[1745,1127],[0,-9],[12,-3],[21,-12],[15,-21]],[[1828,1040],[1,-3],[4,-12]],[[1839,1011],[1,-3]],[[1841,1004],[3,-22],[3,-7]],[[1802,1079],[3,0],[12,-9],[5,-12]],[[1793,1082],[9,-3]],[[1822,1058],[4,-9],[2,-9]],[[1833,1025],[6,-14]],[[1840,1008],[1,-1],[0,-3]],[[1847,975],[3,-5]],[[1850,970],[12,-6],[24,3],[6,-6]],[[1889,938],[0,-4]],[[1892,961],[-3,-18],[0,-5]],[[0,1016],[9,15],[18,18],[24,24],[9,27],[18,12],[12,36],[9,12],[18,15],[18,21],[-3,27]],[[0,876],[21,-26],[0,-12],[0,-30],[3,-27],[-12,-30],[0,-42],[3,-24],[0,-30],[6,-9],[12,-9],[15,-3],[12,-9],[18,-28],[6,-3],[21,-9],[30,-18],[15,-21]],[[139,412],[23,-60]],[[150,546],[0,-12],[-3,-18],[-15,-33],[3,-36],[0,-12],[3,-21],[1,-2]],[[162,352],[3,-7],[0,-9],[-12,-3]],[[153,333],[-12,0],[-33,3],[-21,0],[-27,-9],[-21,-12],[-15,-12],[-15,-24],[-9,-13]],[[2614,699],[-5,-2],[-3,7],[-2,8],[0,12],[-3,4],[-22,19],[5,5],[9,-4],[14,-2],[10,-3],[-4,-11],[5,-4],[3,-5],[2,-6],[0,-6],[-2,-4],[-3,-4],[-4,-4]],[[1936,734],[24,-8],[8,-5],[6,-10],[5,-11],[-1,-9],[-5,-6],[-10,-3],[-9,-1],[-9,1],[-7,2],[-40,22],[-7,7],[-5,9],[-1,10],[4,7],[9,1],[13,-8],[0,6],[4,14],[9,-12],[12,-6]],[[1597,739],[1,-5],[0,-4],[-2,-4],[-3,-3],[-10,-1],[-12,4],[-20,11],[-16,-4],[-13,11],[-18,30],[0,9],[6,14],[7,14],[6,6],[5,1],[13,7],[8,2],[9,-3],[1,-5],[-2,-8],[-1,-9],[5,-17],[3,-9],[4,-7],[5,-2],[9,-1],[4,-2],[2,-4],[1,-3],[-1,-3],[1,-4],[2,-3],[4,-5],[2,-3]],[[2113,831],[0,-15],[-15,-51],[-6,1],[-12,11],[-2,-6],[0,-4],[2,-4],[5,-6],[-6,-3],[-3,-5],[-2,-6],[-4,-6],[-1,-4],[1,-8],[0,-3],[-4,-1],[-8,1],[-3,0],[-17,-4],[-12,4],[-26,15],[-6,0],[-16,-2],[-8,2],[-4,3],[-23,27],[-8,15],[-3,13],[8,7],[7,-3],[10,-12],[8,0],[6,4],[-1,7],[-3,7],[-3,15],[-3,5],[1,3],[8,4],[8,1],[15,-6],[7,0],[11,8],[5,25],[9,6],[8,-4],[21,-26],[11,-9],[4,8],[0,10],[-3,9],[-6,8],[8,4],[10,2],[9,-2],[8,-4],[8,-7],[3,-4],[3,-5],[4,-15]],[[2431,6],[15,-6],[-59,0],[7,16],[15,-14],[1,5],[3,9],[1,6],[5,-9],[12,-7]],[[1184,207],[-21,-4],[-6,9],[11,9],[22,9],[22,4],[9,-7],[-14,-9],[-23,-11]],[[2323,107],[36,-47],[5,-8],[-8,-4],[-4,-1],[-8,0],[8,-14],[2,-7],[0,-9],[-4,0],[-13,18],[-35,32],[-7,20],[4,0],[3,-3],[3,-3],[10,-4],[-4,5],[-11,28],[-1,8],[1,6],[4,4],[5,-2],[5,-7],[9,-12]],[[2375,170],[14,-12],[0,2],[1,3],[2,2],[3,1],[3,0],[4,-2],[102,-112],[14,-20],[-4,-8],[-13,2],[-17,12],[-16,13],[-4,6],[-6,18],[-4,2],[-10,-10],[-8,7],[-12,17],[-8,9],[-2,4],[-1,11],[-2,3],[-6,0],[-4,1],[-5,2],[-5,3],[-3,5],[-2,9],[-1,5],[-19,20],[-4,6],[-3,8],[9,-3],[7,-4]],[[2302,215],[-5,-2],[-4,2],[-3,4],[-2,12],[-4,2],[-5,1],[-5,3],[-19,26],[-5,4],[1,0],[5,3],[3,1],[4,-2],[13,-11],[22,-11],[8,-7],[3,-8],[-1,-9],[-6,-8]],[[2548,527],[-7,-5],[-6,5],[-8,11],[3,9],[12,-1],[10,-8],[-4,-11]],[[1350,536],[-8,-9],[-5,2],[-4,7],[-3,8],[0,5],[0,6],[3,6],[3,5],[7,7],[4,3],[5,2],[4,0],[6,-9],[-3,-16],[-9,-17]],[[1334,423],[-4,-4],[-4,2],[-5,6],[-5,8],[-8,23],[-2,9],[-2,5],[-3,4],[0,4],[5,2],[9,-2],[7,-6],[6,-10],[4,-9],[4,-11],[1,-6],[-1,-6],[-2,-9]],[[1408,375],[-9,0],[-13,7],[-9,11],[-4,13],[1,13],[16,66],[15,22],[24,9],[13,-2],[12,-8],[11,-10],[8,-10],[9,-15],[6,-15],[3,-15],[2,-21],[-3,-19],[-11,-9],[-62,-12],[-9,-5]],[[1637,457],[-7,-5],[-12,2],[-2,11],[3,12],[4,5],[5,5],[10,20],[5,5],[8,-3],[3,-6],[0,-8],[-3,-8],[-8,-20],[-6,-10]],[[2212,475],[-8,-18],[-7,5],[-5,7],[-8,18],[-20,21],[-4,8],[18,-9],[21,-15],[13,-17]],[[2204,575],[1,-18],[1,-12],[5,-12],[8,-17],[-10,0],[-7,-3],[-7,-1],[-7,2],[-14,10],[-15,2],[-7,4],[-10,14],[-2,14],[5,11],[15,8],[13,-3],[8,0],[3,6],[4,2],[6,1],[7,-2],[3,-6]],[[1609,480],[-18,-8],[-14,7],[-9,16],[-7,15],[-7,6],[-28,41],[-4,15],[-1,15],[2,9],[6,16],[6,24],[9,10],[11,2],[11,-6],[7,-11],[5,-14],[8,-10],[23,-9],[8,-9],[13,-22],[10,-10],[3,-6],[3,-9],[-22,-42],[-15,-20]],[[1016,727],[13,-1],[11,3],[20,10],[10,3],[17,-1],[15,-4],[14,-6],[36,-28],[56,-26],[82,-60],[11,-13],[3,-5],[6,-18],[2,-9],[2,-5],[2,0],[-6,-14],[-4,-27],[-7,-12],[-4,-3],[-8,-3],[-7,-2],[-4,3],[-2,2],[-12,16],[-39,35],[-25,14],[-31,6],[-62,-5],[-16,2],[-32,7],[-15,1],[-61,-14],[-29,-4],[-30,8],[-36,26],[-6,4],[-38,30],[2,16],[11,14],[15,11],[33,7],[8,10],[0,15],[-23,68],[-1,29],[15,20],[28,4],[21,-10],[38,-41],[5,-9],[2,-9],[-6,-12],[-3,-13],[12,-6],[17,-4]],[[1301,762],[30,-30],[35,-55],[27,-21],[8,-13],[-5,-17],[-29,-17],[-30,4],[-98,61],[0,3],[-33,30],[-9,4],[-25,9],[-13,2],[-13,4],[-9,9],[-8,10],[-7,7],[-13,3],[-44,-3],[-15,-4],[-16,-8],[-16,-6],[-16,3],[-1,8],[9,14],[24,25],[11,15],[12,31],[10,12],[29,10],[34,-4],[61,-21],[59,-31],[51,-34]],[[2471,588],[-9,0],[-4,3],[3,4],[4,9],[3,14],[7,8],[8,-9],[2,-9],[0,-3],[-1,-7],[-3,-4],[-4,-3],[-6,-3]],[[2454,567],[-5,-8],[-8,-2],[-22,5],[-13,0],[-10,-3],[-21,-12],[0,17],[9,11],[13,5],[17,2],[30,-3],[11,-5],[-1,-7]],[[1656,582],[-1,-15],[-24,32],[-10,8],[-26,9],[-11,7],[-3,14],[7,-4],[42,-16],[6,-4],[6,-5],[6,-5],[4,-6],[3,-8],[1,-7]],[[1802,559],[-8,-3],[-9,2],[-5,6],[-4,13],[-16,24],[1,11],[25,-18],[11,-12],[7,-13],[-2,-10]],[[1960,566],[-6,-4],[-9,2],[-7,5],[-12,22],[-5,6],[-26,12],[-5,5],[-2,6],[-18,22],[0,4],[33,-6],[25,-18],[19,-22],[13,-23],[0,-11]],[[1623,641],[-7,-7],[-8,0],[-10,3],[-8,5],[-4,7],[-5,5],[-8,6],[-2,5],[34,6],[6,-1],[7,-7],[5,-11],[0,-11]],[[1884,561],[-4,-3],[-4,0],[-4,3],[-14,11],[-27,15],[-13,13],[-12,18],[-3,19],[13,15],[5,-4],[12,-3],[8,-3],[17,-20],[11,-8],[10,-19],[7,-20],[-2,-14]],[[2128,644],[9,-2],[30,0],[11,-2],[12,-6],[6,-10],[-6,-12],[-5,-7],[-8,-5],[-38,-17],[-8,-1],[-7,5],[-4,10],[-4,20],[-6,9],[-10,7],[-19,4],[-11,5],[5,11],[-4,28],[4,11],[9,3],[11,-8],[22,-23],[4,-6],[3,-8],[4,-6]],[[2434,874],[-4,-26],[1,-13],[8,-13],[35,-16],[5,-6],[1,-12],[9,-36],[-12,-16],[-3,-9],[5,-15],[0,-21],[2,-4],[3,-3],[-2,-7],[-6,-7],[-10,-3],[-9,-2],[-6,-4],[-2,-7],[0,-10],[-10,-35],[-24,-4],[-61,21],[5,12],[-4,14],[-11,10],[-14,5],[0,5],[17,-1],[8,2],[4,4],[-2,6],[-9,3],[-18,1],[-15,5],[-6,6],[0,9],[5,4],[25,6],[-3,8],[0,6],[3,11],[4,1],[9,5],[4,6],[-9,3],[-4,2],[-7,10],[-4,3],[-10,-1],[-6,-3],[-32,-17],[-11,-3],[-16,-1],[-7,-2],[-9,-11],[-9,-2],[-25,-1],[-7,1],[-19,10],[-3,13],[1,15],[-7,14],[-1,13],[18,12],[36,13],[8,4],[4,4],[8,12],[3,8],[0,6],[3,4],[11,2],[16,-4],[8,2],[3,9],[5,8],[9,-1],[17,-10],[29,-7],[24,1],[21,8],[25,14],[-3,8],[6,4],[8,-4],[4,-16]],[[3633,2353],[15,-8],[13,-14],[5,-12],[0,-67],[-4,0],[-15,19],[-12,-4],[-6,5],[-6,8],[-11,2],[3,4],[1,5],[0,4],[1,6],[-8,37],[1,14],[12,-1],[11,2]],[[3671,2419],[2,-26],[-2,-7],[-4,-6],[-3,3],[-2,8],[0,8],[-2,2],[-3,1],[-4,-1],[-1,-2],[0,-5],[7,-21],[4,-4],[2,-5],[-3,-8],[-35,20],[3,4],[1,4],[0,12],[8,15],[2,15],[3,14],[12,11],[15,6],[4,-8],[-4,-30]],[[3635,1997],[-3,-4],[-4,7],[-9,12],[-5,17],[-6,10],[-4,10],[3,7],[9,3],[8,-4],[5,-8],[3,-9],[4,-25],[0,-11],[-1,-5]],[[1898,1049],[55,-27],[21,-7],[18,-5],[10,-3],[3,-5],[-8,-14],[-13,-15],[-15,-12],[-16,-4],[-18,-2],[-14,-6],[-26,-17],[-4,-4],[-2,-3],[-4,-1],[-9,-2],[-18,0],[-9,3],[-3,4],[-7,10],[-15,7],[-18,4],[-16,2],[-31,-1],[-13,3],[-5,10],[3,12],[22,31],[3,14],[3,7],[8,9],[10,6],[7,1],[16,-2],[16,2],[21,9],[10,4],[20,-2],[18,-6]],[[719,1145],[44,-8],[22,0],[7,0],[8,-3],[15,-9],[7,-3],[61,-17],[20,-18],[4,-35],[0,-57],[12,-50],[-2,-13],[-22,-5],[-32,21],[-46,44],[-30,39],[-12,6],[-7,1],[-14,7],[-110,17],[-28,14],[-28,26],[-23,27],[-16,28],[3,21],[33,9],[14,-3],[35,-17],[11,-8],[12,-6],[17,-4],[45,-4]],[[343,1501],[27,-34],[9,-19],[4,-27],[-6,-17],[-23,-27],[-5,-18],[2,-33],[-2,-14],[-10,-15],[-36,-24],[-5,-9],[-7,-8],[-18,-6],[-20,-3],[-15,0],[-34,6],[-29,14],[-22,21],[-14,28],[-8,34],[-6,16],[-18,27],[-2,15],[8,61],[9,22],[17,15],[27,6],[13,-3],[26,-9],[14,1],[11,7],[36,36],[25,8],[23,-14],[19,-22],[10,-15]],[[885,703],[-6,-1],[-7,0],[-7,-3],[-22,-19],[-6,-3],[-22,5],[-26,21],[-48,53],[-12,22],[-9,11],[-4,13],[1,18],[6,31],[2,27],[-3,13],[-14,12],[-7,15],[-6,16],[-2,13],[1,6],[7,14],[1,7],[-4,30],[2,16],[4,8],[10,3],[16,0],[28,-7],[23,-16],[39,-44],[55,-40],[11,-11],[5,-7],[4,-17],[-2,-18],[-21,-68],[-1,-18],[1,-18],[13,-41],[2,-17],[-2,-6]],[[0,1523],[36,-30],[13,-16],[6,-17],[1,-15],[-3,-31],[3,-16],[18,-41],[19,-64],[14,-27],[22,-19],[49,-23],[26,-5],[27,-11],[18,-1],[59,11],[28,1],[28,-7],[21,-13],[177,-150],[70,-38],[18,-21],[8,-33],[-5,-28],[0,-19],[7,-8],[12,-4],[10,-10],[8,-13],[3,-13],[-6,-57],[1,-28],[10,-30],[23,-31],[59,-47],[76,-82],[28,-22],[33,-18],[17,-6],[14,-3],[31,-1],[16,1],[23,8],[14,1],[83,-14],[70,-3],[30,-14],[26,-23],[74,-86],[20,-31],[7,-34],[-13,-19],[-28,-16],[-55,-25],[-29,-21],[-16,-10],[-28,-6],[-83,-42],[-11,-9],[-12,-6],[-50,-11],[-14,-6],[-5,-4],[-6,-5],[-15,-26],[-7,-4],[-20,4],[-13,10],[-25,26],[-12,5],[-19,4],[-16,1],[-5,-2],[6,-6],[7,-2],[17,0],[6,-1],[4,-4],[7,-9],[16,-18],[21,-17],[23,-7],[25,11],[5,5],[6,11],[4,4],[8,6],[17,7],[8,5],[13,4],[33,-4],[16,2],[40,18],[49,6],[12,4],[52,33],[14,4],[11,5],[36,35],[14,7],[16,7],[18,4],[15,2],[16,6],[11,13],[15,31],[16,14],[41,8],[21,10],[20,14],[19,3],[20,-4],[23,-10],[44,-25],[43,-35],[34,-42],[14,-48],[8,14],[5,7],[7,4],[8,0],[8,-4],[6,-4],[19,-6],[15,-11],[14,-13],[10,-12],[12,-27],[29,-150],[6,-8],[4,-3],[-2,-8],[-4,-6],[-1861,0],[0,1523]],[[19,2164],[-6,-1],[-1,4],[1,8],[18,44],[10,16],[13,5],[9,-5],[1,-9],[-1,-5],[1,-10],[-2,-16],[-10,-10],[-14,-5],[-11,-8],[-4,-4],[-4,-4]],[[3297,2172],[5,0],[4,3],[2,4],[1,5],[6,2],[8,-1],[22,-5],[7,-4],[-5,-10],[-5,0],[0,6],[-5,0],[-15,-54],[-7,-4],[-10,6],[-5,-1],[-5,-5],[-33,-13],[3,-5],[4,-3],[4,-1],[7,-1],[6,-2],[2,-5],[-1,-6],[-2,-2],[-9,-1],[-9,-3],[-9,-1],[-8,3],[-6,5],[-4,8],[-2,9],[-1,8],[2,9],[6,17],[4,17],[8,19],[0,6],[-5,8],[-18,10],[-7,6],[7,7],[3,10],[-1,10],[-4,9],[10,4],[6,-13],[2,-2],[1,-1],[13,-6],[3,-3],[2,-12],[-2,-11],[1,-9],[12,-3],[6,-1],[11,-3]],[[2142,1976],[-14,-1],[-11,4],[-14,15],[-5,9],[-1,6],[1,4],[-4,12],[1,7],[3,4],[10,4],[4,4],[7,11],[0,11],[-3,11],[-2,12],[2,8],[4,7],[7,5],[8,-1],[3,-4],[1,-4],[1,-9],[2,-5],[9,-14],[5,-10],[9,-30],[1,-37],[-1,-8],[-9,-7],[-14,-4]],[[0,4096],[1143,0],[41,-32],[31,-16],[30,-6],[12,-8],[37,-33],[68,-76],[74,-117],[26,-62],[72,-121],[43,-78],[4,-14],[3,-5],[13,-15],[4,-7],[0,-9],[-5,-21],[1,-17],[7,-30],[12,-110],[-1,-17],[-7,-14],[-5,-14],[9,-33],[-2,-11],[24,-67],[2,-22],[-2,-8],[-10,-26],[-6,-9],[-4,-4],[-11,-12],[-2,-6],[0,-6],[5,-19],[-5,-8],[-4,-2],[-2,-1],[-6,-2],[-5,-5],[-16,-19],[-6,-12],[-1,-13],[5,-23],[27,-67],[-2,-18],[-17,10],[-12,-21],[-8,-33],[-3,-24],[1,-27],[-2,-13],[-13,0],[-7,-9],[-6,-13],[-3,-10],[1,-14],[4,-13],[28,-61],[2,-9],[13,-18],[25,-24],[17,-24],[-10,-22],[24,5],[-35,-75],[-4,-30],[12,-90],[5,-15],[3,-14],[-15,-177],[5,-29],[23,-52],[34,-45],[86,-85],[2,-1],[8,-4],[11,-2],[13,0],[4,-3],[11,-10],[8,-2],[7,1],[17,8],[11,-4],[2,-5],[-2,-6],[2,-7],[25,-20],[9,-11],[19,-42],[-7,-16],[0,-14],[5,-14],[54,-68],[6,-6],[16,-12],[5,-4],[4,-8],[0,-15],[1,-8],[5,-8],[13,-16],[3,-8],[-2,-7],[-7,-14],[-2,-9],[5,-15],[34,-42],[19,-46],[13,-18],[9,-18],[5,-8],[15,-18],[5,-8],[5,-16],[2,-14],[-2,-32],[3,-15],[8,-15],[10,-9],[9,7],[4,0],[21,-35],[6,-34],[14,-19],[4,-10],[1,-25],[4,-10],[9,-10],[5,-10],[-4,-7],[5,-10],[5,-30],[15,-40],[7,-34],[1,-18],[-5,-8],[-6,-7],[2,-32],[-4,-11],[-27,0],[-4,-2],[-7,-11],[-4,-2],[-33,1],[-14,3],[-29,12],[-6,5],[-1,7],[1,14],[-4,11],[-9,8],[-10,6],[-7,8],[-4,26],[19,13],[27,11],[18,20],[-14,3],[-13,-3],[-12,-7],[-24,-19],[-6,-2],[-2,5],[-5,13],[-23,48],[-17,26],[-16,11],[-4,-9],[7,-20],[28,-43],[0,-11],[-4,-20],[2,-9],[3,-11],[2,-11],[-2,-11],[-26,-21],[-35,8],[-63,33],[-19,-2],[-29,-15],[-15,-3],[-30,2],[-11,-1],[-12,-6],[-37,-47],[-22,-18],[-25,5],[-2,3],[-5,8],[-6,5],[-2,-4],[0,-8],[4,-11],[1,-6],[-2,-8],[-13,-19],[-11,-25],[-9,14],[-25,22],[-10,14],[-7,14],[-23,80],[-14,28],[-20,23],[-31,20],[-87,33],[-123,76],[-29,14],[-17,5],[-16,2],[-12,3],[-9,7],[-12,19],[-14,17],[-17,15],[-20,13],[-23,11],[-12,-5],[-36,-5],[-12,0],[-17,9],[-9,14],[-14,31],[-12,15],[-60,47],[-8,9],[-5,10],[6,1],[1,2],[-1,3],[-1,4],[-9,9],[-13,9],[-28,16],[-102,42],[-117,49],[-25,14],[-19,15],[-56,61],[-8,4],[-15,3],[-15,8],[-8,12],[1,12],[-12,3],[-12,5],[-21,13],[-13,-9],[-23,-1],[-9,-11],[-5,19],[-2,23],[-3,20],[-13,9],[-5,2],[-7,6],[-10,12],[-15,42],[-6,8],[-10,4],[-35,3],[-9,5],[-7,8],[-13,9],[-40,7],[-15,7],[-24,4],[-16,7],[-29,21],[-17,20],[-36,55],[-22,19],[-32,8],[-33,3],[-18,11],[13,33],[-16,3],[1,9],[36,45],[11,9],[10,5],[8,8],[0,19],[-5,35],[-5,9],[-21,17],[-5,9],[-14,95],[-4,14],[-11,12],[-24,21],[0,1675]],[[1252,1893],[133,-54],[147,50],[67,-27],[75,-77],[-234,-127],[-4,-21],[-50,2],[15,64],[-48,-11],[-37,22],[-6,42],[35,61],[-93,76]],[[158,345],[-33,17],[16,57],[24,0],[11,-37],[-18,-37]],[[2023,832],[-11,-18],[-19,-6],[23,50],[7,-26]],[[1898,1049],[107,-47],[-80,-51],[-5,27],[-48,-8],[16,24],[-24,41],[-49,-16],[25,-9],[16,-72],[50,1],[-17,-14],[-143,29],[38,80],[114,15]],[[1240,1358],[-15,1],[19,32],[13,-8],[-17,-25]],[[982,1480],[-28,5],[-21,23],[42,21],[7,-49]],[[1983,1079],[-23,-37],[-49,22],[50,3],[-24,38],[46,-26]],[[1859,1127],[37,-11],[-32,-16],[34,-30],[-80,-13],[-35,51],[76,19]],[[552,1994],[9,-27],[-81,8],[23,30],[49,-11]],[[416,2039],[-41,25],[4,8],[37,0],[0,-33]],[[756,1675],[29,-101],[-168,97],[43,-8],[96,12]],[[236,2405],[-39,7],[41,41],[-24,57],[40,0],[16,-90],[-34,-15]],[[1593,2899],[-2,-18],[-59,1],[41,69],[20,-52]],[[1606,3051],[-32,41],[31,33],[20,-16],[-19,-58]],[[1608,3393],[6,-53],[-25,-4],[-5,42],[24,15]],[[1387,3851],[-31,21],[-18,64],[67,-79],[-18,-6]],[[53,2146],[-11,-1],[33,34],[-2,-17],[-20,-16]],[[344,2376],[56,-37],[-8,-89],[49,-78],[-41,5],[-33,-40],[-56,41],[-3,34],[-24,2],[-6,-37],[-24,24],[-49,-16],[-16,49],[-100,-43],[11,75],[25,-32],[72,24],[-15,27],[48,62],[-8,33],[32,0],[0,-33],[54,43],[36,-14]],[[342,2326],[1,-43],[16,0],[8,56],[-24,8],[-1,-21]],[[238,2266],[-5,37],[13,20],[-30,-27],[22,-30]],[[343,2363],[29,14],[-17,40],[38,27],[148,-77],[81,0],[32,-40],[0,-95],[-38,38],[-28,-3],[-24,38],[-30,8],[55,-52],[-28,-5],[29,-34],[-29,-15],[14,-44],[-41,2],[27,-27],[-17,-84],[-79,108],[26,44],[-6,76],[29,-4],[-60,41],[26,26],[-46,-1],[-37,-60],[-10,78],[-32,-13],[-12,14]],[[362,2362],[3,-2],[11,1],[10,17],[-24,-16]],[[542,3561],[27,-1],[3,22],[93,-27],[12,-47],[89,-31],[28,67],[56,-3],[114,78],[28,-38],[68,-9],[149,51],[48,-55],[3,-101],[-85,-29],[25,-46],[-10,-42],[-101,-20],[-19,-28],[-81,46],[-14,-37],[-64,9],[5,-42],[-68,-66],[-22,-68],[-134,37],[-46,87],[-74,29],[5,99],[29,38],[-64,127]],[[1763,1866],[21,-13],[49,44],[11,-26],[24,4],[9,-30],[-35,5],[6,-78],[-35,-6],[-50,100]],[[542,3561],[27,-1],[3,22],[93,-27],[12,-47],[89,-31],[28,67],[56,-3],[114,78],[28,-38],[68,-9],[149,51],[48,-55],[3,-101],[-85,-29],[25,-46],[-10,-42],[-101,-20],[-19,-28],[-81,46],[-14,-37],[-64,9],[5,-42],[-68,-66],[-22,-68],[-134,37],[-46,87],[-74,29],[5,99],[29,38],[-64,127]]]}