{"objects":{"water":{"type":"GeometryCollection","geometries":[{"type":"Polygon","properties":{"source":"naturalearthdata.com","kind":"ocean","area":1576712559132672,"sort_rank":200,"min_zoom":0.0,"id":1},"arcs":[[108],[109],[110],[111],[112],[113],[114],[115],[116],[117],[118],[119],[120],[121],[122]]},{"type":"MultiLineString","properties":{"source":"naturalearthdata.com","kind":"ocean","sort_rank":205,"boundary":true,"min_zoom":0.0,"id":32},"arcs":[[123],[124],[125]]},{"type":"LineString","properties":{"source":"naturalearthdata.com","kind":"ocean","sort_rank":205,"boundary":true,"min_zoom":0.0,"id":33},"arcs":[126]},{"type":"LineString","properties":{"source":"naturalearthdata.com","kind":"ocean","sort_rank":205,"boundary":true,"min_zoom":0.0,"id":2018},"arcs":[127]},{"type":"LineString","properties":{"source":"naturalearthdata.com","kind":"ocean","sort_rank":205,"boundary":true,"min_zoom":0.0,"id":2019},"arcs":[128]},{"type":"LineString","properties":{"source":"naturalearthdata.com","kind":"ocean","sort_rank":205,"boundary":true,"min_zoom":0.0,"id":3161},"arcs":[129]}]},"buildings":{"type":"GeometryCollection","geometries":[]},"places":{"type":"GeometryCollection","geometries":[{"type":"Point","properties":{"source":"naturalearthdata.com","kind":"locality","name":"Jakarta","country_capital":true,"population":9125000,"min_zoom":2.0,"id":7276},"coordinates":[4061,3686]},{"type":"Point","properties":{"kind":"region","name":"Banten","kind_detail":"state","name:eo":"Banteno","source":"openstreetmap.org","min_zoom":4.0,"name:zh":"\u4e07\u4e39\u7701","id":1898258173},"coordinates":[3559,3485]},{"type":"Point","properties":{"name:pt":"Ilha Christmas","name:cy":"Ynys y Nadolig","name:ko":"\ud06c\ub9ac\uc2a4\ub9c8\uc2a4 \uc12c","name:kn":"\u0c95\u0ccd\u0cb0\u0cbf\u0cb8\u0ccd\u0cae\u0cb8\u0ccd \u0ca6\u0ccd\u0cb5\u0cc0\u0caa","name:km":"\u1780\u17c4\u17c7\u200b\u1782\u17d2\u179a\u17b8\u179f\u17d2\u1798\u17b6\u179f","name:kl":"Jul-qeqertaq","name:cs":"V\u00e1no\u010dn\u00ed ostrov","name:kw":"Ynys Nadelik","name:tr":"Christmas Adas\u0131","name:ku":"Girava Christmas","name:ti":"\u12e8\u1308\u1293 \u12f0\u1234\u1276\u127d","name:ks":"\u06a9\u0631\u0650\u0633\u0645\u064e\u0633 \u062c\u0654\u0632\u06cc\u0656\u0631\u0655","name:to":"Motu Kilisimasi","name:zh-min-nan":"Christmas-t\u00f3","name:or":"\u0b16\u0b4d\u0b30\u0b40\u0b37\u0b4d\u0b1f\u0b2e\u0b3e\u0b38 \u0b06\u0b07\u0b32\u0b4d\u0b5f\u0b3e\u0b23\u0b4d\u0b21","name:pl":"Wyspa Bo\u017cego Narodzenia","name:ta":"\u0b95\u0bbf\u0bb1\u0bbf\u0bb8\u0bcd\u0ba4\u0bc1\u0bae\u0b9a\u0bc1 \u0ba4\u0bc0\u0bb5\u0bc1","name:ca":"Illa Christmas","name:te":"\u0c15\u0c4d\u0c30\u0c3f\u0c38\u0c4d\u0c2e\u0c38\u0c4d \u0c26\u0c40\u0c35\u0c3f","name:vi":"\u0110\u1ea3o Gi\u00e1ng Sinh","name:ro":"Insula Cr\u0103ciunului","name:ka":"\u10e8\u10dd\u10d1\u10d8\u10e1 \u10d9\u10e3\u10dc\u10eb\u10e3\u10da\u10d8","name:hr":"Bo\u017ei\u0107ni otok","name:da":"Jule\u00f8en","name:de":"Weihnachtsinsel","name:dz":"\u0f41\u0f72\u0f0b\u0f62\u0f72\u0f66\u0f9f\u0f0b\u0f58\u0f7a\u0f66\u0f0b\u0f58\u0f5a\u0f7c\u0f0b\u0f42\u0fb3\u0f72\u0f44","source":"openstreetmap.org","name:lv":"Ziemsv\u0113tku sala","name:lt":"Kal\u0117d\u0173 sala","name:hi":"\u0915\u094d\u0930\u093f\u0938\u092e\u0938 \u0906\u0908\u0932\u0948\u0902\u0921","name:kk":"\u041a\u0440\u0438\u0441\u0442\u043c\u0430\u0441 \u0430\u0440\u0430\u043b\u044b","name:sv":"Jul\u00f6n","name:he":"\u05d0\u05d9\u05d9 \u05db\u05e8\u05d9\u05e1\u05d8\u05de\u05e1","kind":"region","name:ur":"\u06a9\u0631\u0633\u0645\u0633 \u0622\u0626\u0644\u06cc\u0646\u0688","name:lb":"Chr\u00ebschtdagsinsel","name:uk":"\u041e\u0441\u0442\u0440\u0456\u0432 \u0420\u0456\u0437\u0434\u0432\u0430","min_zoom":4.0,"name:hu":"Kar\u00e1csony-sziget","name:ln":"Esenga ya Mb\u00f3tama","name:lo":"\u0ec0\u0e81\u0eb2\u0eb0\u0e84\u0ea3\u0eb4\u0eaa\u0ea1\u0eb2\u0e94","name:el":"\u039d\u03ae\u03c3\u03bf\u03c2 \u03c4\u03c9\u03bd \u03a7\u03c1\u03b9\u03c3\u03c4\u03bf\u03c5\u03b3\u03ad\u03bd\u03bd\u03c9\u03bd","name:eo":"Kristnaskinsulo","name":"Christmas Island","name:ee":"Kristmas \u0192udomekpo nutome","name:th":"\u0e40\u0e01\u0e32\u0e30\u0e04\u0e23\u0e34\u0e2a\u0e15\u0e4c\u0e21\u0e32\u0e2a","name:eu":"Christmas uhartea","name:et":"J\u00f5ulusaar","name:nl":"Christmaseiland","name:es":"Isla de Navidad","name:ia":"Insula de Natal","name:rm":"Insla da Christmas","name:az":"\u00c7ristmas Adas\u0131","name:id":"Pulau Natal","name:ms":"Pulau Krismas","name:mr":"\u0915\u094d\u0930\u093f\u0938\u092e\u0938 \u0926\u094d\u0935\u0940\u092a","name:ar":"\u062c\u0632\u064a\u0631\u0629 \u0627\u0644\u0645\u064a\u0644\u0627\u062f","name:my":"\u1001\u101b\u1005\u103a\u1005\u1019\u1010\u103a \u1000\u103b\u103d\u1014\u103a\u1038","official_name":"Territory of Christmas Island","name:is":"J\u00f3laeyja","name:am":"\u12e8\u1308\u1293 \u12f0\u1234\u1275","name:it":"Isola del Natale","name:ml":"\u0d15\u0d4d\u0d30\u0d3f\u0d38\u0d4d\u0d2e\u0d38\u0d4d \u0d26\u0d4d\u0d35\u0d40\u0d2a\u0d4d","name:ru":"\u041e\u0441\u0442\u0440\u043e\u0432 \u0420\u043e\u0436\u0434\u0435\u0441\u0442\u0432\u0430","name:mn":"\u0417\u0443\u043b \u0421\u0430\u0440\u044b\u043d \u0410\u0440\u0430\u043b","id":433483523,"name:mk":"\u0411\u043e\u0436\u0438\u045c\u043d\u0438 \u041e\u0441\u0442\u0440\u043e\u0432\u0438","name:af":"Christmas-eiland","name:zu":"i-Christmas Island","name:nn":"Christmas\u00f8ya","kind_detail":"state","name:no":"Christmas\u00f8ya","name:fo":"J\u00f3laoyggjin","alt_name:vi":"\u0110\u1ea3o Christmas","name:fr":"\u00cele Christmas","name:fy":"Krysteil\u00e2n","name:zh":"\u5723\u8bde\u5c9b","name:sl":"Bo\u017ei\u010dni otoki","name:sk":"Viano\u010dn\u00fd ostrov","name:ja":"\u30af\u30ea\u30b9\u30de\u30b9\u5cf6","name:si":"\u0d9a\u0dca\u200d\u0dbb\u0dd2\u0dc3\u0dca\u0da7\u0dca\u0db8\u0dc3\u0dca \u0daf\u0dd6\u0db4\u0dad\u0dca","name:sh":"Bo\u017ei\u0107ni otok","name:se":"Juovllat-sullot","name:ne":"\u0915\u094d\u0930\u093f\u0937\u094d\u091f\u092e\u0938 \u091f\u093e\u092a\u0941","name:br":"Enez Christmas","name:bs":"Bo\u017ei\u0107no ostrvo","name:bn":"\u0995\u09cd\u09b0\u09bf\u09b8\u09ae\u09be\u09b8 \u09a6\u09cd\u09ac\u09c0\u09aa","name:sw":"Kisiwa cha Krismasi","name:be":"\u0412\u043e\u0441\u0442\u0440\u0430\u045e \u0420\u0430\u0436\u0441\u0442\u0432\u0430","name:bg":"\u0420\u043e\u0436\u0434\u0435\u0441\u0442\u0432\u043e","name:wo":"Dunu Christmas","name:sr":"\u0411\u043e\u0436\u0438\u045b\u043d\u043e \u041e\u0441\u0442\u0440\u0432\u043e","name:ga":"Oile\u00e1n na Nollag","name:gd":"Eilean na Nollaig","name:gl":"Illa de Nadal","name:fa":"\u062c\u0632\u06cc\u0631\u0647 \u06a9\u0631\u06cc\u0633\u0645\u0633","name:gu":"\u0a95\u0acd\u0ab0\u0abf\u0ab8\u0aae\u0ab8 \u0a86\u0a87\u0ab2\u0ac7\u0a82\u0aa1","name:fi":"Joulusaari"},"coordinates":[3202,512]},{"type":"Point","properties":{"source":"naturalearthdata.com","kind":"locality","name":"Bogor","population":918000,"min_zoom":6.0,"id":5844},"coordinates":[4004,3395]}]},"transit":{"type":"GeometryCollection","geometries":[{"type":"MultiLineString","properties":{"kind":"train","network":"KAI_DAOP_2","sort_rank":275,"colour":"#0040ff","name":"Argo Parahyangan KA19","source":"openstreetmap.org","min_zoom":6.0,"operator":"PT KAI","ref":"Argo Parahyangan","osm_relation":true,"colour_name":"blue"},"arcs":[[10],[11],[12],[13]]},{"type":"MultiLineString","properties":{"kind":"train","network":"KAI_DAOP_2","sort_rank":275,"colour":"#0040ff","name":"Argo Parahyangan KA21","source":"openstreetmap.org","min_zoom":6.0,"operator":"PT KAI","ref":"Argo Parahyangan","osm_relation":true,"colour_name":"blue"},"arcs":[[14],[15],[16],[17]]},{"type":"MultiLineString","properties":{"osm_relation":true,"source":"openstreetmap.org","kind":"train","name":"#2 Blue Line (Jakarta - Bekasi)","sort_rank":275,"min_zoom":6.0,"operator":"KRL Jabotabek"},"arcs":[[18],[19],[20],[21],[22]]},{"type":"MultiLineString","properties":{"kind":"train","network":"KAI_DAOP_2","sort_rank":275,"colour":"#0040ff","name":"Argo Parahyangan KA34","source":"openstreetmap.org","min_zoom":6.0,"operator":"PT KAI","ref":"Argo Parahyangan","osm_relation":true,"colour_name":"blue"},"arcs":[[23],[24],[25],[26]]},{"type":"MultiLineString","properties":{"kind":"train","network":"KAI_DAOP_2","sort_rank":275,"colour":"#0040ff","name":"Argo Parahyangan KA20","source":"openstreetmap.org","min_zoom":6.0,"operator":"PT KAI","ref":"Argo Parahyangan","osm_relation":true,"colour_name":"blue"},"arcs":[[27],[28],[29],[30]]},{"type":"MultiLineString","properties":{"kind":"train","name":"Argo Parahyangan KA22","sort_rank":275,"colour":"#0040ff","source":"openstreetmap.org","min_zoom":6.0,"network":"KAI_DAOP_2","operator":"PT KAI","ref":"Argo Parahyangan","osm_relation":true,"colour_name":"blue"},"arcs":[[31],[32],[33],[34]]},{"type":"MultiLineString","properties":{"osm_relation":true,"source":"openstreetmap.org","kind":"train","name":"#3 Yellow Line (Jatinegara - Bogor)","sort_rank":275,"min_zoom":6.0,"operator":"KRL Jabotabek"},"arcs":[[35],[36],[37],[38],[39],[40],[41]]},{"type":"LineString","properties":{"kind":"train","name":"#6 Pink Line (Jakarta Kota - Tanjung Priok)","sort_rank":275,"source":"openstreetmap.org","min_zoom":6.0,"operator":"KRL Jabotabek","id":-2922237,"osm_relation":true},"arcs":[42]},{"type":"MultiLineString","properties":{"osm_relation":true,"source":"openstreetmap.org","kind":"train","name":"#1 Red Line (Jakarta - Bogor)","sort_rank":275,"min_zoom":6.0,"operator":"KRL Jabotabek"},"arcs":[[43],[44],[45],[46],[47],[48],[49],[50],[51],[52],[53],[54],[55],[56],[57],[58],[59]]},{"type":"MultiLineString","properties":{"kind":"train","network":"KAI_DAOP_2","sort_rank":275,"colour":"#0040ff","name":"Argo Parahyangan KA30","source":"openstreetmap.org","min_zoom":6.0,"operator":"PT KAI","ref":"Argo Parahyangan","osm_relation":true,"colour_name":"blue"},"arcs":[[60],[61],[62],[63]]},{"type":"LineString","properties":{"kind":"train","name":"#4 Green Line (Tanah Abang - Serpong)","sort_rank":275,"source":"openstreetmap.org","min_zoom":6.0,"operator":"KRL Jabotabek","id":-2922215,"osm_relation":true},"arcs":[64]},{"type":"LineString","properties":{"kind":"train","name":"#5 Brown Line (Duri - Tangerang)","sort_rank":275,"source":"openstreetmap.org","min_zoom":6.0,"operator":"KRL Jabotabek","id":-2922235,"osm_relation":true},"arcs":[65]},{"type":"MultiLineString","properties":{"kind":"train","network":"KAI_DAOP_2","sort_rank":275,"colour":"#0040ff","name":"Argo Parahyangan KA32","source":"openstreetmap.org","min_zoom":6.0,"operator":"PT KAI","ref":"Argo Parahyangan","osm_relation":true,"colour_name":"blue"},"arcs":[[66],[67],[68],[69]]},{"type":"MultiLineString","properties":{"kind":"train","network":"KAI_DAOP_2","sort_rank":275,"colour":"#0040ff","name":"Argo Parahyangan KA27","source":"openstreetmap.org","min_zoom":6.0,"operator":"PT KAI","ref":"Argo Parahyangan","osm_relation":true,"colour_name":"blue"},"arcs":[[70],[71],[72],[73]]},{"type":"MultiLineString","properties":{"kind":"train","network":"KAI_DAOP_2","sort_rank":275,"colour":"#0040ff","name":"Argo Parahyangan KA33","source":"openstreetmap.org","min_zoom":6.0,"operator":"PT KAI","ref":"Argo Parahyangan","osm_relation":true,"colour_name":"blue"},"arcs":[[74],[75],[76],[77]]},{"type":"LineString","properties":{"kind":"train","name":"KA Pangrango","sort_rank":275,"source":"openstreetmap.org","min_zoom":6.0,"operator":"PT. KAI","ref":"http:\/\/id.wikipedia.org\/wiki\/Kereta_api_Pangrango","id":-3413116,"osm_relation":true},"arcs":[78]},{"type":"LineString","properties":{"kind":"train","name":"KRL Commuter Line Bogor - Jakartakota","sort_rank":275,"source":"openstreetmap.org","min_zoom":6.0,"operator":"PT KCJ","id":-3442471,"osm_relation":true},"arcs":[79]},{"type":"MultiLineString","properties":{"kind":"train","name":"Argo Parahyangan KA29","sort_rank":275,"colour":"#0040ff","source":"openstreetmap.org","min_zoom":6.0,"network":"KAI_DAOP_2","operator":"PT KAI","ref":"Argo Parahyangan","osm_relation":true,"colour_name":"blue"},"arcs":[[80],[81],[82],[83]]},{"type":"MultiLineString","properties":{"kind":"train","name":"Argo Parahyangan KA31","sort_rank":275,"colour":"#0040ff","source":"openstreetmap.org","min_zoom":6.0,"network":"KAI_DAOP_2","operator":"PT KAI","ref":"Argo Parahyangan","osm_relation":true,"colour_name":"blue"},"arcs":[[84],[85],[86],[87]]},{"type":"MultiLineString","properties":{"kind":"train","name":"Argo Parahyangan KA25","sort_rank":275,"colour":"#0040ff","source":"openstreetmap.org","min_zoom":6.0,"network":"KAI_DAOP_2","operator":"PT KAI","ref":"Argo Parahyangan","osm_relation":true,"colour_name":"blue"},"arcs":[[88],[89],[90],[91]]},{"type":"MultiLineString","properties":{"kind":"train","name":"Argo Parahyangan KA28","sort_rank":275,"colour":"#0040ff","source":"openstreetmap.org","min_zoom":6.0,"network":"KAI_DAOP_2","operator":"PT KAI","ref":"Argo Parahyangan","osm_relation":true,"colour_name":"blue"},"arcs":[[92],[93],[94],[95]]},{"type":"MultiLineString","properties":{"kind":"train","name":"Argo Parahyangan KA24","sort_rank":275,"colour":"#0040ff","source":"openstreetmap.org","min_zoom":6.0,"network":"KAI_DAOP_2","operator":"PT KAI","ref":"Argo Parahyangan","osm_relation":true,"colour_name":"blue"},"arcs":[[96],[97],[98],[99]]},{"type":"MultiLineString","properties":{"kind":"train","network":"KAI_DAOP_2","sort_rank":275,"colour":"#0040ff","name":"Argo Parahyangan KA23","source":"openstreetmap.org","min_zoom":6.0,"operator":"PT KAI","ref":"Argo Parahyangan","osm_relation":true,"colour_name":"blue"},"arcs":[[100],[101],[102],[103]]},{"type":"MultiLineString","properties":{"kind":"train","name":"Argo Parahyangan KA26","sort_rank":275,"colour":"#0040ff","source":"openstreetmap.org","min_zoom":6.0,"network":"KAI_DAOP_2","operator":"PT KAI","ref":"Argo Parahyangan","osm_relation":true,"colour_name":"blue"},"arcs":[[104],[105],[106],[107]]}]},"pois":{"type":"GeometryCollection","geometries":[]},"boundaries":{"type":"GeometryCollection","geometries":[{"type":"LineString","properties":{"source":"naturalearthdata.com","kind":"region","sort_rank":256,"kind_detail":"4","min_zoom":2.0,"id":3725},"arcs":[0]},{"type":"LineString","properties":{"source":"naturalearthdata.com","kind":"region","sort_rank":256,"kind_detail":"4","min_zoom":2.0,"id":251},"arcs":[1]},{"type":"MultiLineString","properties":{"source":"naturalearthdata.com","kind":"region","sort_rank":256,"kind_detail":"4","min_zoom":2.0,"id":3722},"arcs":[[2],[3],[4]]},{"type":"MultiLineString","properties":{"source":"naturalearthdata.com","kind":"region","sort_rank":256,"kind_detail":"4","min_zoom":2.0,"id":3724},"arcs":[[5],[6],[7],[8],[9]]}]},"roads":{"type":"GeometryCollection","geometries":[{"type":"LineString","properties":{"source":"naturalearthdata.com","kind":"major_road","sort_rank":379,"kind_detail":"secondary","min_zoom":3.0,"id":42826},"arcs":[130]},{"type":"LineString","properties":{"source":"naturalearthdata.com","kind":"minor_road","sort_rank":355,"kind_detail":"tertiary","min_zoom":5.0,"id":42839},"arcs":[131]},{"type":"LineString","properties":{"source":"naturalearthdata.com","kind":"minor_road","sort_rank":355,"kind_detail":"tertiary","min_zoom":5.0,"id":42847},"arcs":[132]},{"type":"LineString","properties":{"source":"naturalearthdata.com","kind":"highway","kind_detail":"motorway","sort_rank":383,"landuse_kind":"urban_area","min_zoom":3.0,"id":42863},"arcs":[133]},{"type":"MultiLineString","properties":{"source":"naturalearthdata.com","kind":"highway","sort_rank":383,"kind_detail":"motorway","min_zoom":3.0,"id":42863},"arcs":[[134],[135]]},{"type":"LineString","properties":{"source":"naturalearthdata.com","kind":"highway","kind_detail":"motorway","sort_rank":383,"landuse_kind":"urban_area","min_zoom":3.0,"id":42886},"arcs":[136]},{"type":"LineString","properties":{"source":"naturalearthdata.com","kind":"highway","sort_rank":383,"kind_detail":"motorway","min_zoom":3.0,"id":42886},"arcs":[137]},{"type":"LineString","properties":{"source":"naturalearthdata.com","kind":"highway","kind_detail":"motorway","sort_rank":383,"landuse_kind":"urban_area","min_zoom":5.0,"id":42891},"arcs":[138]},{"type":"LineString","properties":{"source":"naturalearthdata.com","kind":"highway","sort_rank":383,"kind_detail":"motorway","min_zoom":3.0,"id":42947},"arcs":[139]},{"type":"LineString","properties":{"source":"naturalearthdata.com","kind":"major_road","sort_rank":379,"kind_detail":"secondary","min_zoom":3.0,"id":42956},"arcs":[140]},{"type":"LineString","properties":{"source":"naturalearthdata.com","kind":"major_road","sort_rank":379,"kind_detail":"secondary","min_zoom":3.0,"id":43000},"arcs":[141]}]},"earth":{"type":"GeometryCollection","geometries":[{"type":"MultiPolygon","properties":{"sort_rank":10,"source":"naturalearthdata.com","min_zoom":0.0,"kind":"earth","area":451281528791},"arcs":[[[142]],[[143]],[[144]],[[145]],[[146]],[[147]],[[148]]]}]},"landuse":{"type":"GeometryCollection","geometries":[{"type":"MultiPolygon","properties":{"source":"naturalearthdata.com","kind":"urban_area","name":"","area":2242012457,"sort_rank":11,"min_zoom":4.0},"arcs":[[[149]],[[150]],[[151]]]},{"type":"MultiPolygon","properties":{"source":"openstreetmap.org","kind":"park","tier":2,"area":19232444203,"sort_rank":24,"min_zoom":4.0,"osm_relation":true},"arcs":[[[152],[153],[154],[155],[156],[157]],[[158]],[[159]]]},{"type":"MultiPolygon","properties":{"source":"openstreetmap.org","kind":"park","tier":2,"area":2721456457,"sort_rank":24,"min_zoom":6.0,"osm_relation":true},"arcs":[[[160]],[[161]],[[162]],[[163]]]}]}},"type":"Topology","transform":{"translate":[101.25,-11.1784018737],"scale":[0.001373291,0.0013580117]},"arcs":[[[4014,3591],[-7,2],[-8,11],[-8,30],[-21,25],[-13,79],[8,12],[23,18],[3,2]],[[3246,3786],[204,206]],[[4014,3591],[10,-6],[3,-5],[3,-7],[5,-5],[8,-5],[9,-7],[7,-1]],[[4081,3566],[15,-8]],[[4059,3555],[7,2],[15,9]],[[4014,3591],[0,-39],[3,-11],[-20,-12]],[[3815,3536],[-7,3],[-5,9],[-3,10],[-4,6],[-8,1]],[[3788,3565],[-6,-3],[-10,-7],[-7,-15],[4,-12],[4,-18],[2,-20],[-8,-18],[-10,-21],[-3,-24],[15,-127],[7,-17],[6,-11],[23,-7],[10,-5],[14,-12],[-2,-12],[-40,-39],[-28,-50],[-7,-19],[-4,-17],[0,-10],[2,-8],[3,-10]],[[3997,3529],[-79,1],[-21,6],[-15,9],[-15,7],[-21,1]],[[3846,3553],[-12,-5],[-10,-8],[-9,-4]],[[4063,3686],[14,-26]],[[4077,3659],[19,-2]],[[4083,3656],[4,1],[1,0],[2,-2],[1,0],[3,0],[2,0]],[[4088,3657],[8,-1]],[[4063,3686],[14,-26]],[[4077,3659],[19,-2]],[[4083,3656],[4,1],[4,-2],[5,0]],[[4088,3657],[8,-1]],[[4052,3712],[5,0],[8,-36],[6,-9],[6,-7],[3,-4],[1,-1],[6,2],[3,-2],[1,0],[5,0]],[[4063,3686],[14,-26]],[[4077,3660],[-1,0]],[[4085,3657],[-8,2]],[[4086,3657],[1,0],[1,0],[2,-2],[1,0],[5,0]],[[4063,3686],[14,-26]],[[4077,3659],[19,-2]],[[4083,3656],[4,1],[4,-2],[5,0]],[[4088,3657],[8,-1]],[[4063,3686],[14,-26]],[[4077,3659],[19,-2]],[[4083,3656],[4,1],[1,0],[2,-2],[1,0],[3,0],[2,0]],[[4088,3657],[8,-1]],[[4063,3686],[14,-26]],[[4077,3659],[19,-2]],[[4083,3656],[4,1],[1,0],[2,-2],[1,0],[3,0],[2,0]],[[4088,3657],[8,-1]],[[4043,3397],[-8,-19]],[[4042,3478],[0,-1],[0,-1],[0,-1],[0,-2],[1,-6],[0,-5],[-1,-3],[-3,-3],[0,-1],[-1,-2],[0,-1],[0,-1],[0,-2],[0,-1],[0,-8],[1,-3],[0,-2],[0,-1],[0,-1],[2,-3],[1,-2],[-1,-12]],[[4058,3716],[-16,-12]],[[4042,3704],[8,-37],[26,-6]],[[4053,3513],[-11,-35]],[[4042,3478],[1,-11],[0,-5],[-5,-14],[4,-20],[0,-24]],[[4056,3713],[40,-47]],[[4052,3712],[44,18]],[[4053,3513],[-1,-8],[-10,-27]],[[4042,3478],[1,-11],[0,-5],[-5,-14],[4,-20],[1,-29],[-8,-21]],[[4042,3478],[0,-1],[0,-1],[0,-1],[0,-2],[1,-6],[0,-5],[-1,-3],[-3,-3],[0,-1],[-1,-2],[0,-1],[0,-1],[0,-2],[0,-1],[0,-8],[1,-3],[0,-2],[0,-1],[0,-1],[2,-3],[1,-2],[-1,-12]],[[4052,3712],[6,-2]],[[4058,3710],[1,-1]],[[4059,3709],[18,-49]],[[4053,3509],[1,9],[3,7]],[[4057,3525]],[[4057,3525],[7,15]],[[4064,3540],[0,11],[2,10],[1,7],[-1,4],[0,1],[0,1],[2,2],[0,2],[3,17],[4,15],[1,2],[3,8],[2,5],[3,5],[0,4]],[[4064,3540],[20,92],[0,1],[0,15],[0,2],[-6,7]],[[4077,3660],[-1,0]],[[4054,3515]],[[4057,3525]],[[4057,3525]],[[4058,3710],[1,-1]],[[4058,3710]],[[4063,3686],[14,-26]],[[4077,3659],[19,-2]],[[4083,3656],[4,1],[1,0],[2,-2],[1,0],[3,0],[2,0]],[[4088,3657],[8,-1]],[[4049,3672],[-45,-60],[-67,-36]],[[4042,3700],[-124,-17]],[[4063,3686],[14,-26]],[[4077,3659],[19,-2]],[[4083,3656],[4,1],[4,-2],[5,0]],[[4088,3657],[8,-1]],[[4063,3686],[14,-26]],[[4077,3659],[19,-2]],[[4083,3656],[4,1],[4,-2],[5,0]],[[4088,3657],[8,-1]],[[4063,3686],[14,-26]],[[4077,3659],[19,-2]],[[4083,3656],[4,1],[4,-2],[5,0]],[[4088,3657],[8,-1]],[[4034,3373],[1,0],[-1,0]],[[4062,3695],[-1,0],[1,-1],[0,1]],[[4063,3686],[14,-26]],[[4077,3659],[19,-2]],[[4083,3656],[4,1],[1,0],[2,-2],[1,0],[3,0],[2,0]],[[4088,3657],[8,-1]],[[4063,3686],[14,-26]],[[4077,3659],[19,-2]],[[4083,3656],[4,1],[1,0],[2,-2],[1,0],[3,0],[2,0]],[[4088,3657],[8,-1]],[[4063,3686],[14,-26]],[[4077,3659],[19,-2]],[[4083,3656],[4,1],[1,0],[2,-2],[1,0],[3,0],[2,0]],[[4088,3657],[8,-1]],[[4063,3686],[14,-26]],[[4077,3659],[19,-2]],[[4083,3656],[4,1],[1,0],[2,-2],[1,0],[3,0],[2,0]],[[4088,3657],[8,-1]],[[4063,3686],[14,-26]],[[4077,3659],[19,-2]],[[4083,3656],[4,1],[1,0],[2,-2],[1,0],[3,0],[2,0]],[[4088,3657],[8,-1]],[[4063,3686],[14,-26]],[[4077,3659],[19,-2]],[[4083,3656],[4,1],[1,0],[2,-2],[1,0],[3,0],[2,0]],[[4088,3657],[8,-1]],[[4063,3686],[14,-26]],[[4077,3659],[19,-2]],[[4083,3656],[4,1],[4,-2],[5,0]],[[4088,3657],[8,-1]],[[4096,3742],[-27,-4],[-33,-1],[-30,6],[-10,8],[-4,13],[-1,6],[-1,8],[-6,12],[-11,8],[-15,6],[-16,3],[-83,1],[-16,-4],[-11,-9],[-12,-7],[-19,0],[-44,22],[-18,3],[-17,5],[-46,36],[-30,2],[-19,-18],[-16,-24],[-24,-11],[-12,3],[-22,14],[-8,4],[-5,7],[-3,48],[-16,19],[-24,3],[-24,-9],[-16,-18],[-15,-49],[-7,-7],[-7,-4],[-51,-53],[-15,-29],[-20,-60],[-5,-27],[-8,-127],[2,-25],[-12,-31],[-19,-26],[-31,-13],[-20,-3],[-9,10],[-13,7],[-3,27],[-15,1],[-9,-7],[-19,-37],[7,-61],[-4,-12],[-11,-14],[-57,-53],[-9,-16],[-10,-34],[-9,-14],[-14,-5],[-13,6],[-9,10],[-4,12],[-18,29],[0,8],[0,7],[-2,9],[-5,8],[-8,10],[-10,9],[-9,4],[-13,-5],[-7,-10],[-6,-13],[-7,-13],[-20,-21],[-12,-10],[-10,-4],[-25,4],[-5,-2],[-2,-5],[3,-5],[11,-7],[8,-28],[6,-12],[14,-5],[6,2],[6,4],[3,6],[4,14],[7,3],[33,-2],[30,-13],[4,-2],[4,-4],[4,-6],[1,-5],[4,-3],[7,3],[6,5],[3,3],[13,-2],[8,-6],[11,-11],[9,5],[26,-8],[15,12],[30,5],[77,10],[15,-2],[24,-5],[14,-4],[13,3],[22,5],[23,1],[14,3],[8,-10],[10,3],[2,10],[13,4],[15,3],[14,2],[14,0],[22,-3],[32,-11],[53,-44],[31,-14],[24,1],[27,-19],[5,-4],[3,-5],[1,-5],[3,-4],[10,-1],[4,-3],[7,-10],[4,-2],[10,-1],[6,-3],[7,-3],[9,-4],[16,-1],[18,2],[16,5],[2,1],[14,21],[21,6],[21,-9],[22,3],[19,-15],[4,-25],[-2,-27],[-19,-19],[-29,-35],[-13,-13],[12,-16],[-4,-7],[-12,-2],[-13,0],[-13,-6],[-12,-15],[-9,-17],[-4,-12],[2,-15],[-6,-32],[17,-18],[0,-19],[-1,-13],[8,2],[19,10],[18,-3],[16,-7],[30,-26],[63,-5],[133,-13],[58,-1],[3,-1],[0,-2754],[-4096,0],[0,4096],[2222,0],[-8,-7],[5,-13],[51,-31],[12,-5],[48,-45],[5,-14],[5,-8],[11,-5],[7,-5],[39,-33],[9,-14],[3,-17],[-4,-26],[6,-7],[101,-2],[8,2],[4,5],[-2,8],[-8,17],[-3,31],[-7,28],[-88,141],[179,0],[18,-6],[46,-35],[125,-55],[33,-26],[9,-4],[24,1],[14,3],[14,6],[9,11],[-9,4],[-18,2],[-14,6],[-3,11],[15,9],[20,6],[10,7],[-2,3],[-5,5],[-5,6],[-3,8],[0,20],[-4,17],[-1,1],[183,0],[7,-6],[25,-26],[7,-4],[5,-2],[5,-4],[6,-4],[7,0],[4,2],[7,10],[4,3],[17,-16],[9,-25],[4,-57],[11,-14],[58,-7],[23,-9],[5,-12],[0,-29],[7,-7],[3,5],[22,25],[14,20],[8,25],[8,57],[4,15],[14,31],[2,16],[0,13],[759,0],[0,-354]],[[3251,546],[-8,4],[-13,-7],[-12,-11],[-11,-10],[-20,0],[-14,8],[-10,3],[0,-9],[4,-10],[-5,-13],[-8,-5],[3,-9],[14,5],[17,1],[15,-3],[11,-4],[3,-11],[4,-12],[4,-12],[11,1],[4,8],[-1,18],[6,11],[0,15],[4,18],[1,14],[1,10]],[[3138,3074],[-18,5],[-4,-1],[-1,-1],[-5,-2],[-2,-6],[22,-5],[13,4],[-5,6]],[[3325,3112],[-5,1],[-11,-2],[-5,-5],[-9,-2],[-8,-2],[4,-7],[7,2],[6,2],[5,3],[7,2],[9,8]],[[2879,3317],[14,18],[12,4],[12,12],[6,26],[1,29],[-1,18],[-8,1],[-8,-1],[-6,-2],[-3,-5],[-3,1],[-7,-2],[-9,-4],[-6,-8],[-5,6],[-37,-29],[-15,-19],[2,-13],[9,3],[31,32],[6,-18],[5,-8],[9,-4],[-6,-10],[-7,-13],[-1,-12],[7,-6],[8,4]],[[3666,3951],[0,3],[-2,1],[-16,-1],[1,-3],[15,-2],[2,2]],[[3118,3921],[-6,4],[-3,-3],[-4,-6],[-5,2],[-6,-2],[-1,-1],[3,-5],[-9,-9],[7,-7],[2,-10],[14,6],[4,2],[1,5],[1,4],[0,3],[4,4],[5,4],[-6,1],[-5,5],[4,3]],[[2943,3960],[-5,5],[-3,-7],[-6,-7],[-5,3],[-7,-6],[-5,-1],[-2,2],[-11,-7],[-3,-3],[1,-3],[2,0],[6,1],[25,-7],[5,2],[7,10],[8,4],[3,3],[-2,4],[-4,6],[-4,1]],[[2613,3945],[6,7],[2,21],[-2,8],[-10,9],[-4,1],[-14,3],[-16,9],[-7,1],[-5,-8],[1,-7],[4,-8],[10,-11],[22,-19],[13,-6]],[[2898,4047],[3,4],[2,6],[2,2],[-4,3],[-4,2],[-5,-1],[-2,2],[-6,-4],[-1,-6],[-1,-5],[0,-3],[4,-1],[4,-3],[5,1],[3,3]],[[3074,3866],[-6,-6],[-2,-4],[-1,-3],[1,-6],[3,-6],[8,-5],[10,-2],[8,5],[7,8],[1,7],[-1,3],[-1,5],[-3,5],[-9,4],[-8,-1],[-7,-4]],[[3338,3846],[0,-1],[3,0],[8,-8],[1,-9],[2,4],[5,1],[0,10],[-2,12],[-15,-2],[-6,-4],[4,-3]],[[2989,3732],[4,-4],[6,5],[6,3],[13,10],[2,4],[2,5],[-7,6],[-2,-2],[4,6],[-3,5],[-3,-6],[-8,-13],[-8,-11],[-6,-8]],[[3050,3711],[-7,-5],[-8,3],[-2,-4],[-1,-5],[7,-7],[8,-3],[15,-4],[2,8],[2,11],[-2,7],[-3,1],[-4,-1],[-5,3],[-2,-4]],[[3561,3864],[7,-9],[6,3],[2,2],[-1,6],[-6,2],[-8,-4]],[[3337,4096],[0,-13],[-2,-16],[-14,-31],[-4,-15],[-8,-57],[-8,-25],[-14,-20],[-22,-25],[-3,-5],[-7,7],[0,29],[-5,12],[-23,9],[-58,7],[-11,14],[-4,57],[-9,25],[-17,16],[-4,-3],[-7,-10],[-4,-2],[-7,0],[-6,4],[-5,4],[-5,2],[-7,4],[-25,26],[-7,6]],[[2868,4096],[1,-1],[4,-17],[0,-20],[3,-8],[5,-6],[5,-5],[2,-3],[-10,-7],[-20,-6],[-15,-9],[3,-11],[14,-6],[18,-2],[9,-4],[-9,-11],[-14,-6],[-14,-3],[-24,-1],[-9,4],[-33,26],[-125,55],[-46,35],[-18,6]],[[2416,4096],[88,-141],[7,-28],[3,-31],[8,-17],[2,-8],[-4,-5],[-8,-2],[-101,2],[-6,7],[4,26],[-3,17],[-9,14],[-39,33],[-7,5],[-11,5],[-5,8],[-5,14],[-48,45],[-12,5],[-51,31],[-5,13],[8,7]],[[4096,3742],[-27,-4],[-33,-1],[-30,6],[-10,8],[-4,13],[-1,6],[-1,8],[-6,12],[-11,8],[-15,6],[-16,3],[-83,1],[-16,-4],[-11,-9],[-12,-7],[-19,0],[-44,22],[-18,3],[-17,5],[-46,36],[-30,2],[-19,-18],[-16,-24],[-24,-11],[-12,3],[-22,14],[-8,4],[-5,7],[-3,48],[-16,19],[-24,3],[-24,-9],[-16,-18],[-15,-49],[-7,-7],[-7,-4],[-51,-53],[-15,-29],[-20,-60],[-5,-27],[-8,-127],[2,-25],[-12,-31],[-19,-26],[-31,-13],[-20,-3],[-9,10],[-13,7],[-3,27],[-15,1],[-9,-7],[-19,-37],[7,-61],[-4,-12],[-11,-14],[-57,-53],[-9,-16],[-10,-34],[-9,-14],[-14,-5],[-13,6],[-9,10],[-4,12],[-18,29],[0,8],[0,7],[-2,9],[-5,8],[-8,10],[-10,9],[-9,4],[-13,-5],[-7,-10],[-6,-13],[-7,-13],[-20,-21],[-12,-10],[-10,-4],[-25,4],[-5,-2],[-2,-5],[3,-5],[11,-7],[8,-28],[6,-12],[14,-5],[6,2],[6,4],[3,6],[4,14],[7,3],[33,-2],[30,-13],[4,-2],[4,-4],[4,-6],[1,-5],[4,-3],[7,3],[6,5],[3,3],[13,-2],[8,-6],[11,-11],[9,5],[26,-8],[15,12],[30,5],[77,10],[15,-2],[24,-5],[14,-4],[13,3],[22,5],[23,1],[14,3],[8,-10],[10,3],[2,10],[13,4],[15,3],[14,2],[14,0],[22,-3],[32,-11],[53,-44],[31,-14],[24,1],[27,-19],[5,-4],[3,-5],[1,-5],[3,-4],[10,-1],[4,-3],[7,-10],[4,-2],[10,-1],[6,-3],[7,-3],[9,-4],[16,-1],[18,2],[16,5],[2,1],[14,21],[21,6],[21,-9],[22,3],[19,-15],[4,-25],[-2,-27],[-19,-19],[-29,-35],[-13,-13],[12,-16],[-4,-7],[-12,-2],[-13,0],[-13,-6],[-12,-15],[-9,-17],[-4,-12],[2,-15],[-6,-32],[17,-18],[0,-19],[-1,-13],[8,2],[19,10],[18,-3],[16,-7],[30,-26],[63,-5],[133,-13],[58,-1],[3,-1]],[[2609,3990],[-4,1],[-14,3],[-16,9],[-7,1],[-5,-8],[1,-7],[4,-8],[10,-11],[22,-19],[13,-6],[6,7],[2,21],[-2,8],[-10,9]],[[2923,3424],[-8,1],[-8,-1],[-6,-2],[-3,-5],[-3,1],[-7,-2],[-9,-4],[-6,-8],[-5,6],[-37,-29],[-15,-19],[2,-13],[9,3],[31,32],[6,-18],[5,-8],[9,-4],[-6,-10],[-7,-13],[-1,-12],[7,-6],[8,4],[14,18],[12,4],[12,12],[6,26],[1,29],[-1,18]],[[3243,550],[-13,-7],[-12,-11],[-11,-10],[-20,0],[-14,8],[-10,3],[0,-9],[4,-10],[-5,-13],[-8,-5],[3,-9],[14,5],[17,1],[15,-3],[11,-4],[3,-11],[4,-12],[4,-12],[11,1],[4,8],[-1,18],[6,11],[0,15],[4,18],[1,14],[1,10],[-8,4]],[[3083,4096],[7,-11],[21,-9],[27,-13],[21,-30],[3,-15],[-3,-21],[0,-19],[9,-12],[12,-9],[15,-3],[24,0],[33,-12],[30,-21]],[[3285,3915],[18,-16],[39,-21],[24,-6],[78,12],[15,-6]],[[3459,3875],[6,-24]],[[3479,3833],[11,-16],[15,-12],[9,-12],[0,-2]],[[3465,3851],[6,-6],[8,-12]],[[3514,3791],[6,-22],[6,-6],[12,-6],[30,-6],[12,-7]],[[3822,3648],[46,2],[39,-3],[51,-3],[54,0],[39,6]],[[3580,3744],[15,-9],[33,-12],[12,0],[15,-21],[24,-12],[33,-6],[27,-9],[48,-25],[27,-3],[8,1]],[[4051,3650],[6,-12],[9,-6],[21,-6],[9,0]],[[4081,3368],[6,33],[9,29]],[[4075,3310],[6,58]],[[4096,3315],[-21,-5]],[[3249,522],[-4,-18],[0,-15],[-6,-11],[1,-18],[-4,-8],[-11,-1],[-4,12],[-4,12],[-3,11],[-11,4],[-15,3],[-17,-1],[-14,-5],[-3,9],[8,5],[5,13],[-4,10],[0,9],[10,-3],[14,-8],[20,0],[11,10],[12,11],[13,7],[8,-4],[-1,-10],[-1,-14]],[[2923,3424],[1,-18],[-1,-29],[-6,-26],[-12,-12],[-12,-4],[-14,-18],[-8,-4],[-7,6],[1,12],[7,13],[6,10],[-9,4],[-5,8],[-6,18],[-31,-32],[-9,-3],[-2,13],[15,19],[37,29],[5,-6],[6,8],[9,4],[7,2],[3,-1],[3,5],[6,2],[8,1],[8,-1]],[[2619,3952],[-6,-7],[-13,6],[-22,19],[-10,11],[-4,8],[-1,7],[5,8],[7,-1],[16,-9],[14,-3],[4,-1],[10,-9],[2,-8],[-2,-21]],[[4096,3742],[0,-988],[-3,1],[-58,1],[-133,13],[-63,5],[-30,26],[-16,7],[-18,3],[-19,-10],[-8,-2],[1,13],[0,19],[-17,18],[6,32],[-2,15],[4,12],[9,17],[12,15],[13,6],[13,0],[12,2],[4,7],[-12,16],[13,13],[29,35],[19,19],[2,27],[-4,25],[-19,15],[-22,-3],[-21,9],[-21,-6],[-14,-21],[-2,-1],[-16,-5],[-18,-2],[-16,1],[-9,4],[-7,3],[-6,3],[-10,1],[-4,2],[-7,10],[-4,3],[-10,1],[-3,4],[-1,5],[-3,5],[-5,4],[-27,19],[-24,-1],[-31,14],[-53,44],[-32,11],[-22,3],[-14,0],[-14,-2],[-15,-3],[-13,-4],[-2,-10],[-10,-3],[-8,10],[-14,-3],[-23,-1],[-22,-5],[-13,-3],[-14,4],[-24,5],[-15,2],[-77,-10],[-30,-5],[-15,-12],[-26,8],[-9,-5],[-11,11],[-8,6],[-13,2],[-3,-3],[-6,-5],[-7,-3],[-4,3],[-1,5],[-4,6],[-4,4],[-4,2],[-30,13],[-33,2],[-7,-3],[-4,-14],[-3,-6],[-6,-4],[-6,-2],[-14,5],[-6,12],[-8,28],[-11,7],[-3,5],[2,5],[5,2],[25,-4],[10,4],[12,10],[20,21],[7,13],[6,13],[7,10],[13,5],[9,-4],[10,-9],[8,-10],[5,-8],[2,-9],[0,-7],[0,-8],[18,-29],[4,-12],[9,-10],[13,-6],[14,5],[9,14],[10,34],[9,16],[57,53],[11,14],[4,12],[-7,61],[19,37],[9,7],[15,-1],[3,-27],[13,-7],[9,-10],[20,3],[31,13],[19,26],[12,31],[-2,25],[8,127],[5,27],[20,60],[15,29],[51,53],[7,4],[7,7],[15,49],[16,18],[24,9],[24,-3],[16,-19],[3,-48],[5,-7],[8,-4],[22,-14],[12,-3],[24,11],[16,24],[19,18],[30,-2],[46,-36],[17,-5],[18,-3],[44,-22],[19,0],[12,7],[11,9],[16,4],[83,-1],[16,-3],[15,-6],[11,-8],[6,-12],[1,-8],[1,-6],[4,-13],[10,-8],[30,-6],[33,1],[27,4]],[[3051,4096],[286,0],[0,-13],[-2,-16],[-14,-31],[-4,-15],[-8,-57],[-8,-25],[-14,-20],[-22,-25],[-3,-5],[-7,7],[0,29],[-5,12],[-23,9],[-58,7],[-11,14],[-4,57],[-9,25],[-17,16],[-4,-3],[-7,-10],[-4,-2],[-7,0],[-6,4],[-5,4],[-5,2],[-7,4],[-25,26],[-7,6]],[[2595,4096],[273,0],[1,-1],[4,-17],[0,-20],[3,-8],[5,-6],[5,-5],[2,-3],[-10,-7],[-20,-6],[-15,-9],[3,-11],[14,-6],[18,-2],[9,-4],[-9,-11],[-14,-6],[-14,-3],[-24,-1],[-9,4],[-33,26],[-125,55],[-46,35],[-18,6]],[[2222,4096],[194,0],[88,-141],[7,-28],[3,-31],[8,-17],[2,-8],[-4,-5],[-8,-2],[-101,2],[-6,7],[4,26],[-3,17],[-9,14],[-39,33],[-7,5],[-11,5],[-5,8],[-5,14],[-48,45],[-12,5],[-51,31],[-5,13],[8,7]],[[4073,3385],[-7,-21],[-34,-11],[0,46],[32,12],[9,-26]],[[3516,3790],[-51,5],[-27,23],[9,24],[62,-17],[7,-35]],[[4096,3749],[0,-239],[-8,-9],[-32,12],[-8,37],[-57,-8],[-73,90],[-97,16],[41,57],[48,8],[77,70],[19,-40],[90,6]],[[3619,3262],[36,65],[83,11],[-59,-2],[-32,56],[34,22],[-13,-42],[52,25],[18,-15],[6,26],[23,-13],[-8,35],[61,-2],[-29,-32],[15,-10],[-36,-2],[30,-18],[-2,-38],[12,32],[-2,-33],[22,2],[-2,29],[41,-20],[-5,-30],[52,-19],[62,40],[38,-9],[-11,-49],[-52,-43],[-31,11],[5,19],[-62,0],[54,-74],[-56,-34],[-37,20],[1,-34],[-32,23],[-14,83],[-28,-21],[-33,24],[-50,-20],[-51,37]],[[3679,3298],[29,-27],[2,35],[24,1],[-25,11],[-30,-20]],[[3819,3281],[16,-3],[14,-7],[-19,27],[-11,-17]],[[3737,3358],[16,-13],[10,10],[-14,11],[-12,-8]],[[3776,3347],[1,-4],[9,-1],[-3,8],[-7,-3]],[[3965,3268],[4,-4],[3,2],[-6,7],[-1,-5]],[[2294,4096],[109,0],[53,-47],[38,-143],[57,-35],[-2,-23],[-159,19],[41,14],[8,25],[-31,-10],[-70,65],[28,33],[-6,39],[-17,21],[-41,-35],[-50,33],[42,44]],[[3762,4096],[182,0],[0,-99],[-182,0],[0,99]],[[4096,3271],[0,-76],[-9,-9],[-41,34],[45,53],[5,-2]],[[4096,3281],[0,-4],[-1,1],[0,4],[1,-1]],[[2866,3267],[135,86],[78,-134],[25,-1],[-1,31],[58,71],[42,-28],[-37,-95],[-41,-31],[-222,14],[-37,87]],[[2784,3355],[73,79],[88,5],[-18,-88],[-67,-57],[-76,61]]]}