{"objects":{"water":{"type":"GeometryCollection","geometries":[{"type":"Polygon","properties":{"source":"naturalearthdata.com","kind":"ocean","area":1576712559132672,"sort_rank":200,"min_zoom":0.0,"id":1},"arcs":[[8]]},{"type":"LineString","properties":{"source":"naturalearthdata.com","kind":"ocean","sort_rank":205,"boundary":true,"min_zoom":0.0,"id":75},"arcs":[9]}]},"buildings":{"type":"GeometryCollection","geometries":[]},"places":{"type":"GeometryCollection","geometries":[{"type":"Point","properties":{"kind":"locality","name":"Crici\u00fama","kind_detail":"city","source":"openstreetmap.org","min_zoom":8.0,"name:ru":"\u041a\u0440\u0438\u0441\u0438\u0443\u043c\u0430","id":283401586,"population":206918},"coordinates":[3657,2849]},{"type":"Point","properties":{"source":"openstreetmap.org","kind":"locality","name":"Ararangu\u00e1","kind_detail":"town","population":59134,"min_zoom":8.0,"id":415524008},"coordinates":[3318,1998]},{"type":"Point","properties":{"source":"openstreetmap.org","kind":"locality","name":"I\u00e7ara","kind_detail":"town","population":56360,"min_zoom":8.0,"id":415523987},"coordinates":[3868,2741]},{"type":"Point","properties":{"source":"openstreetmap.org","kind":"locality","name":"Torres","kind_detail":"town","population":34656,"min_zoom":8.0,"id":283403961},"coordinates":[2607,658]},{"type":"Point","properties":{"source":"openstreetmap.org","kind":"locality","name":"Sombrio","kind_detail":"town","population":25332,"min_zoom":8.0,"id":415524006},"coordinates":[2890,1422]},{"type":"Point","properties":{"source":"openstreetmap.org","kind":"locality","name":"S\u00e3o Francisco de Paula","kind_detail":"town","population":22262,"min_zoom":8.0,"id":415523855},"coordinates":[121,289]},{"type":"Point","properties":{"source":"openstreetmap.org","kind":"locality","name":"Forquilhinha","kind_detail":"town","population":21611,"min_zoom":8.0,"id":415523980},"coordinates":[3353,2617]},{"type":"Point","properties":{"source":"openstreetmap.org","kind":"locality","name":"Orleans","kind_detail":"town","population":21590,"min_zoom":8.0,"id":415523990},"coordinates":[3896,3920]},{"type":"Point","properties":{"source":"openstreetmap.org","kind":"locality","name":"Urussanga","kind_detail":"town","population":19778,"min_zoom":8.0,"id":415523984},"coordinates":[3801,3381]},{"type":"Point","properties":{"source":"openstreetmap.org","kind":"locality","name":"Cocal do Sul","kind_detail":"town","population":15101,"min_zoom":8.0,"id":415523986},"coordinates":[3787,3110]},{"type":"Point","properties":{"source":"openstreetmap.org","kind":"locality","name":"Lauro Muller","kind_detail":"town","population":14131,"min_zoom":8.0,"id":415523991},"coordinates":[3575,3797]},{"type":"Point","properties":{"source":"openstreetmap.org","kind":"locality","name":"Nova Veneza","kind_detail":"town","population":13032,"min_zoom":8.0,"id":415523976},"coordinates":[3277,2988]},{"type":"Point","properties":{"source":"openstreetmap.org","kind":"locality","name":"Sider\u00f3polis","kind_detail":"town","population":12895,"min_zoom":8.0,"id":415523977},"coordinates":[3495,3120]},{"type":"Point","properties":{"source":"openstreetmap.org","kind":"locality","name":"Bom Jesus","kind_detail":"town","population":12194,"min_zoom":8.0,"id":415523948},"coordinates":[554,2882]},{"type":"Point","properties":{"source":"openstreetmap.org","kind":"locality","name":"Balne\u00e1rio Arroio do Silva","kind_detail":"town","population":11616,"min_zoom":8.0,"id":415524011},"coordinates":[3513,1843]},{"type":"Point","properties":{"source":"openstreetmap.org","kind":"locality","name":"Turvo","kind_detail":"town","population":11386,"min_zoom":8.0,"id":415524005},"coordinates":[2755,2022]},{"type":"Point","properties":{"source":"openstreetmap.org","kind":"locality","name":"Balne\u00e1rio Rinc\u00e3o","kind_detail":"town","population":11136,"min_zoom":8.0,"id":416647249},"coordinates":[4080,2368]},{"type":"Point","properties":{"source":"openstreetmap.org","kind":"locality","name":"Jacinto Machado","kind_detail":"town","population":11048,"min_zoom":8.0,"id":415524004},"coordinates":[2519,1783]},{"type":"Point","properties":{"source":"openstreetmap.org","kind":"locality","name":"Tr\u00eas Cachoeiras","kind_detail":"town","population":10891,"min_zoom":8.0,"id":415523965},"coordinates":[2056,277]}]},"transit":{"type":"GeometryCollection","geometries":[]},"pois":{"type":"GeometryCollection","geometries":[{"type":"Point","properties":{"kind":"nature_reserve","tier":2,"protect_class":"2","area":197219000,"source":"openstreetmap.org","min_zoom":8.48,"operator":"Instituto Chico Mendes de Conserva\u00e7\u00e3o da Biodiversidade","id":-3425869,"osm_relation":true,"name":"Parque Nacional da Serra Geral"},"coordinates":[1920,1455]},{"type":"Point","properties":{"kind":"nature_reserve","tier":2,"protect_class":"2","area":172857000,"source":"openstreetmap.org","min_zoom":8.57,"operator":"Instituto Chico Mendes de Conserva\u00e7\u00e3o da Biodiversidade","id":-2639428,"osm_relation":true,"name":"Parque Nacional de Aparados da Serra"},"coordinates":[1585,1181]}]},"boundaries":{"type":"GeometryCollection","geometries":[{"type":"LineString","properties":{"name:kg":"Brazil","name:ty":"Brazil","name:ka":"\u10d1\u10e0\u10d0\u10d6\u10d8\u10da\u10d8\u10d0","name:ko":"\ube0c\ub77c\uc9c8","name:cv":"\u0411\u0440\u0430\u0437\u0438\u043b\u0438","name:cu":"\u0411\u0440\u0430\ua641\u0457\u043b\u0457\ua657","name:kl":"Brazil","name:cs":"Braz\u00edlie","name:ki":"Brazil","name:co":"Brasile","name:kv":"\u0411\u0440\u0430\u0437\u0438\u043b\u0438\u044f","name:ku":"Braz\u00eel","name:ce":"\u0411\u0440\u0430\u0437\u0438\u043b\u0438\u044f","name:ta":"\u0baa\u0bbf\u0bb0\u0bc7\u0b9a\u0bbf\u0bb2\u0bcd","name:tg":"\u0411\u0440\u0430\u0437\u0438\u043b\u0438\u044f","name:ky":"\u0411\u0440\u0430\u0437\u0438\u043b\u0438\u044f","name:te":"\u0c2c\u0c4d\u0c30\u0c46\u0c1c\u0c3f\u0c32\u0c4d","name:da":"Brasilien","name:de":"Brasilien","name:dz":"\u0f56\u0f71\u0f62\u0f71\u0f0b\u0f5b\u0f72\u0f63\u0f0b","source":"openstreetmap.org","name:kn":"\u0cac\u0ccd\u0cb0\u0cc6\u0c9c\u0cbf\u0cb2\u0ccd","name:dv":"\u0784\u07aa\u0783\u07ac\u0792\u07a8\u078d\u07b0","name:km":"\u1794\u17d2\u179a\u17c1\u179f\u17ca\u17b8\u179b","name:lv":"Braz\u012blija","name:lt":"Brazilija","name:uz":"Braziliya","name:kk":"\u0411\u0440\u0430\u0437\u0438\u043b\u0438\u044f","name:ur":"\u0628\u0631\u0627\u0632\u06cc\u0644","name:lb":"Brasilien","name:la":"Brasilia","name:tt":"\u0411\u0440\u0430\u0437\u0438\u043b\u0438\u044f","name:uk":"\u0411\u0440\u0430\u0437\u0438\u043b\u0456\u044f","name:ug":"\u0628\u0631\u0627\u0632\u0649\u0644\u0649\u064a\u06d5","name:li":"Braziel","name:ln":"Brazil","name:el":"\u0392\u03c1\u03b1\u03b6\u03b9\u03bb\u03af\u03b1","name:eo":"Brazilo","name:en":"Brazil","name":"Brasil","name:tk":"Brazili\u00fda","name:ee":"Brazil","name:th":"\u0e1b\u0e23\u0e30\u0e40\u0e17\u0e28\u0e1a\u0e23\u0e32\u0e0b\u0e34\u0e25","name:et":"Brasiilia","name:ay":"Wrasil","name:rm":"Brasilia","name:rn":"Brazil","name:az":"Braziliya","name:ig":"Brazil","name:as":"\u09ac\u09cd\u09f0\u09be\u099c\u09bf\u09b2","name:zh-min-nan":"Pa-se","name:io":"Brazilia","name:is":"Brasil\u00eda","name:am":"\u1265\u122b\u12da\u120d","name:it":"Brasile","name:ru":"\u0411\u0440\u0430\u0437\u0438\u043b\u0438\u044f","name:rw":"Burezile","name:af":"Brasili\u00eb","name:zu":"IBrazili","kind_detail":"2","name:za":"Bahsih","name:zh-yue":"\u5df4\u897f","name:zh":"\u5df4\u897f","name:so":"Barasiil","name:sl":"Brazilija","name:sk":"Braz\u00edlia","name:ja":"\u30d6\u30e9\u30b8\u30eb","name:sh":"Brazil","name:se":"Brasilia","name:sc":"Brasile","name:br":"Brazil","name:bs":"Brazil","name:bm":"Brazil","name:bn":"\u09ac\u09cd\u09b0\u09be\u099c\u09bf\u09b2","name:bo":"\u0f54\u0f74\u0f0b\u0f62\u0f74\u0f0b\u0f5f\u0f72\u0f63\u0f0d","name:bi":"Brazil","name:sw":"Brazil","name:be":"\u0411\u0440\u0430\u0437\u0456\u043b\u0456\u044f","name:bg":"\u0411\u0440\u0430\u0437\u0438\u043b\u0438\u044f","name:ba":"\u0411\u0440\u0430\u0437\u0438\u043b\u0438\u044f","name:sq":"Brazili","name:sa":"\u092c\u094d\u0930\u093e\u0938\u0940\u0932","name:ps":"\u0628\u0631\u0627\u0632\u06cc\u0644","min_zoom":8.0,"name:ro":"Brazilia","name:pa":"\u0a2c\u0a4d\u0a30\u0a3e\u0a1c\u0a3c\u0a40\u0a32","name:os":"\u0411\u0440\u0430\u0437\u0438\u043b\u0438","name:or":"\u0b2c\u0b4d\u0b30\u0b3e\u0b1c\u0b3f\u0b32","name:pl":"Brazylia","name:st":"Brazil","sort_rank":262,"name:sr":"\u0411\u0440\u0430\u0437\u0438\u043b","osm_relation":true,"name:ar":"\u0627\u0644\u0628\u0631\u0627\u0632\u064a\u0644","name:tr":"Brezilya","name:hi":"\u092c\u094d\u0930\u093e\u091c\u093c\u0940\u0932","name:sv":"Brasilien","name:he":"\u05d1\u05e8\u05d6\u05d9\u05dc","name:hy":"\u0532\u0580\u0561\u0566\u056b\u056c\u056b\u0561","name:ht":"Brezil","name:hu":"Braz\u00edlia","name:hr":"Brazil","kind":"country","name:yi":"\u05d1\u05e8\u05d0\u05d6\u05d9\u05dc","name:mt":"Bra\u017cil","name:ms":"Brazil","name:mr":"\u092c\u094d\u0930\u093e\u091d\u0940\u0932","name:my":"\u1018\u101b\u102c\u1007\u102e\u1038\u1014\u102d\u102f\u1004\u103a\u1004\u1036","official_name":"Rep\u00fablica Federativa do Brasil","name:mg":"Brazila","name:ml":"\u0d2c\u0d4d\u0d30\u0d38\u0d40\u0d7d","name:mn":"\u0411\u0440\u0430\u0437\u0438\u043b","name:mi":"Par\u012bhi","id":-59470,"name:mk":"\u0411\u0440\u0430\u0437\u0438\u043b","name:vo":"Brasil\u00e4n","name:fa":"\u0628\u0631\u0632\u06cc\u0644","name:fi":"Brasilia","old_name:vi":"Ba T\u00e2y","alt_name:vi":"Brazil;Bra-xin","name:fr":"Br\u00e9sil","name:fy":"Brazylje","name:nl":"Brazili\u00eb","name:na":"Bradir","name:ne":"\u092c\u094d\u0930\u093e\u091c\u093f\u0932","name:wa":"Braezi","name:wo":"Breesil","name:nv":"Bwaz\u00ed\u00edl","name:ga":"An Bhrasa\u00edl","name:gd":"Braisil","name:gn":"Pindorama","maritime_boundary":true,"name:gv":"Yn Vrasseel","name:gu":"\u0aac\u0acd\u0ab0\u0abe\u0a9d\u0abf\u0ab2"},"arcs":[0]},{"type":"MultiLineString","properties":{"name:left:la":"Sancta Catharina","name:right:qu":"Urin Hatunmayu suyu","name:left:hi":"\u0938\u093e\u0902\u0924\u093e \u0915\u093e\u0924\u093e\u0930\u0940\u0928\u093e","name:right:hy":"\u054c\u056b\u0578\u0582 \u0533\u0580\u0561\u0576\u0564\u056b \u0564\u0578\u0582 \u054d\u0578\u0582\u056c","name:right:uk":"\u0420\u0456\u0443-\u0413\u0440\u0430\u043d\u0434\u0456-\u0434\u0443-\u0421\u0443\u043b","name:left:he":"\u05e1\u05e0\u05d8\u05d4 \u05e7\u05d8\u05e8\u05d9\u05e0\u05d4","name:left:sr":"\u0421\u0430\u043d\u0442\u0430 \u041a\u0430\u0442\u0430\u0440\u0438\u043d\u0430","name:right:lt":"Piet\u0173 Rio Grand\u0117","name:right:hi":"\u0930\u093f\u092f\u094b \u0917\u094d\u0930\u093e\u0902\u0921\u0947 \u0926\u094b \u0938\u0941\u0932","name:right:lv":"Riugrandi du Sula","name:left:lt":"Santa Katarina","name:left:hy":"\u054d\u0561\u0576\u057f\u0561 \u053f\u0561\u057f\u0561\u0580\u056b\u0576\u0561","name:left:lv":"Santakatarina","name:right:uz":"Riu-Grandi-du-Sul","name:right:he":"\u05e8\u05d9\u05d5 \u05d2\u05e8\u05d0\u05e0\u05d3\u05d4 \u05d3\u05d5 \u05e1\u05d5\u05dc","name:right:la":"Flumen Magnum Meridionale","name:right:os":"\u0420\u0438\u0443-\u0413\u0440\u0430\u043d\u0434\u0438-\u0434\u0443-\u0421\u0443\u043b","short_name:left":"SC","sort_rank":256,"source":"openstreetmap.org","name:right:ar":"\u0631\u064a\u0648 \u063a\u0631\u0627\u0646\u062f\u064a \u062f\u0648 \u0633\u0648\u0644","name:left":"Santa Catarina","name:right:mk":"\u0408\u0443\u0436\u043d\u0430 \u0420\u0438\u043e \u0413\u0440\u0430\u043d\u0434\u0435","name:left:ja":"\u30b5\u30f3\u30bf \u30ab\u30bf\u30ea\u30fc\u30ca","name:left:ka":"\u10e1\u10d0\u10dc\u10e2\u10d0-\u10d9\u10d0\u10e2\u10d0\u10e0\u10d8\u10dc\u10d0","name:right:eu":"Hegoaldeko Rio Grande","name:left:os":"\u0421\u0430\u043d\u0442\u00e6-\u041a\u0430\u0442\u0430\u0440\u0438\u043d\u00e6","name:right:ru":"\u0420\u0438\u0443-\u0413\u0440\u0430\u043d\u0434\u0438-\u0434\u0443-\u0421\u0443\u043b","name:right:es":"R\u00edo Grande del Sur","name:left:ru":"\u0421\u0430\u043d\u0442\u0430-\u041a\u0430\u0442\u0430\u0440\u0438\u043d\u0430","name:right:mr":"\u0930\u093f\u092f\u094b \u0917\u094d\u0930\u093e\u0902\u0926\u0947 \u0926\u094b \u0938\u0941\u0932","name:right:eo":"Suda Rio-Grando","kind":"region","name":"Santa Catarina - Rio Grande do Sul","name:left:fa":"\u0633\u0627\u0646\u062a\u0627 \u06a9\u0627\u062a\u0627\u0631\u06cc\u0646\u0627","min_zoom":8.0,"name:right:be":"\u0420\u044b\u0443-\u0413\u0440\u0430\u043d\u0434\u044b-\u0434\u0443-\u0421\u0443\u043b","name:left:zh":"\u5723\u5361\u5854\u7433\u5a1c","name:right:zh":"\u5357\u91cc\u5965\u683c\u5170\u5fb7","name:left:uz":"Santa-Katarina","name:right:ja":"\u30ea\u30aa\u30b0\u30e9\u30f3\u30c7\u30fb\u30c9\u30fb\u30b9\u30eb","name:right:sr":"\u0420\u0438\u043e \u0413\u0440\u0430\u043d\u0434\u0435 \u0434\u043e \u0421\u0443\u043b","id:right":-242620,"name:left:uk":"\u0421\u0430\u043d\u0442\u0430-\u041a\u0430\u0442\u0430\u0440\u0456\u043d\u0430","name:right:sh":"Rio Grandi du Sul","name:left:be":"\u0421\u0430\u043d\u0442\u0430-\u041a\u0430\u0442\u0430\u0440\u044b\u043d\u0430","name:left:bg":"\u0421\u0430\u043d\u0442\u0430 \u041a\u0430\u0442\u0430\u0440\u0438\u043d\u0430","name:right:fa":"\u0631\u06cc\u0648 \u06af\u0631\u0627\u0646\u062f\u0647 \u062c\u0646\u0648\u0628\u06cc","id":-296584,"name:right":"Rio Grande do Sul","name:left:eo":"Sankta Katarino","kind_detail":"4","id:left":-296584,"name:left:ko":"\uc0b0\ud0c0\uce74\ud0c0\ub9ac\ub098","name:right:ka":"\u10e0\u10d8\u10e3-\u10d2\u10e0\u10d0\u10dc\u10d3\u10d8-\u10d3\u10e3-\u10e1\u10e3\u10da\u10d8","name:left:ar":"\u0633\u0627\u0646\u062a\u0627 \u0643\u0627\u062a\u0627\u0631\u064a\u0646\u0627","name:left:mk":"\u0421\u0430\u043d\u0442\u0430 \u041a\u0430\u0442\u0430\u0440\u0438\u043d\u0430","name:right:kk":"\u0420\u0438\u0443-\u0413\u0440\u0430\u043d\u0434\u0438-\u0434\u0443-\u0421\u0443\u043b","name:right:ko":"\ud788\uc6b0\uadf8\ub780\uc9c0\ub450\uc220","name:right:bg":"\u0420\u0438\u043e \u0413\u0440\u0430\u043d\u0434\u0438 \u0434\u043e \u0421\u0443\u043b","name:left:th":"\u0e0b\u0e31\u0e19\u0e15\u0e32\u0e01\u0e32\u0e15\u0e32\u0e23\u0e35\u0e19\u0e32","name:left:mr":"\u0938\u093e\u0902\u0924\u093e \u0915\u093e\u0924\u093e\u0930\u093f\u0928\u093e","name:right:th":"\u0e23\u0e35\u0e42\u0e2d\u0e01\u0e23\u0e31\u0e19\u0e14\u0e35\u0e42\u0e14\u0e0b\u0e39\u0e25","short_name:right":"RS","name:right:gl":"R\u00edo Grande do Sur","name:right:tg":"\u0420\u0438\u0443 \u0413\u0440\u0430\u043d\u0434\u0438 \u0434\u0443 \u0421\u0443\u043b","osm_relation":true,"name:left:tg":"\u0421\u0430\u043d\u0442\u0430 \u041a\u0430\u0442\u0430\u0440\u0438\u043d\u0430"},"arcs":[[1],[2]]},{"type":"MultiLineString","properties":{"name:left:la":"Sancta Catharina","name:right:qu":"Urin Hatunmayu suyu","name:left:hi":"\u0938\u093e\u0902\u0924\u093e \u0915\u093e\u0924\u093e\u0930\u0940\u0928\u093e","name:right:hy":"\u054c\u056b\u0578\u0582 \u0533\u0580\u0561\u0576\u0564\u056b \u0564\u0578\u0582 \u054d\u0578\u0582\u056c","name:right:uk":"\u0420\u0456\u0443-\u0413\u0440\u0430\u043d\u0434\u0456-\u0434\u0443-\u0421\u0443\u043b","name:left:he":"\u05e1\u05e0\u05d8\u05d4 \u05e7\u05d8\u05e8\u05d9\u05e0\u05d4","name:left:sr":"\u0421\u0430\u043d\u0442\u0430 \u041a\u0430\u0442\u0430\u0440\u0438\u043d\u0430","name:right:lt":"Piet\u0173 Rio Grand\u0117","name:right:hi":"\u0930\u093f\u092f\u094b \u0917\u094d\u0930\u093e\u0902\u0921\u0947 \u0926\u094b \u0938\u0941\u0932","name:right:lv":"Riugrandi du Sula","name:left:lt":"Santa Katarina","name:left:hy":"\u054d\u0561\u0576\u057f\u0561 \u053f\u0561\u057f\u0561\u0580\u056b\u0576\u0561","name:left:lv":"Santakatarina","name:right:uz":"Riu-Grandi-du-Sul","name:right:he":"\u05e8\u05d9\u05d5 \u05d2\u05e8\u05d0\u05e0\u05d3\u05d4 \u05d3\u05d5 \u05e1\u05d5\u05dc","name:right:la":"Flumen Magnum Meridionale","name:right:os":"\u0420\u0438\u0443-\u0413\u0440\u0430\u043d\u0434\u0438-\u0434\u0443-\u0421\u0443\u043b","short_name:left":"SC","sort_rank":256,"source":"openstreetmap.org","name:right:ar":"\u0631\u064a\u0648 \u063a\u0631\u0627\u0646\u062f\u064a \u062f\u0648 \u0633\u0648\u0644","name:left":"Santa Catarina","name:right:mk":"\u0408\u0443\u0436\u043d\u0430 \u0420\u0438\u043e \u0413\u0440\u0430\u043d\u0434\u0435","name:left:ja":"\u30b5\u30f3\u30bf \u30ab\u30bf\u30ea\u30fc\u30ca","name:left:ka":"\u10e1\u10d0\u10dc\u10e2\u10d0-\u10d9\u10d0\u10e2\u10d0\u10e0\u10d8\u10dc\u10d0","name:right:eu":"Hegoaldeko Rio Grande","name:left:os":"\u0421\u0430\u043d\u0442\u00e6-\u041a\u0430\u0442\u0430\u0440\u0438\u043d\u00e6","name:right:ru":"\u0420\u0438\u0443-\u0413\u0440\u0430\u043d\u0434\u0438-\u0434\u0443-\u0421\u0443\u043b","name:right:es":"R\u00edo Grande del Sur","name:left:ru":"\u0421\u0430\u043d\u0442\u0430-\u041a\u0430\u0442\u0430\u0440\u0438\u043d\u0430","name:right:mr":"\u0930\u093f\u092f\u094b \u0917\u094d\u0930\u093e\u0902\u0926\u0947 \u0926\u094b \u0938\u0941\u0932","name:right:eo":"Suda Rio-Grando","kind":"region","name":"Santa Catarina - Rio Grande do Sul","name:left:fa":"\u0633\u0627\u0646\u062a\u0627 \u06a9\u0627\u062a\u0627\u0631\u06cc\u0646\u0627","min_zoom":8.0,"name:right:be":"\u0420\u044b\u0443-\u0413\u0440\u0430\u043d\u0434\u044b-\u0434\u0443-\u0421\u0443\u043b","name:left:zh":"\u5723\u5361\u5854\u7433\u5a1c","name:right:zh":"\u5357\u91cc\u5965\u683c\u5170\u5fb7","name:left:uz":"Santa-Katarina","name:right:ja":"\u30ea\u30aa\u30b0\u30e9\u30f3\u30c7\u30fb\u30c9\u30fb\u30b9\u30eb","name:right:sr":"\u0420\u0438\u043e \u0413\u0440\u0430\u043d\u0434\u0435 \u0434\u043e \u0421\u0443\u043b","id:right":-242620,"name:left:uk":"\u0421\u0430\u043d\u0442\u0430-\u041a\u0430\u0442\u0430\u0440\u0456\u043d\u0430","name:right:sh":"Rio Grandi du Sul","name:left:be":"\u0421\u0430\u043d\u0442\u0430-\u041a\u0430\u0442\u0430\u0440\u044b\u043d\u0430","name:left:bg":"\u0421\u0430\u043d\u0442\u0430 \u041a\u0430\u0442\u0430\u0440\u0438\u043d\u0430","name:right:fa":"\u0631\u06cc\u0648 \u06af\u0631\u0627\u0646\u062f\u0647 \u062c\u0646\u0648\u0628\u06cc","id":-296584,"name:right":"Rio Grande do Sul","name:left:eo":"Sankta Katarino","kind_detail":"4","id:left":-296584,"name:left:ko":"\uc0b0\ud0c0\uce74\ud0c0\ub9ac\ub098","name:right:ka":"\u10e0\u10d8\u10e3-\u10d2\u10e0\u10d0\u10dc\u10d3\u10d8-\u10d3\u10e3-\u10e1\u10e3\u10da\u10d8","name:left:ar":"\u0633\u0627\u0646\u062a\u0627 \u0643\u0627\u062a\u0627\u0631\u064a\u0646\u0627","name:left:mk":"\u0421\u0430\u043d\u0442\u0430 \u041a\u0430\u0442\u0430\u0440\u0438\u043d\u0430","name:right:kk":"\u0420\u0438\u0443-\u0413\u0440\u0430\u043d\u0434\u0438-\u0434\u0443-\u0421\u0443\u043b","name:right:ko":"\ud788\uc6b0\uadf8\ub780\uc9c0\ub450\uc220","name:right:bg":"\u0420\u0438\u043e \u0413\u0440\u0430\u043d\u0434\u0438 \u0434\u043e \u0421\u0443\u043b","name:left:th":"\u0e0b\u0e31\u0e19\u0e15\u0e32\u0e01\u0e32\u0e15\u0e32\u0e23\u0e35\u0e19\u0e32","name:left:mr":"\u0938\u093e\u0902\u0924\u093e \u0915\u093e\u0924\u093e\u0930\u093f\u0928\u093e","name:right:th":"\u0e23\u0e35\u0e42\u0e2d\u0e01\u0e23\u0e31\u0e19\u0e14\u0e35\u0e42\u0e14\u0e0b\u0e39\u0e25","short_name:right":"RS","name:right:gl":"R\u00edo Grande do Sur","name:right:tg":"\u0420\u0438\u0443 \u0413\u0440\u0430\u043d\u0434\u0438 \u0434\u0443 \u0421\u0443\u043b","osm_relation":true,"name:left:tg":"\u0421\u0430\u043d\u0442\u0430 \u041a\u0430\u0442\u0430\u0440\u0438\u043d\u0430"},"arcs":[[3],[4]]},{"type":"LineString","properties":{"name:left:la":"Sancta Catharina","name:right:qu":"Urin Hatunmayu suyu","name:left:hi":"\u0938\u093e\u0902\u0924\u093e \u0915\u093e\u0924\u093e\u0930\u0940\u0928\u093e","name:left:uz":"Santa-Katarina","name:right:uk":"\u0420\u0456\u0443-\u0413\u0440\u0430\u043d\u0434\u0456-\u0434\u0443-\u0421\u0443\u043b","name:left:he":"\u05e1\u05e0\u05d8\u05d4 \u05e7\u05d8\u05e8\u05d9\u05e0\u05d4","name:left:sr":"\u0421\u0430\u043d\u0442\u0430 \u041a\u0430\u0442\u0430\u0440\u0438\u043d\u0430","name:right:lt":"Piet\u0173 Rio Grand\u0117","name:right:hi":"\u0930\u093f\u092f\u094b \u0917\u094d\u0930\u093e\u0902\u0921\u0947 \u0926\u094b \u0938\u0941\u0932","name:right:lv":"Riugrandi du Sula","name:left:lt":"Santa Katarina","name:left:hy":"\u054d\u0561\u0576\u057f\u0561 \u053f\u0561\u057f\u0561\u0580\u056b\u0576\u0561","name:left:lv":"Santakatarina","name:right:uz":"Riu-Grandi-du-Sul","name:right:he":"\u05e8\u05d9\u05d5 \u05d2\u05e8\u05d0\u05e0\u05d3\u05d4 \u05d3\u05d5 \u05e1\u05d5\u05dc","name:right:la":"Flumen Magnum Meridionale","short_name:left":"SC","sort_rank":256,"source":"openstreetmap.org","name:right:ar":"\u0631\u064a\u0648 \u063a\u0631\u0627\u0646\u062f\u064a \u062f\u0648 \u0633\u0648\u0644","name:left":"Santa Catarina","name:right:mk":"\u0408\u0443\u0436\u043d\u0430 \u0420\u0438\u043e \u0413\u0440\u0430\u043d\u0434\u0435","name:right:sr":"\u0420\u0438\u043e \u0413\u0440\u0430\u043d\u0434\u0435 \u0434\u043e \u0421\u0443\u043b","name:left:ka":"\u10e1\u10d0\u10dc\u10e2\u10d0-\u10d9\u10d0\u10e2\u10d0\u10e0\u10d8\u10dc\u10d0","name:right:eu":"Hegoaldeko Rio Grande","name:left:os":"\u0421\u0430\u043d\u0442\u00e6-\u041a\u0430\u0442\u0430\u0440\u0438\u043d\u00e6","name:right:ru":"\u0420\u0438\u0443-\u0413\u0440\u0430\u043d\u0434\u0438-\u0434\u0443-\u0421\u0443\u043b","name:left:ru":"\u0421\u0430\u043d\u0442\u0430-\u041a\u0430\u0442\u0430\u0440\u0438\u043d\u0430","name:right:mr":"\u0930\u093f\u092f\u094b \u0917\u094d\u0930\u093e\u0902\u0926\u0947 \u0926\u094b \u0938\u0941\u0932","name:right:eo":"Suda Rio-Grando","kind":"region","name":"Santa Catarina - Rio Grande do Sul","name:left:fa":"\u0633\u0627\u0646\u062a\u0627 \u06a9\u0627\u062a\u0627\u0631\u06cc\u0646\u0627","name:right:fa":"\u0631\u06cc\u0648 \u06af\u0631\u0627\u0646\u062f\u0647 \u062c\u0646\u0648\u0628\u06cc","min_zoom":8.0,"osm_relation":true,"name:right:be":"\u0420\u044b\u0443-\u0413\u0440\u0430\u043d\u0434\u044b-\u0434\u0443-\u0421\u0443\u043b","name:left:zh":"\u5723\u5361\u5854\u7433\u5a1c","name:right:zh":"\u5357\u91cc\u5965\u683c\u5170\u5fb7","name:right:es":"R\u00edo Grande del Sur","name:right:ja":"\u30ea\u30aa\u30b0\u30e9\u30f3\u30c7\u30fb\u30c9\u30fb\u30b9\u30eb","name:left:ja":"\u30b5\u30f3\u30bf \u30ab\u30bf\u30ea\u30fc\u30ca","id:right":-242620,"name:left:uk":"\u0421\u0430\u043d\u0442\u0430-\u041a\u0430\u0442\u0430\u0440\u0456\u043d\u0430","name:right:sh":"Rio Grandi du Sul","name:left:bg":"\u0421\u0430\u043d\u0442\u0430 \u041a\u0430\u0442\u0430\u0440\u0438\u043d\u0430","name:left:be":"\u0421\u0430\u043d\u0442\u0430-\u041a\u0430\u0442\u0430\u0440\u044b\u043d\u0430","id":-296584,"name:right":"Rio Grande do Sul","name:left:eo":"Sankta Katarino","kind_detail":"4","name:right:hy":"\u054c\u056b\u0578\u0582 \u0533\u0580\u0561\u0576\u0564\u056b \u0564\u0578\u0582 \u054d\u0578\u0582\u056c","id:left":-296584,"name:left:ko":"\uc0b0\ud0c0\uce74\ud0c0\ub9ac\ub098","name:right:ka":"\u10e0\u10d8\u10e3-\u10d2\u10e0\u10d0\u10dc\u10d3\u10d8-\u10d3\u10e3-\u10e1\u10e3\u10da\u10d8","name:left:ar":"\u0633\u0627\u0646\u062a\u0627 \u0643\u0627\u062a\u0627\u0631\u064a\u0646\u0627","name:left:mk":"\u0421\u0430\u043d\u0442\u0430 \u041a\u0430\u0442\u0430\u0440\u0438\u043d\u0430","name:right:kk":"\u0420\u0438\u0443-\u0413\u0440\u0430\u043d\u0434\u0438-\u0434\u0443-\u0421\u0443\u043b","name:right:ko":"\ud788\uc6b0\uadf8\ub780\uc9c0\ub450\uc220","name:right:bg":"\u0420\u0438\u043e \u0413\u0440\u0430\u043d\u0434\u0438 \u0434\u043e \u0421\u0443\u043b","name:left:th":"\u0e0b\u0e31\u0e19\u0e15\u0e32\u0e01\u0e32\u0e15\u0e32\u0e23\u0e35\u0e19\u0e32","name:left:mr":"\u0938\u093e\u0902\u0924\u093e \u0915\u093e\u0924\u093e\u0930\u093f\u0928\u093e","name:right:th":"\u0e23\u0e35\u0e42\u0e2d\u0e01\u0e23\u0e31\u0e19\u0e14\u0e35\u0e42\u0e14\u0e0b\u0e39\u0e25","short_name:right":"RS","name:right:gl":"R\u00edo Grande do Sur","name:right:tg":"\u0420\u0438\u0443 \u0413\u0440\u0430\u043d\u0434\u0438 \u0434\u0443 \u0421\u0443\u043b","name:right:os":"\u0420\u0438\u0443-\u0413\u0440\u0430\u043d\u0434\u0438-\u0434\u0443-\u0421\u0443\u043b","name:left:tg":"\u0421\u0430\u043d\u0442\u0430 \u041a\u0430\u0442\u0430\u0440\u0438\u043d\u0430","maritime_boundary":true},"arcs":[5]},{"type":"LineString","properties":{"name:ka":"\u10e1\u10d0\u10dc\u10e2\u10d0-\u10d9\u10d0\u10e2\u10d0\u10e0\u10d8\u10dc\u10d0","name:mr":"\u0938\u093e\u0902\u0924\u093e \u0915\u093e\u0924\u093e\u0930\u093f\u0928\u093e","name:ko":"\uc0b0\ud0c0\uce74\ud0c0\ub9ac\ub098","name:ar":"\u0633\u0627\u0646\u062a\u0627 \u0643\u0627\u062a\u0627\u0631\u064a\u0646\u0627","name:th":"\u0e0b\u0e31\u0e19\u0e15\u0e32\u0e01\u0e32\u0e15\u0e32\u0e23\u0e35\u0e19\u0e32","name:os":"\u0421\u0430\u043d\u0442\u00e6-\u041a\u0430\u0442\u0430\u0440\u0438\u043d\u00e6","name:ru":"\u0421\u0430\u043d\u0442\u0430-\u041a\u0430\u0442\u0430\u0440\u0438\u043d\u0430","name:tg":"\u0421\u0430\u043d\u0442\u0430 \u041a\u0430\u0442\u0430\u0440\u0438\u043d\u0430","name:mk":"\u0421\u0430\u043d\u0442\u0430 \u041a\u0430\u0442\u0430\u0440\u0438\u043d\u0430","name:fa":"\u0633\u0627\u0646\u062a\u0627 \u06a9\u0627\u062a\u0627\u0631\u06cc\u0646\u0627","short_name":"SC","sort_rank":256,"kind_detail":"4","name:uz":"Santa-Katarina","id":-296584,"source":"openstreetmap.org","name:zh":"\u5723\u5361\u5854\u7433\u5a1c","name:lv":"Santakatarina","name:ja":"\u30b5\u30f3\u30bf \u30ab\u30bf\u30ea\u30fc\u30ca","name:lt":"Santa Katarina","name:hi":"\u0938\u093e\u0902\u0924\u093e \u0915\u093e\u0924\u093e\u0930\u0940\u0928\u093e","name:he":"\u05e1\u05e0\u05d8\u05d4 \u05e7\u05d8\u05e8\u05d9\u05e0\u05d4","name:eo":"Sankta Katarino","name:la":"Sancta Catharina","name:uk":"\u0421\u0430\u043d\u0442\u0430-\u041a\u0430\u0442\u0430\u0440\u0456\u043d\u0430","name:hy":"\u054d\u0561\u0576\u057f\u0561 \u053f\u0561\u057f\u0561\u0580\u056b\u0576\u0561","name:be":"\u0421\u0430\u043d\u0442\u0430-\u041a\u0430\u0442\u0430\u0440\u044b\u043d\u0430","name:bg":"\u0421\u0430\u043d\u0442\u0430 \u041a\u0430\u0442\u0430\u0440\u0438\u043d\u0430","name:sr":"\u0421\u0430\u043d\u0442\u0430 \u041a\u0430\u0442\u0430\u0440\u0438\u043d\u0430","osm_relation":true,"kind":"region","name":"Santa Catarina","min_zoom":8.0,"maritime_boundary":true},"arcs":[6]},{"type":"LineString","properties":{"name:ka":"\u10e0\u10d8\u10e3-\u10d2\u10e0\u10d0\u10dc\u10d3\u10d8-\u10d3\u10e3-\u10e1\u10e3\u10da\u10d8","name:mr":"\u0930\u093f\u092f\u094b \u0917\u094d\u0930\u093e\u0902\u0926\u0947 \u0926\u094b \u0938\u0941\u0932","name:ko":"\ud788\uc6b0\uadf8\ub780\uc9c0\ub450\uc220","name:ar":"\u0631\u064a\u0648 \u063a\u0631\u0627\u0646\u062f\u064a \u062f\u0648 \u0633\u0648\u0644","name:kk":"\u0420\u0438\u0443-\u0413\u0440\u0430\u043d\u0434\u0438-\u0434\u0443-\u0421\u0443\u043b","name:th":"\u0e23\u0e35\u0e42\u0e2d\u0e01\u0e23\u0e31\u0e19\u0e14\u0e35\u0e42\u0e14\u0e0b\u0e39\u0e25","name:os":"\u0420\u0438\u0443-\u0413\u0440\u0430\u043d\u0434\u0438-\u0434\u0443-\u0421\u0443\u043b","name:ru":"\u0420\u0438\u0443-\u0413\u0440\u0430\u043d\u0434\u0438-\u0434\u0443-\u0421\u0443\u043b","name:uz":"Riu-Grandi-du-Sul","name:tg":"\u0420\u0438\u0443 \u0413\u0440\u0430\u043d\u0434\u0438 \u0434\u0443 \u0421\u0443\u043b","name:mk":"\u0408\u0443\u0436\u043d\u0430 \u0420\u0438\u043e \u0413\u0440\u0430\u043d\u0434\u0435","name:fa":"\u0631\u06cc\u0648 \u06af\u0631\u0627\u0646\u062f\u0647 \u062c\u0646\u0648\u0628\u06cc","short_name":"RS","sort_rank":256,"kind_detail":"4","name:hi":"\u0930\u093f\u092f\u094b \u0917\u094d\u0930\u093e\u0902\u0921\u0947 \u0926\u094b \u0938\u0941\u0932","id":-242620,"source":"openstreetmap.org","name:zh":"\u5357\u91cc\u5965\u683c\u5170\u5fb7","name:lv":"Riugrandi du Sula","name:ja":"\u30ea\u30aa\u30b0\u30e9\u30f3\u30c7\u30fb\u30c9\u30fb\u30b9\u30eb","name:lt":"Piet\u0173 Rio Grand\u0117","name:sh":"Rio Grandi du Sul","name:he":"\u05e8\u05d9\u05d5 \u05d2\u05e8\u05d0\u05e0\u05d3\u05d4 \u05d3\u05d5 \u05e1\u05d5\u05dc","name:eo":"Suda Rio-Grando","name:la":"Flumen Magnum Meridionale","name:uk":"\u0420\u0456\u0443-\u0413\u0440\u0430\u043d\u0434\u0456-\u0434\u0443-\u0421\u0443\u043b","name:hy":"\u054c\u056b\u0578\u0582 \u0533\u0580\u0561\u0576\u0564\u056b \u0564\u0578\u0582 \u054d\u0578\u0582\u056c","name:be":"\u0420\u044b\u0443-\u0413\u0440\u0430\u043d\u0434\u044b-\u0434\u0443-\u0421\u0443\u043b","name:bg":"\u0420\u0438\u043e \u0413\u0440\u0430\u043d\u0434\u0438 \u0434\u043e \u0421\u0443\u043b","name:qu":"Urin Hatunmayu suyu","name:sr":"\u0420\u0438\u043e \u0413\u0440\u0430\u043d\u0434\u0435 \u0434\u043e \u0421\u0443\u043b","osm_relation":true,"kind":"region","name":"Rio Grande do Sul","min_zoom":8.0,"name:gl":"R\u00edo Grande do Sur","maritime_boundary":true,"name:eu":"Hegoaldeko Rio Grande","name:es":"R\u00edo Grande del Sur"},"arcs":[7]}]},"roads":{"type":"GeometryCollection","geometries":[{"type":"LineString","properties":{"kind":"major_road","network":"BR:RS","sort_rank":380,"kind_detail":"primary","source":"openstreetmap.org","min_zoom":8.0,"old_name":"Rodovia Teixerinha","shield_text":"020","ref":"ERS-020"},"arcs":[10]},{"type":"MultiLineString","properties":{"kind":"major_road","network":"BR:RS","sort_rank":380,"kind_detail":"primary","source":"openstreetmap.org","min_zoom":8.0,"shield_text":"486","ref":"ERS-486"},"arcs":[[11],[12],[13],[14],[15]]},{"type":"MultiLineString","properties":{"kind":"major_road","network":"BR:RS","sort_rank":380,"kind_detail":"primary","source":"openstreetmap.org","min_zoom":8.0,"shield_text":"020","ref":"ERS-020"},"arcs":[[16],[17],[18],[19],[20],[21],[22],[23],[24]]},{"type":"MultiLineString","properties":{"source":"openstreetmap.org","kind":"major_road","network":"BR","sort_rank":380,"kind_detail":"primary","min_zoom":8.0,"shield_text":"285"},"arcs":[[25],[26],[27]]},{"type":"MultiLineString","properties":{"kind":"major_road","network":"BR:SC","sort_rank":380,"kind_detail":"primary","source":"openstreetmap.org","min_zoom":8.0,"landuse_kind":"urban_area","shield_text":"108","ref":"SC-108"},"arcs":[[28],[29],[30],[31],[32],[33],[34],[35],[36],[37],[38],[39]]},{"type":"MultiLineString","properties":{"kind":"major_road","network":"BR:SC","sort_rank":380,"kind_detail":"primary","source":"openstreetmap.org","min_zoom":8.0,"shield_text":"390","ref":"SC-390"},"arcs":[[40],[41],[42],[43],[44],[45],[46],[47],[48],[49]]},{"type":"MultiLineString","properties":{"kind":"major_road","network":"BR:SC","sort_rank":380,"kind_detail":"primary","source":"openstreetmap.org","min_zoom":8.0,"landuse_kind":"urban_area","shield_text":"443","ref":"SC-443"},"arcs":[[50],[51],[52],[53],[54],[55],[56],[57],[58],[59],[60]]},{"type":"LineString","properties":{"kind":"highway","network":"BR","sort_rank":383,"kind_detail":"motorway","source":"openstreetmap.org","min_zoom":8.0,"all_networks":["BR","BR"],"shield_text":"101","ref":"BR-101","id":328141416,"all_shield_texts":["101","453"]},"arcs":[61]},{"type":"MultiLineString","properties":{"source":"openstreetmap.org","kind":"major_road","old_name":"Rodovia Teixerinha","sort_rank":380,"kind_detail":"primary","ref":"ERS-020","min_zoom":8.0},"arcs":[[62],[63],[64]]},{"type":"MultiLineString","properties":{"kind":"major_road","network":"BR","sort_rank":380,"kind_detail":"primary","source":"openstreetmap.org","min_zoom":8.0,"shield_text":"453","ref":"RSC-453;ERS-110"},"arcs":[[65],[66]]},{"type":"LineString","properties":{"kind":"major_road","network":"BR:SC","sort_rank":380,"kind_detail":"primary","source":"openstreetmap.org","min_zoom":8.0,"landuse_kind":"urban_area","shield_text":"108","ref":"SC-443"},"arcs":[67]},{"type":"MultiLineString","properties":{"kind":"major_road","network":"BR:SC","sort_rank":380,"kind_detail":"primary","source":"openstreetmap.org","min_zoom":8.0,"shield_text":"447","ref":"SC-447"},"arcs":[[68],[69],[70],[71],[72],[73],[74],[75],[76],[77]]},{"type":"MultiLineString","properties":{"sort_rank":381,"source":"openstreetmap.org","min_zoom":8.0,"kind":"major_road","kind_detail":"trunk"},"arcs":[[78],[79]]},{"type":"LineString","properties":{"kind":"major_road","network":"BR:SC:CRI","sort_rank":380,"kind_detail":"primary","source":"openstreetmap.org","min_zoom":8.0,"shield_text":null,"ref":"SC-108"},"arcs":[80]},{"type":"LineString","properties":{"kind":"major_road","network":"BR:SC:CRI","sort_rank":380,"kind_detail":"primary","source":"openstreetmap.org","min_zoom":8.0,"landuse_kind":"urban_area","shield_text":null,"ref":"CRI-274","id":219614060},"arcs":[81]},{"type":"MultiLineString","properties":{"kind":"major_road","network":"BR","sort_rank":380,"kind_detail":"primary","source":"openstreetmap.org","min_zoom":8.0,"shield_text":"453","ref":"BR-453"},"arcs":[[82],[83]]},{"type":"MultiLineString","properties":{"source":"openstreetmap.org","kind":"major_road","landuse_kind":"urban_area","sort_rank":380,"kind_detail":"primary","min_zoom":8.0},"arcs":[[84],[85],[86],[87],[88],[89],[90],[91],[92],[93],[94],[95],[96],[97],[98],[99],[100],[101],[102],[103],[104],[105],[106],[107],[108],[109],[110],[111],[112],[113],[114],[115]]},{"type":"LineString","properties":{"source":"openstreetmap.org","kind":"ferry","name":"Visita \u00e0 Ilha dos Lobos","sort_rank":355,"landuse_kind":"urban_area","min_zoom":8.0,"id":75583769},"arcs":[116]},{"type":"MultiLineString","properties":{"kind":"highway","network":"BR","sort_rank":383,"kind_detail":"motorway","source":"openstreetmap.org","min_zoom":8.0,"all_networks":["BR","BR"],"shield_text":"101","ref":"BR-101","all_shield_texts":["101","285"]},"arcs":[[117],[118]]},{"type":"LineString","properties":{"source":"openstreetmap.org","kind":"major_road","sort_rank":380,"kind_detail":"primary","ref":"ERS-110","min_zoom":8.0},"arcs":[119]},{"type":"MultiLineString","properties":{"kind":"major_road","network":"BR:SC","sort_rank":380,"kind_detail":"primary","source":"openstreetmap.org","min_zoom":8.0,"landuse_kind":"urban_area","shield_text":"108"},"arcs":[[120],[121],[122]]},{"type":"MultiLineString","properties":{"kind":"major_road","network":"BR:SC:CRI","sort_rank":380,"kind_detail":"primary","source":"openstreetmap.org","min_zoom":8.0,"shield_text":null,"ref":"CRI-274"},"arcs":[[123],[124],[125],[126]]},{"type":"LineString","properties":{"source":"openstreetmap.org","kind":"major_road","network":"BR:RS","sort_rank":380,"kind_detail":"primary","min_zoom":8.0,"shield_text":"110"},"arcs":[127]},{"type":"MultiLineString","properties":{"kind":"major_road","network":"BR","sort_rank":380,"kind_detail":"primary","source":"openstreetmap.org","min_zoom":8.0,"landuse_kind":"urban_area","shield_text":"453","ref":"BR-453"},"arcs":[[128],[129]]},{"type":"MultiLineString","properties":{"kind":"major_road","network":"BR","sort_rank":380,"kind_detail":"primary","source":"openstreetmap.org","min_zoom":8.0,"shield_text":"285","ref":"BR-285"},"arcs":[[130],[131],[132],[133],[134],[135],[136],[137],[138],[139],[140]]},{"type":"MultiLineString","properties":{"kind":"major_road","network":"BR:SC","sort_rank":380,"kind_detail":"primary","source":"openstreetmap.org","min_zoom":8.0,"shield_text":"390","ref":"SC-446"},"arcs":[[141],[142],[143]]},{"type":"MultiLineString","properties":{"sort_rank":380,"kind_detail":"primary","min_zoom":8.0,"kind":"major_road","source":"openstreetmap.org"},"arcs":[[144],[145],[146],[147],[148],[149],[150],[151],[152],[153],[154],[155],[156],[157],[158],[159],[160],[161],[162],[163],[164],[165],[166],[167],[168],[169],[170],[171],[172],[173],[174]]},{"type":"MultiLineString","properties":{"source":"openstreetmap.org","kind":"major_road","network":"BR:SC","sort_rank":380,"kind_detail":"primary","min_zoom":8.0,"shield_text":"390"},"arcs":[[175],[176]]},{"type":"LineString","properties":{"source":"openstreetmap.org","kind":"major_road","sort_rank":380,"kind_detail":"primary","ref":"ERS-486","min_zoom":8.0,"id":456369673},"arcs":[177]},{"type":"LineString","properties":{"kind":"major_road","network":"BR:SC","sort_rank":380,"kind_detail":"primary","source":"openstreetmap.org","min_zoom":8.0,"shield_text":"443","ref":"SC-443"},"arcs":[178]},{"type":"MultiLineString","properties":{"source":"openstreetmap.org","kind":"major_road","kind_detail":"trunk","sort_rank":381,"landuse_kind":"urban_area","min_zoom":8.0},"arcs":[[179],[180],[181],[182]]},{"type":"LineString","properties":{"source":"openstreetmap.org","kind":"major_road","sort_rank":380,"kind_detail":"primary","ref":"ERS-020","min_zoom":8.0},"arcs":[183]},{"type":"MultiLineString","properties":{"kind":"major_road","network":"BR:SC","sort_rank":380,"kind_detail":"primary","source":"openstreetmap.org","min_zoom":8.0,"shield_text":"108","ref":"SC-108"},"arcs":[[184],[185],[186],[187],[188],[189],[190],[191],[192],[193],[194],[195],[196],[197],[198],[199],[200],[201],[202],[203],[204],[205],[206],[207],[208],[209],[210],[211],[212],[213],[214],[215],[216],[217],[218],[219],[220],[221],[222],[223],[224],[225]]},{"type":"LineString","properties":{"source":"openstreetmap.org","kind":"major_road","sort_rank":380,"kind_detail":"primary","ref":"SC-108","min_zoom":8.0,"id":525399443},"arcs":[226]},{"type":"LineString","properties":{"kind":"major_road","sort_rank":380,"landuse_kind":"urban_area","source":"openstreetmap.org","min_zoom":8.0,"kind_detail":"primary","ref":"SC-445","id":525459379},"arcs":[227]},{"type":"MultiLineString","properties":{"kind":"major_road","network":"BR:RS","sort_rank":380,"kind_detail":"primary","source":"openstreetmap.org","min_zoom":8.0,"shield_text":"235","ref":"ERS-235"},"arcs":[[228],[229],[230]]},{"type":"MultiLineString","properties":{"source":"openstreetmap.org","kind":"major_road","network":"BR:SC:CRI","sort_rank":380,"kind_detail":"primary","min_zoom":8.0,"shield_text":null},"arcs":[[231],[232],[233],[234],[235],[236],[237],[238],[239],[240],[241],[242],[243],[244],[245],[246],[247]]},{"type":"MultiLineString","properties":{"kind":"highway","network":"BR","sort_rank":383,"kind_detail":"motorway","source":"openstreetmap.org","min_zoom":8.0,"all_networks":["BR"],"shield_text":"101","ref":"BR-101","all_shield_texts":["101"]},"arcs":[[248],[249],[250],[251],[252],[253],[254],[255],[256],[257],[258],[259],[260],[261],[262],[263],[264],[265],[266],[267],[268],[269],[270],[271],[272],[273],[274],[275],[276],[277],[278],[279],[280],[281],[282],[283]]},{"type":"MultiLineString","properties":{"kind":"major_road","network":"BR:SC","sort_rank":380,"kind_detail":"primary","source":"openstreetmap.org","min_zoom":8.0,"landuse_kind":"urban_area","shield_text":"445","ref":"SC-445"},"arcs":[[284],[285],[286],[287],[288],[289],[290],[291]]},{"type":"LineString","properties":{"source":"openstreetmap.org","kind":"ferry","name":"Visita \u00e0 Ilha dos Lobos","sort_rank":355,"min_zoom":8.0,"id":75583769},"arcs":[292]},{"type":"MultiLineString","properties":{"kind":"major_road","network":"BR:RS","sort_rank":380,"kind_detail":"primary","source":"openstreetmap.org","min_zoom":8.0,"shield_text":"389","ref":"ERS-389"},"arcs":[[293],[294],[295],[296],[297],[298],[299],[300],[301]]},{"type":"MultiLineString","properties":{"kind":"major_road","network":"BR:SC:CRI","sort_rank":380,"kind_detail":"primary","source":"openstreetmap.org","min_zoom":8.0,"landuse_kind":"urban_area","shield_text":null},"arcs":[[302],[303],[304],[305],[306],[307],[308],[309],[310],[311],[312],[313],[314],[315],[316],[317],[318]]},{"type":"MultiLineString","properties":{"kind":"major_road","network":"BR","sort_rank":380,"kind_detail":"primary","source":"openstreetmap.org","min_zoom":8.0,"shield_text":"453","ref":"RSC-453;ERS-020"},"arcs":[[319],[320],[321],[322],[323]]},{"type":"MultiLineString","properties":{"source":"openstreetmap.org","kind":"major_road","network":"BR:SC","sort_rank":380,"kind_detail":"primary","min_zoom":8.0,"shield_text":"446"},"arcs":[[324],[325]]},{"type":"MultiLineString","properties":{"kind":"major_road","network":"BR:RS","sort_rank":380,"kind_detail":"primary","source":"openstreetmap.org","min_zoom":8.0,"shield_text":"110","ref":"ERS-110"},"arcs":[[326],[327],[328],[329]]},{"type":"MultiLineString","properties":{"kind":"major_road","network":"BR:SC","sort_rank":380,"kind_detail":"primary","source":"openstreetmap.org","min_zoom":8.0,"shield_text":"446","ref":"SC-446"},"arcs":[[330],[331],[332],[333],[334],[335],[336],[337]]},{"type":"LineString","properties":{"source":"openstreetmap.org","kind":"major_road","sort_rank":380,"kind_detail":"primary","ref":"BR-453","min_zoom":8.0},"arcs":[338]},{"type":"MultiLineString","properties":{"kind":"major_road","network":"BR:SC","sort_rank":380,"kind_detail":"primary","source":"openstreetmap.org","min_zoom":8.0,"landuse_kind":"urban_area","shield_text":"445"},"arcs":[[339],[340],[341],[342],[343],[344],[345],[346]]},{"type":"MultiLineString","properties":{"source":"openstreetmap.org","kind":"major_road","network":"BR:SC","sort_rank":380,"kind_detail":"primary","min_zoom":8.0,"shield_text":"108"},"arcs":[[347],[348],[349],[350],[351],[352],[353]]},{"type":"MultiLineString","properties":{"source":"openstreetmap.org","kind":"major_road","network":"BR:SC","sort_rank":380,"kind_detail":"primary","min_zoom":8.0,"shield_text":"447"},"arcs":[[354],[355]]},{"type":"MultiLineString","properties":{"kind":"major_road","network":"BR:RS","sort_rank":380,"kind_detail":"primary","source":"openstreetmap.org","min_zoom":8.0,"landuse_kind":"urban_area","shield_text":"389","ref":"ERS-389"},"arcs":[[356],[357],[358]]},{"type":"LineString","properties":{"kind":"major_road","network":"BR:RS","sort_rank":380,"kind_detail":"primary","source":"openstreetmap.org","min_zoom":8.0,"landuse_kind":"urban_area","shield_text":"389","id":384146195},"arcs":[359]},{"type":"LineString","properties":{"kind":"major_road","network":"BR:RS","sort_rank":380,"kind_detail":"primary","official_name":"Rodovia Teixeirinha","source":"openstreetmap.org","min_zoom":8.0,"shield_text":"020","ref":"ERS-020","id":347639697},"arcs":[360]},{"type":"MultiLineString","properties":{"kind":"major_road","network":"BR:SC","sort_rank":380,"kind_detail":"primary","source":"openstreetmap.org","min_zoom":8.0,"landuse_kind":"urban_area","shield_text":"443"},"arcs":[[361],[362],[363],[364],[365],[366],[367],[368],[369],[370],[371],[372],[373],[374],[375]]},{"type":"MultiLineString","properties":{"source":"openstreetmap.org","kind":"major_road","network":"BR:SC","sort_rank":380,"kind_detail":"primary","min_zoom":8.0,"shield_text":"445"},"arcs":[[376],[377]]},{"type":"MultiLineString","properties":{"kind":"major_road","network":"BR","sort_rank":380,"kind_detail":"primary","source":"openstreetmap.org","min_zoom":8.0,"shield_text":"453","ref":"RSC-453"},"arcs":[[378],[379],[380],[381],[382],[383],[384],[385],[386],[387],[388]]},{"type":"MultiLineString","properties":{"kind":"major_road","network":"BR:SC","sort_rank":380,"kind_detail":"primary","source":"openstreetmap.org","min_zoom":8.0,"shield_text":"445","ref":"SC-445"},"arcs":[[389],[390],[391],[392],[393],[394],[395],[396],[397],[398],[399],[400],[401],[402],[403]]}]},"earth":{"type":"GeometryCollection","geometries":[{"type":"MultiPolygon","properties":{"sort_rank":10,"source":"naturalearthdata.com","min_zoom":0.0,"kind":"earth","area":58966316154},"arcs":[[[404]]]}]},"landuse":{"type":"GeometryCollection","geometries":[{"type":"Polygon","properties":{"kind":"protected_area","protect_class":"5","area":2020460032,"sort_rank":17,"operator":"Instituto Chico Mendes de Conserva\u00e7\u00e3o da Biodiversidade","source":"openstreetmap.org","min_zoom":4.0,"tier":2,"id":-3426371,"osm_relation":true},"arcs":[[405]]},{"type":"MultiPolygon","properties":{"kind":"nature_reserve","protect_class":"2","area":900520672,"sort_rank":23,"operator":"Instituto Chico Mendes de Conserva\u00e7\u00e3o da Biodiversidade","source":"openstreetmap.org","min_zoom":6.0,"tier":2,"osm_relation":true},"arcs":[[[406]]]},{"type":"MultiPolygon","properties":{"source":"naturalearthdata.com","kind":"urban_area","name":"","area":591291529,"sort_rank":11,"min_zoom":4.0},"arcs":[[[407]],[[408]]]},{"type":"Polygon","properties":{"kind":"nature_reserve","protect_class":"6","area":21424300,"sort_rank":23,"operator":"Instituto Chico Mendes de Conserva\u00e7\u00e3o da Biodiversidade","source":"openstreetmap.org","min_zoom":8.0,"tier":2,"id":-7082345,"osm_relation":true},"arcs":[[409]]},{"type":"MultiPolygon","properties":{"kind":"nature_reserve","protect_class":"2","area":588096000,"sort_rank":23,"operator":"Instituto Chico Mendes de Conserva\u00e7\u00e3o da Biodiversidade","source":"openstreetmap.org","min_zoom":6.0,"tier":2,"id":255726778},"arcs":[[[410]],[[411]]]},{"type":"MultiPolygon","properties":{"kind":"nature_reserve","tier":2,"protect_class":"2","area":94757306,"sort_rank":23,"source":"openstreetmap.org","min_zoom":8.0,"operator":"Secretaria Estadual do Meio Ambiente do Rio Grande do Sul","osm_relation":true},"arcs":[[[412]],[[413]]]},{"type":"Polygon","properties":{"kind":"nature_reserve","protect_class":"2","area":30333500,"sort_rank":23,"operator":"Instituto Chico Mendes de Conserva\u00e7\u00e3o da Biodiversidade","source":"openstreetmap.org","min_zoom":8.0,"tier":2,"id":-3425869,"osm_relation":true},"arcs":[[414]]}]}},"type":"Topology","transform":{"translate":[-50.625,-29.5352295629],"scale":[0.0003433228,0.0003005002]},"arcs":[[[2954,0],[428,642],[637,791],[77,71]],[[1788,1281],[7,-23],[-31,10],[4,-37],[-33,-23],[48,-30],[-61,17],[-93,-48],[19,48],[-49,-52],[-16,18],[20,15],[-35,11],[23,9],[-45,17],[51,38],[-56,-16],[-7,-56],[22,3],[-7,-25],[26,-16],[-36,-25],[36,8],[-23,-73],[20,10],[-15,-27],[27,-10],[-25,-18],[26,-4],[-30,5],[-23,-34],[-15,6],[33,62],[-55,-56],[14,32],[-18,17],[44,3],[17,41],[-72,7],[-37,47],[-89,-29],[55,13],[25,-24],[-6,-33],[-44,-25],[35,9],[-36,-23],[26,2],[7,-29],[-105,-39],[122,-20],[-36,-12],[13,-44],[-35,-46],[20,9],[35,-45],[-34,-13],[53,-20],[3,92],[31,-46],[-22,-17],[98,-43],[-6,-41],[77,5],[-33,-28],[62,10],[-32,-50],[53,11],[31,-46],[12,6],[-84,126],[-87,49],[-46,58],[-19,74],[143,27],[7,25],[155,56],[38,-10],[74,49],[26,49],[272,-85],[59,-74],[-18,-33],[39,-13],[-5,-58],[152,-26],[64,-46],[82,1],[-8,-39],[40,-21],[-38,-7],[-5,-31],[98,11],[77,-49]],[[1804,1281],[-9,0]],[[0,3804],[42,-3],[54,38],[147,-158],[38,9],[-8,70],[38,5],[52,-30],[128,5],[63,-69],[116,-4],[38,-44],[43,86],[32,-1],[25,-29],[2,-110],[28,13],[3,72],[92,-1],[33,-44],[60,-21],[65,29],[-41,17],[52,50],[31,-95],[38,-21],[58,65],[73,-30],[66,-151],[47,14],[-62,112],[35,-3],[8,45],[55,27],[-5,34],[50,-49],[-43,-102],[56,4],[17,-43],[45,46],[37,-28],[101,4],[36,21],[22,74],[87,-19],[-2,35],[36,24],[26,-56],[43,19],[26,-108],[43,33],[-27,46],[27,25],[82,-45],[36,18],[-16,62],[31,-23],[81,14],[-64,-38],[42,-29],[-10,-83],[72,12],[0,-38],[46,60],[45,-21],[-19,49],[17,7],[24,-56],[61,-39],[2,78],[48,45],[-16,-117],[18,-22],[62,20],[-9,-39],[58,-37],[-67,-93],[54,-17],[29,-85],[25,15],[6,-107],[34,-8],[19,-67],[-181,-8],[-11,46],[-68,-50],[-8,67],[-93,-93],[10,-29],[-27,-24],[38,10],[-20,-29],[-38,-30],[-29,8],[1,-80],[68,6],[-56,-16],[-22,-70],[-13,34],[-47,13],[-18,-2],[-12,-12],[16,-53],[-47,-58],[19,6],[9,-29],[-48,-3],[20,86],[-100,-14],[28,31],[9,26],[-87,-64],[40,-63],[-44,-40],[-39,15],[-3,-47],[-30,-17],[31,-100],[-35,8],[-10,-74],[29,-44],[-30,-69],[39,6],[-56,-87],[44,34],[26,-14],[-19,-29],[31,17],[-19,-78],[-26,2],[-30,-72],[60,-7],[5,-55],[-31,8],[-1,-84],[76,3],[2,-41],[32,-15],[-65,-11],[10,-29],[-10,-27],[-10,35],[-58,-110],[75,3],[-44,-45],[-10,-49],[-135,-73],[140,16],[0,14],[36,25],[-25,-30],[15,-16],[-36,-5],[17,-51],[-38,6],[12,-116],[-85,3],[21,-40],[-15,-29],[1,25],[-48,5],[-4,20],[-14,-14],[22,-75]],[[1795,1281],[-7,0]],[[2739,649],[449,-282]],[[3188,367],[600,798],[308,330]],[[2954,0],[234,367]],[[2214,0],[13,22],[145,284],[283,395],[469,656],[611,679],[361,296],[0,-2332],[-1882,0]],[[4096,2332],[-361,-296],[-611,-679],[-469,-656],[-283,-395],[-145,-284],[-13,-22]],[[944,893],[175,167],[46,94],[79,35],[13,86],[-22,77],[58,149],[121,120],[24,60],[137,86],[62,92]],[[1246,515],[7,0]],[[1246,515],[86,-134],[103,-86],[80,-264],[35,-31]],[[1276,555],[21,-35],[-24,20],[-20,-25]],[[1276,555],[7,-2]],[[1284,642],[29,-26],[-30,-63]],[[0,252],[49,9]],[[49,261],[2,5]],[[51,266],[3,44]],[[54,310],[8,7]],[[62,317],[90,15],[24,27],[33,-24],[91,4],[21,29]],[[322,370],[78,7],[102,59],[168,230],[167,109],[51,117]],[[887,894],[1,-2]],[[888,892],[1,2]],[[943,892],[-1,0]],[[3282,1980],[-84,-101]],[[3282,1980],[4,3]],[[3285,1984],[-3,-4]],[[3553,2764],[1,1]],[[3553,2765],[0,-1]],[[3553,2764],[1,-8]],[[3568,2785],[-15,-19]],[[3671,2864],[-9,-19]],[[3664,2844],[5,-2]],[[3670,2842],[1,22]],[[3671,2864],[27,36]],[[3698,2900],[7,7]],[[3716,2917],[-11,-10]],[[3716,2917],[4,8]],[[3720,2927],[0,-2]],[[2625,4096],[17,-13],[29,-70],[301,-46],[45,-60],[74,-37],[37,-98],[8,21],[155,34],[82,-7],[47,35],[138,-54]],[[3559,3801],[16,-11]],[[3582,3792],[-2,0]],[[3581,3791],[1,1]],[[3582,3792],[145,44],[67,66],[68,13],[38,-27]],[[3900,3888],[1,0]],[[3901,3888],[-1,0]],[[3900,3898],[5,0]],[[3905,3898],[-5,1]],[[3905,3898],[120,-21],[1,-70],[70,-101]],[[3717,2849],[-55,-4]],[[3741,2848],[-22,0]],[[3741,2848],[2,0]],[[3744,2849],[-3,-1]],[[3743,2849],[1,0]],[[3808,2846],[-64,3]],[[3809,2847],[-1,-1]],[[3808,2846],[2,0]],[[3812,2847],[-2,0]],[[3811,2846],[1,1]],[[3915,2849],[-103,-2]],[[2476,721],[-2,-6]],[[1396,1617],[-12,-5]],[[1405,1619],[-7,-1]],[[1414,1622],[-3,-2]],[[448,1075],[1,0]],[[451,1075],[-1,1]],[[3662,2845],[-48,-5],[-45,-54]],[[3243,2023],[1,-1]],[[3244,2022],[0,1]],[[3246,2020],[-2,2]],[[3246,2020],[0,-2]],[[3247,2018],[-1,2]],[[3247,2017],[1,-1]],[[3248,2016],[-1,2]],[[3283,1984],[-35,32]],[[3283,1984],[0,-1]],[[3284,1983],[-1,1]],[[3728,2783],[2,-30]],[[3731,2753],[-3,30]],[[3556,2714],[0,-2]],[[3521,2751],[5,24]],[[2474,719],[3,-2],[28,-8]],[[2505,709],[-24,7]],[[3554,2765],[-1,1]],[[3554,2771],[1,0]],[[3568,2785],[-10,0]],[[3607,2871]],[[3627,2842],[-1,-1]],[[3633,2843]],[[3656,2805],[-6,42]],[[3656,2805],[2,-1]],[[3661,2845],[-5,-40]],[[3658,2804],[0,1]],[[3658,2804],[1,-32]],[[3695,2854],[2,-1]],[[3714,2849],[1,-3]],[[3717,2849],[-2,1]],[[3715,2846],[0,-9]],[[3715,2837],[1,8]],[[3715,2846],[1,-1],[0,1]],[[3716,2846],[-1,0]],[[3716,2846],[2,1]],[[3722,2836],[1,6]],[[3728,2836],[0,2]],[[3741,2816],[8,-29],[-8,29]],[[3743,2848],[1,0]],[[3744,2848],[-1,0]],[[3744,2848],[30,-22]],[[3774,2848],[0,-22]],[[3774,2826]],[[3774,2848]],[[3774,2826],[1,22]],[[3774,2826],[7,-6]],[[3778,2823],[-4,3]],[[3658,2806],[0,-1],[0,1]],[[2651,696],[-10,-2],[-11,0],[22,3]],[[3196,1877],[-197,-173]],[[3000,1704],[98,65],[110,121]],[[499,2002],[-7,2]],[[3553,2766],[0,-1]],[[3554,2765],[71,76],[39,3]],[[3569,2786],[-1,-1]],[[3556,2713],[-41,11],[6,27]],[[3653,2716],[-96,-3]],[[3655,2716],[-2,0]],[[3653,2716],[2,0]],[[562,2836],[0,-1]],[[2524,703],[-19,6]],[[2505,709],[19,-6]],[[86,2963],[-86,-14]],[[95,2964],[-9,-1]],[[328,2969],[-105,26],[-128,-31]],[[341,2971],[-13,-2]],[[549,2936],[-88,57],[-120,-22]],[[549,2936],[11,-2]],[[662,2930],[-102,4]],[[662,2930],[10,-1]],[[1651,2634],[-167,24],[-108,88],[-399,54],[-143,113],[-101,34],[-61,-18]],[[1651,2634],[10,-4]],[[1783,2583],[-122,47]],[[3579,3791],[-4,-1]],[[3579,3791],[1,0]],[[3580,3791],[-1,0]],[[562,2837],[0,-1]],[[3208,1891],[1,5]],[[3287,1986],[-2,-2]],[[3286,1983],[1,3]],[[3297,2021],[-10,-35]],[[3299,2044],[-2,-22]],[[3669,2443],[-26,-17]],[[3644,2424],[28,19]],[[3672,2443],[6,4]],[[3644,2424],[-1,2],[-1,-3],[2,1]],[[3651,2655],[0,-2]],[[3651,2657],[0,-1]],[[3651,2656],[0,-1],[1,0],[-1,1]],[[3651,2653],[0,1]],[[3651,2653],[18,-152]],[[3655,2715],[-4,-58]],[[3652,2656],[-1,1]],[[3655,2718],[0,-2]],[[3655,2716],[0,-1]],[[3655,2715],[0,1]],[[3655,2718],[4,31]],[[3655,2716],[0,2]],[[3659,2772],[0,-22]],[[3669,2501],[1,-19]],[[3670,2482],[1,-32],[1,-6],[0,-1]],[[3672,2443],[0,-1],[0,-2]],[[3726,2947],[1,0]],[[3728,2947],[-1,0]],[[3808,3369],[1,0]],[[3297,2021],[0,1],[0,-1]],[[3659,2749],[1,0],[-1,1],[0,-1]],[[3558,3801],[1,0],[-1,0]],[[3580,3791],[1,0],[-1,1],[0,-1]],[[1486,157],[5,-5]],[[4096,2920],[-72,-56],[-109,-15]],[[3728,2783],[-1,45],[-1,3],[-11,6]],[[3715,2836],[13,-53]],[[3715,2837],[0,-1],[0,1]],[[3715,2837]],[[217,335],[-11,3]],[[3557,2712],[-3,44]],[[3721,2931],[-1,-4]],[[3721,2931],[3,9]],[[3726,2944],[-2,-4]],[[3726,2944],[1,3]],[[3726,2947],[0,-3]],[[3728,2949],[-1,-2]],[[3728,2947],[0,2]],[[3728,2949],[2,5]],[[3730,2954],[2,7]],[[3735,2969],[-3,-8]],[[3735,2969],[3,6]],[[3739,2979],[-1,-4]],[[3739,2979],[4,13]],[[3746,3001],[-3,-9]],[[3746,3001],[3,9]],[[3772,3079],[-23,-69]],[[3772,3079],[2,5]],[[3791,3124],[-17,-40]],[[3791,3124],[1,5]],[[3793,3132],[-1,-3]],[[3793,3132],[3,9]],[[3808,3341],[-12,-200]],[[3808,3371],[0,-2]],[[3808,3342],[0,-1]],[[3808,3345],[0,-2]],[[3808,3369],[0,-1]],[[3808,3341],[1,1]],[[3813,3417],[-5,-46]],[[3809,3370],[-1,1]],[[3808,3368],[1,1]],[[3808,3368],[0,-23]],[[3809,3343],[-1,2]],[[3813,3421],[0,-4]],[[3901,3887],[20,-38],[-40,-46],[-68,-382]],[[3900,3898],[0,-1]],[[3900,3897],[0,1]],[[3900,3897],[1,-8]],[[3901,3889],[0,-1]],[[3901,3888],[0,-1]],[[3901,3888],[0,1]],[[3901,3887],[0,1]],[[3556,2719],[0,-5]],[[3581,2902],[-1,2]],[[0,393],[49,-35],[7,-41]],[[56,317],[-1,-2]],[[56,316],[0,1]],[[3655,2716],[2,0]],[[3657,2716],[-2,0]],[[3657,2716],[126,6]],[[3729,2958],[-32,-9]],[[3731,2958],[-2,0]],[[3729,2958],[1,-1]],[[3732,2957],[1,1]],[[3733,2958],[-1,1]],[[3811,2940],[-1,17],[-77,1]],[[3783,2722],[3,0]],[[3785,2723],[-2,-1]],[[3785,2791],[0,-1]],[[3785,2790],[1,-5]],[[3788,2725],[-2,60]],[[3788,2725],[-2,-1]],[[3787,2723],[1,2]],[[3655,2717],[0,-1],[1,0],[-1,1]],[[1777,0]],[[1777,0],[-32,0]],[[1745,0],[-1,0]],[[2474,715],[-11,-15]],[[2463,700],[-2,-2],[-2,-3],[-71,-105],[-156,-148],[-3,-56],[-38,-8],[-1,0]],[[2190,378],[-52,-39]],[[2138,339],[-10,-8],[-14,-9],[-54,-42],[-110,-53],[-56,-67],[0,-2],[-9,-32]],[[1885,126],[-6,-19]],[[1879,107],[-68,-72],[-4,-35]],[[1808,0],[70,105],[1,2]],[[1879,107],[6,19]],[[1885,126],[9,32],[1,1],[55,67],[110,54],[68,50],[1,1],[9,8]],[[2138,339],[23,18],[28,21],[1,0]],[[2190,378],[6,-1],[33,9],[47,88],[113,116],[73,108],[1,2]],[[2463,700],[16,36]],[[2479,736],[0,1],[12,49],[31,29],[4,4],[2,4],[8,62],[-6,34],[10,35],[-21,83],[5,32],[9,20],[9,33],[-4,66],[71,79],[12,18],[8,12],[4,6]],[[2633,1303],[9,12],[1,1]],[[2643,1316],[2,2],[3,1],[18,9],[15,6],[36,11],[35,11],[4,1],[22,8],[3,0]],[[2781,1365],[2,1],[2,1],[1,0]],[[2786,1367],[23,2],[26,0],[4,1]],[[2839,1370],[11,1]],[[2850,1371],[2,0],[6,4],[4,4],[3,4],[13,40],[48,189],[74,92]],[[2999,1704],[-74,-92],[-63,-233],[-4,-4],[-8,-4]],[[2850,1371],[-1,0],[-2,-1],[-6,0],[-2,0]],[[2839,1370],[-21,-1],[-4,0],[-6,0],[-12,0],[-3,-1],[-2,0],[-5,-1]],[[2786,1367],[-5,-2]],[[2781,1365],[-5,-1],[-99,-31],[-33,-16],[-1,-1]],[[2643,1316],[-10,-13]],[[2633,1303],[-4,-5],[-19,-30],[-73,-80],[-18,-149],[8,-218],[-30,-26],[-7,-11],[-5,-10],[-6,-37],[0,-1]],[[2479,736],[-3,-15]],[[4096,2741],[-31,-14],[-106,-110],[-477,-312],[-179,-259],[-59,-26],[-39,-45]],[[3205,1975],[-18,-21]],[[3187,1954],[-2,-2],[28,-47],[-17,-28]],[[3208,1890],[3,3],[3,10],[-2,7],[-1,2],[-24,42]],[[3187,1954],[18,21]],[[3205,1975],[39,45],[59,26],[180,259],[476,311],[106,110],[31,13]],[[3556,2930],[23,-26]],[[3580,2903],[26,-31]],[[3606,2872],[0,-1]],[[3607,2871],[-1,1]],[[3782,2819],[-4,4],[-23,-3],[-14,-3],[-14,21],[-10,11]],[[3718,2847],[23,-31],[36,6]],[[3781,2820],[1,-1]],[[3782,2819],[30,-24]],[[2652,697],[7,0],[6,0],[3,-1],[19,-78],[-36,78]],[[2068,4],[-2,-4]],[[2067,0],[1,4]],[[2068,4],[130,146]],[[2198,150],[6,7]],[[2204,157],[187,238]],[[2396,402],[-5,-7]],[[2396,402],[62,89]],[[2458,491],[4,9]],[[2462,500],[54,175]],[[3697,2949],[-107,-8],[-13,-47]],[[3785,2813],[5,4]],[[3785,2813],[0,-22]],[[3790,2817],[18,11]],[[3808,2828],[0,2]],[[3808,2830],[2,14]],[[3810,2848],[-1,-1]],[[3810,2846],[0,-2]],[[3812,2918],[-2,-70]],[[3810,2847],[0,1]],[[3810,2844],[1,2]],[[3812,2921],[-1,19]],[[3812,2919],[0,-1]],[[3812,2921],[0,-1]],[[3812,2920],[0,1]],[[3812,2918],[1,1]],[[3812,2919],[1,0],[-1,1],[0,-1]],[[893,897],[-6,-2]],[[889,895],[4,2]],[[893,897],[45,-4]],[[938,893],[4,-2]],[[942,892],[-4,1]],[[3446,3698],[-1,-1]],[[3446,3697],[1,0]],[[450,1077],[37,150],[41,35],[36,267],[-33,92],[60,260],[-41,91],[-58,32],[-24,84],[14,131],[63,117],[-9,72],[35,46],[-19,43],[-40,13],[-23,126],[8,82],[66,118]],[[541,2907],[12,24]],[[553,2934],[0,-3]],[[553,2931],[1,3]],[[3445,3696],[1,1]],[[3445,3697],[0,-1]],[[3477,3118],[-14,68],[-62,24],[27,69],[-40,81],[7,87],[28,35],[-28,136],[50,78]],[[3447,3698],[-1,0]],[[3447,3697],[0,1]],[[3575,3790],[-28,-62],[-100,-30]],[[3477,3118],[-1,-1]],[[3477,3117],[0,1]],[[2481,716],[-7,3]],[[3607,2870],[1,0]],[[3608,2870],[-1,1]],[[3608,2870],[23,-25]],[[3631,2845],[-4,-3]],[[3633,2843],[-2,2]],[[3580,2903],[0,1],[-1,0],[0,-1],[1,0]],[[3607,2871],[-1,0],[1,-1],[0,1]],[[3607,2871]],[[3727,2947],[-1,0]],[[3727,2947],[1,0]],[[3808,3369]],[[3809,3369],[0,1]],[[3809,3342],[0,1],[-1,0],[0,-1],[1,0]],[[3900,3898],[0,1],[-1,-1],[1,0]],[[3901,3888],[0,-1],[0,1]],[[3243,2023],[1,0],[-1,1],[0,-1]],[[3246,2018],[0,-1],[1,1],[-1,0]],[[2516,675],[6,20]],[[2522,695],[3,8]],[[2524,702],[-2,-7]],[[2525,703],[-1,-1]],[[321,368],[1,2]],[[3509,2773],[0,-1],[1,1]],[[3510,2773],[-1,0]],[[3511,2773],[-2,0]],[[3510,2773],[1,0]],[[3537,2777],[-26,-4]],[[3537,2777],[3,0]],[[3539,2778],[-2,-1]],[[3558,2785],[-19,-7]],[[3540,2778],[15,-8]],[[3553,2765],[1,0]],[[3664,2844],[54,3]],[[3719,2848],[-2,1]],[[3540,2778],[-1,0],[1,-1],[0,1]],[[3743,2849],[-1,-1],[1,0],[0,1]],[[3809,2847],[1,-1],[1,0],[-1,1],[-1,0]],[[3809,3370],[-1,-1]],[[3477,3117],[-1,-1],[1,-1],[0,1],[0,1]],[[0,1437],[79,-29],[-8,-57],[109,-105],[117,-33],[148,-135]],[[445,1078],[3,-3]],[[450,1076],[-5,2]],[[449,1075],[5,-2]],[[454,1073],[-3,2]],[[454,1073],[80,-42],[194,-26],[155,-113]],[[883,892],[6,3]],[[887,895],[-4,-3]],[[946,890],[-4,2]],[[942,891],[4,-1]],[[946,890],[122,-44],[107,-77],[109,-127]],[[3477,3115],[0,-1]],[[3477,3114],[0,2]],[[3477,3114],[58,-47],[21,-137]],[[3809,3342],[0,1]],[[3809,3343]],[[3809,3343],[95,-53],[109,-164]],[[3812,2795],[8,-6]],[[3820,2789],[2,-2]],[[3822,2787],[30,-24]],[[3852,2763],[2,-2]],[[3854,2761],[19,-88],[57,-70]],[[3930,2603],[1,-3]],[[3931,2600],[-1,3]],[[4022,3119],[-9,7]],[[4096,3020],[-74,99]],[[0,4096],[4096,0],[0,-1764],[-361,-296],[-603,-671],[-8,-8],[-469,-656],[-283,-395],[-145,-284],[-13,-22],[-2214,0],[0,1365],[0,2731]],[[4019,2429],[71,91],[6,2],[0,-166],[-4,0],[-73,73]],[[1310,1427],[77,12],[88,-30],[87,-95],[120,-56],[0,1],[-148,86],[3,31],[41,14],[33,59],[111,-8],[72,-48],[50,60],[-68,57],[4,37],[106,56],[81,137],[58,-23],[30,-75],[-46,-7],[55,-36],[28,-95],[-28,-34],[-46,28],[12,-46],[-32,5],[32,-27],[-69,-17],[8,-69],[-46,-27],[31,-58],[-97,15],[14,-47],[-33,-17],[-7,-36],[-55,-6],[-3,1],[-112,-175],[-158,-69],[-48,34],[-2,127],[-44,33],[-58,-16],[-5,67],[76,13],[4,30],[-64,103],[23,48],[-37,8],[-38,55]],[[2500,779],[53,-23],[145,5],[-106,-148],[-85,69],[-7,97]],[[3600,2997],[97,0],[0,-73],[133,19],[78,-65],[15,-66],[-485,-74],[8,102],[113,93],[8,101],[33,-37]],[[607,406],[62,38],[32,-22],[14,50],[-17,-111],[51,-31],[-9,-30],[-92,-31],[-25,23],[16,78],[-32,36]],[[3216,4096],[-41,-32],[-102,13],[-35,-23],[-10,42],[188,0]],[[2963,4096],[1,-6],[-61,-32],[-71,8],[16,30],[115,0]],[[2472,525],[50,6],[-25,61],[30,78],[56,-92],[-57,-81],[-26,-7],[-28,35]],[[630,1699],[13,50],[123,65],[-6,-84],[48,-73],[10,-99],[-59,-97],[45,-7],[15,-31],[-2,-55],[-33,10],[-29,-39],[43,-18],[-40,-90],[-96,35],[26,80],[-10,54],[50,25],[-29,13],[-12,55],[58,21],[21,72],[-30,10],[-47,-55],[-16,11],[53,74],[-46,10],[-7,-22],[-35,35],[46,5],[0,17],[-54,28]],[[1316,934],[16,76],[42,39],[-23,54],[58,16],[34,-21],[23,-36],[-15,-92],[42,-46],[-177,10]]]}