{"objects":{"water":{"type":"GeometryCollection","geometries":[{"type":"MultiPolygon","properties":{"source":"naturalearthdata.com","kind":"ocean","area":1576712559132672,"sort_rank":200,"min_zoom":0.0,"id":1},"arcs":[[[2]],[[3]]]},{"type":"MultiLineString","properties":{"source":"naturalearthdata.com","kind":"ocean","sort_rank":205,"boundary":true,"min_zoom":0.0,"id":75},"arcs":[[4],[5]]}]},"buildings":{"type":"GeometryCollection","geometries":[]},"places":{"type":"GeometryCollection","geometries":[{"type":"Point","properties":{"source":"openstreetmap.org","kind":"locality","name":"Tramanda\u00ed","kind_detail":"town","population":42863,"min_zoom":8.0,"id":567344393},"coordinates":[1438,2578]},{"type":"Point","properties":{"source":"openstreetmap.org","kind":"locality","name":"Os\u00f3rio","kind_detail":"town","population":41161,"min_zoom":8.0,"id":415523975},"coordinates":[1025,2904]},{"type":"Point","properties":{"source":"openstreetmap.org","kind":"locality","name":"Cap\u00e3o da Canoa","kind_detail":"town","population":39928,"min_zoom":8.0,"id":415523966},"coordinates":[1758,3358]},{"type":"Point","properties":{"source":"openstreetmap.org","kind":"locality","name":"Santo Ant\u00f4nio da Patrulha","kind_detail":"town","population":39302,"min_zoom":8.0,"id":415523851},"coordinates":[313,3114]},{"type":"Point","properties":{"source":"openstreetmap.org","kind":"locality","name":"Rolante","kind_detail":"town","population":20094,"min_zoom":8.0,"id":415523854},"coordinates":[140,3700]},{"type":"Point","properties":{"source":"openstreetmap.org","kind":"locality","name":"Imb\u00e9","kind_detail":"town","population":15936,"min_zoom":8.0,"id":415523973},"coordinates":[1447,2614]},{"type":"Point","properties":{"source":"openstreetmap.org","kind":"locality","name":"Xangri-l\u00e1","kind_detail":"town","population":14650,"min_zoom":8.0,"id":415523968},"coordinates":[1700,3191]},{"type":"Point","properties":{"source":"openstreetmap.org","kind":"locality","name":"Palmares do Sul","kind_detail":"town","population":11901,"min_zoom":8.0,"id":415523862},"coordinates":[335,1661]},{"type":"Point","properties":{"source":"openstreetmap.org","kind":"locality","name":"Cidreira","kind_detail":"town","population":11615,"min_zoom":8.0,"id":415523974},"coordinates":[1185,1972]},{"type":"Point","properties":{"source":"openstreetmap.org","kind":"locality","name":"Balne\u00e1rio Pinhal","kind_detail":"town","population":11440,"min_zoom":8.0,"id":415523979},"coordinates":[1137,1694]},{"type":"Point","properties":{"source":"openstreetmap.org","kind":"locality","name":"Terra de Areia","kind_detail":"town","population":10232,"min_zoom":8.0,"id":415523967},"coordinates":[1633,3951]}]},"transit":{"type":"GeometryCollection","geometries":[]},"pois":{"type":"GeometryCollection","geometries":[]},"boundaries":{"type":"GeometryCollection","geometries":[{"type":"LineString","properties":{"name:kg":"Brazil","name:ty":"Brazil","name:ka":"\u10d1\u10e0\u10d0\u10d6\u10d8\u10da\u10d8\u10d0","name:ko":"\ube0c\ub77c\uc9c8","name:cv":"\u0411\u0440\u0430\u0437\u0438\u043b\u0438","name:cu":"\u0411\u0440\u0430\ua641\u0457\u043b\u0457\ua657","name:kl":"Brazil","name:cs":"Braz\u00edlie","name:ki":"Brazil","name:co":"Brasile","name:kv":"\u0411\u0440\u0430\u0437\u0438\u043b\u0438\u044f","name:ku":"Braz\u00eel","name:ce":"\u0411\u0440\u0430\u0437\u0438\u043b\u0438\u044f","name:ta":"\u0baa\u0bbf\u0bb0\u0bc7\u0b9a\u0bbf\u0bb2\u0bcd","name:tg":"\u0411\u0440\u0430\u0437\u0438\u043b\u0438\u044f","name:ky":"\u0411\u0440\u0430\u0437\u0438\u043b\u0438\u044f","name:te":"\u0c2c\u0c4d\u0c30\u0c46\u0c1c\u0c3f\u0c32\u0c4d","name:da":"Brasilien","name:de":"Brasilien","name:dz":"\u0f56\u0f71\u0f62\u0f71\u0f0b\u0f5b\u0f72\u0f63\u0f0b","source":"openstreetmap.org","name:kn":"\u0cac\u0ccd\u0cb0\u0cc6\u0c9c\u0cbf\u0cb2\u0ccd","name:dv":"\u0784\u07aa\u0783\u07ac\u0792\u07a8\u078d\u07b0","name:km":"\u1794\u17d2\u179a\u17c1\u179f\u17ca\u17b8\u179b","name:lv":"Braz\u012blija","name:lt":"Brazilija","name:uz":"Braziliya","name:kk":"\u0411\u0440\u0430\u0437\u0438\u043b\u0438\u044f","name:ur":"\u0628\u0631\u0627\u0632\u06cc\u0644","name:lb":"Brasilien","name:la":"Brasilia","name:tt":"\u0411\u0440\u0430\u0437\u0438\u043b\u0438\u044f","name:uk":"\u0411\u0440\u0430\u0437\u0438\u043b\u0456\u044f","name:ug":"\u0628\u0631\u0627\u0632\u0649\u0644\u0649\u064a\u06d5","name:li":"Braziel","name:ln":"Brazil","name:el":"\u0392\u03c1\u03b1\u03b6\u03b9\u03bb\u03af\u03b1","name:eo":"Brazilo","name:en":"Brazil","name":"Brasil","name:tk":"Brazili\u00fda","name:ee":"Brazil","name:th":"\u0e1b\u0e23\u0e30\u0e40\u0e17\u0e28\u0e1a\u0e23\u0e32\u0e0b\u0e34\u0e25","name:et":"Brasiilia","name:ay":"Wrasil","name:rm":"Brasilia","name:rn":"Brazil","name:az":"Braziliya","name:ig":"Brazil","name:as":"\u09ac\u09cd\u09f0\u09be\u099c\u09bf\u09b2","name:zh-min-nan":"Pa-se","name:io":"Brazilia","name:is":"Brasil\u00eda","name:am":"\u1265\u122b\u12da\u120d","name:it":"Brasile","name:ru":"\u0411\u0440\u0430\u0437\u0438\u043b\u0438\u044f","name:rw":"Burezile","name:af":"Brasili\u00eb","name:zu":"IBrazili","kind_detail":"2","name:za":"Bahsih","name:zh-yue":"\u5df4\u897f","name:zh":"\u5df4\u897f","name:so":"Barasiil","name:sl":"Brazilija","name:sk":"Braz\u00edlia","name:ja":"\u30d6\u30e9\u30b8\u30eb","name:sh":"Brazil","name:se":"Brasilia","name:sc":"Brasile","name:br":"Brazil","name:bs":"Brazil","name:bm":"Brazil","name:bn":"\u09ac\u09cd\u09b0\u09be\u099c\u09bf\u09b2","name:bo":"\u0f54\u0f74\u0f0b\u0f62\u0f74\u0f0b\u0f5f\u0f72\u0f63\u0f0d","name:bi":"Brazil","name:sw":"Brazil","name:be":"\u0411\u0440\u0430\u0437\u0456\u043b\u0456\u044f","name:bg":"\u0411\u0440\u0430\u0437\u0438\u043b\u0438\u044f","name:ba":"\u0411\u0440\u0430\u0437\u0438\u043b\u0438\u044f","name:sq":"Brazili","name:sa":"\u092c\u094d\u0930\u093e\u0938\u0940\u0932","name:ps":"\u0628\u0631\u0627\u0632\u06cc\u0644","min_zoom":8.0,"name:ro":"Brazilia","name:pa":"\u0a2c\u0a4d\u0a30\u0a3e\u0a1c\u0a3c\u0a40\u0a32","name:os":"\u0411\u0440\u0430\u0437\u0438\u043b\u0438","name:or":"\u0b2c\u0b4d\u0b30\u0b3e\u0b1c\u0b3f\u0b32","name:pl":"Brazylia","name:st":"Brazil","sort_rank":262,"name:sr":"\u0411\u0440\u0430\u0437\u0438\u043b","osm_relation":true,"name:ar":"\u0627\u0644\u0628\u0631\u0627\u0632\u064a\u0644","name:tr":"Brezilya","name:hi":"\u092c\u094d\u0930\u093e\u091c\u093c\u0940\u0932","name:sv":"Brasilien","name:he":"\u05d1\u05e8\u05d6\u05d9\u05dc","name:hy":"\u0532\u0580\u0561\u0566\u056b\u056c\u056b\u0561","name:ht":"Brezil","name:hu":"Braz\u00edlia","name:hr":"Brazil","kind":"country","name:yi":"\u05d1\u05e8\u05d0\u05d6\u05d9\u05dc","name:mt":"Bra\u017cil","name:ms":"Brazil","name:mr":"\u092c\u094d\u0930\u093e\u091d\u0940\u0932","name:my":"\u1018\u101b\u102c\u1007\u102e\u1038\u1014\u102d\u102f\u1004\u103a\u1004\u1036","official_name":"Rep\u00fablica Federativa do Brasil","name:mg":"Brazila","name:ml":"\u0d2c\u0d4d\u0d30\u0d38\u0d40\u0d7d","name:mn":"\u0411\u0440\u0430\u0437\u0438\u043b","name:mi":"Par\u012bhi","id":-59470,"name:mk":"\u0411\u0440\u0430\u0437\u0438\u043b","name:vo":"Brasil\u00e4n","name:fa":"\u0628\u0631\u0632\u06cc\u0644","name:fi":"Brasilia","old_name:vi":"Ba T\u00e2y","alt_name:vi":"Brazil;Bra-xin","name:fr":"Br\u00e9sil","name:fy":"Brazylje","name:nl":"Brazili\u00eb","name:na":"Bradir","name:ne":"\u092c\u094d\u0930\u093e\u091c\u093f\u0932","name:wa":"Braezi","name:wo":"Breesil","name:nv":"Bwaz\u00ed\u00edl","name:ga":"An Bhrasa\u00edl","name:gd":"Braisil","name:gn":"Pindorama","maritime_boundary":true,"name:gv":"Yn Vrasseel","name:gu":"\u0aac\u0acd\u0ab0\u0abe\u0a9d\u0abf\u0ab2"},"arcs":[0]},{"type":"LineString","properties":{"name:ka":"\u10e0\u10d8\u10e3-\u10d2\u10e0\u10d0\u10dc\u10d3\u10d8-\u10d3\u10e3-\u10e1\u10e3\u10da\u10d8","name:mr":"\u0930\u093f\u092f\u094b \u0917\u094d\u0930\u093e\u0902\u0926\u0947 \u0926\u094b \u0938\u0941\u0932","name:ko":"\ud788\uc6b0\uadf8\ub780\uc9c0\ub450\uc220","name:ar":"\u0631\u064a\u0648 \u063a\u0631\u0627\u0646\u062f\u064a \u062f\u0648 \u0633\u0648\u0644","name:kk":"\u0420\u0438\u0443-\u0413\u0440\u0430\u043d\u0434\u0438-\u0434\u0443-\u0421\u0443\u043b","name:th":"\u0e23\u0e35\u0e42\u0e2d\u0e01\u0e23\u0e31\u0e19\u0e14\u0e35\u0e42\u0e14\u0e0b\u0e39\u0e25","name:os":"\u0420\u0438\u0443-\u0413\u0440\u0430\u043d\u0434\u0438-\u0434\u0443-\u0421\u0443\u043b","name:ru":"\u0420\u0438\u0443-\u0413\u0440\u0430\u043d\u0434\u0438-\u0434\u0443-\u0421\u0443\u043b","name:uz":"Riu-Grandi-du-Sul","name:tg":"\u0420\u0438\u0443 \u0413\u0440\u0430\u043d\u0434\u0438 \u0434\u0443 \u0421\u0443\u043b","name:mk":"\u0408\u0443\u0436\u043d\u0430 \u0420\u0438\u043e \u0413\u0440\u0430\u043d\u0434\u0435","name:fa":"\u0631\u06cc\u0648 \u06af\u0631\u0627\u0646\u062f\u0647 \u062c\u0646\u0648\u0628\u06cc","short_name":"RS","sort_rank":256,"kind_detail":"4","name:hi":"\u0930\u093f\u092f\u094b \u0917\u094d\u0930\u093e\u0902\u0921\u0947 \u0926\u094b \u0938\u0941\u0932","id":-242620,"source":"openstreetmap.org","name:zh":"\u5357\u91cc\u5965\u683c\u5170\u5fb7","name:lv":"Riugrandi du Sula","name:ja":"\u30ea\u30aa\u30b0\u30e9\u30f3\u30c7\u30fb\u30c9\u30fb\u30b9\u30eb","name:lt":"Piet\u0173 Rio Grand\u0117","name:sh":"Rio Grandi du Sul","name:he":"\u05e8\u05d9\u05d5 \u05d2\u05e8\u05d0\u05e0\u05d3\u05d4 \u05d3\u05d5 \u05e1\u05d5\u05dc","name:eo":"Suda Rio-Grando","name:la":"Flumen Magnum Meridionale","name:uk":"\u0420\u0456\u0443-\u0413\u0440\u0430\u043d\u0434\u0456-\u0434\u0443-\u0421\u0443\u043b","name:hy":"\u054c\u056b\u0578\u0582 \u0533\u0580\u0561\u0576\u0564\u056b \u0564\u0578\u0582 \u054d\u0578\u0582\u056c","name:be":"\u0420\u044b\u0443-\u0413\u0440\u0430\u043d\u0434\u044b-\u0434\u0443-\u0421\u0443\u043b","name:bg":"\u0420\u0438\u043e \u0413\u0440\u0430\u043d\u0434\u0438 \u0434\u043e \u0421\u0443\u043b","name:qu":"Urin Hatunmayu suyu","name:sr":"\u0420\u0438\u043e \u0413\u0440\u0430\u043d\u0434\u0435 \u0434\u043e \u0421\u0443\u043b","osm_relation":true,"kind":"region","name":"Rio Grande do Sul","min_zoom":8.0,"name:gl":"R\u00edo Grande do Sur","maritime_boundary":true,"name:eu":"Hegoaldeko Rio Grande","name:es":"R\u00edo Grande del Sur"},"arcs":[1]}]},"roads":{"type":"GeometryCollection","geometries":[{"type":"MultiLineString","properties":{"sort_rank":380,"kind_detail":"primary","min_zoom":8.0,"kind":"major_road","source":"openstreetmap.org"},"arcs":[[6],[7],[8],[9],[10],[11],[12],[13],[14],[15],[16],[17],[18],[19],[20],[21],[22]]},{"type":"MultiLineString","properties":{"kind":"major_road","network":"BR:RS","sort_rank":381,"landuse_kind":"urban_area","source":"openstreetmap.org","min_zoom":8.0,"kind_detail":"trunk","shield_text":"030","ref":"ERS-030"},"arcs":[[23],[24]]},{"type":"LineString","properties":{"kind":"major_road","network":"BR:RS","sort_rank":380,"kind_detail":"primary","source":"openstreetmap.org","min_zoom":8.0,"shield_text":"784","ref":"ERS-784"},"arcs":[25]},{"type":"MultiLineString","properties":{"source":"openstreetmap.org","kind":"major_road","sort_rank":380,"kind_detail":"primary","ref":"BR-101","min_zoom":8.0},"arcs":[[26],[27],[28],[29],[30],[31],[32]]},{"type":"MultiLineString","properties":{"source":"openstreetmap.org","kind":"major_road","sort_rank":380,"kind_detail":"primary","ref":"ERS-486","min_zoom":8.0},"arcs":[[33],[34],[35]]},{"type":"MultiLineString","properties":{"source":"openstreetmap.org","kind":"major_road","landuse_kind":"urban_area","sort_rank":380,"kind_detail":"primary","ref":"ERS-389","min_zoom":8.0},"arcs":[[36],[37],[38]]},{"type":"LineString","properties":{"kind":"major_road","network":"BR:RS","sort_rank":380,"kind_detail":"primary","source":"openstreetmap.org","min_zoom":8.0,"shield_text":"407","ref":"BR-101"},"arcs":[39]},{"type":"LineString","properties":{"kind":"major_road","network":"BR:RS","sort_rank":380,"kind_detail":"primary","source":"openstreetmap.org","min_zoom":8.0,"shield_text":"474","ref":"ERS-474"},"arcs":[40]},{"type":"MultiLineString","properties":{"kind":"highway","network":"BR","sort_rank":383,"landuse_kind":"urban_area","source":"openstreetmap.org","min_zoom":8.0,"all_networks":["BR"],"kind_detail":"motorway","shield_text":"101","ref":"BR-101","all_shield_texts":["101"]},"arcs":[[41],[42]]},{"type":"MultiLineString","properties":{"kind":"major_road","network":"BR:RS","sort_rank":380,"kind_detail":"primary","source":"openstreetmap.org","min_zoom":8.0,"shield_text":"486","ref":"ERS-486"},"arcs":[[43],[44],[45]]},{"type":"MultiLineString","properties":{"kind":"major_road","network":"BR:RS","sort_rank":380,"kind_detail":"primary","source":"openstreetmap.org","min_zoom":8.0,"landuse_kind":"urban_area","shield_text":"389","ref":"ERS-389"},"arcs":[[46],[47],[48],[49],[50],[51],[52],[53],[54],[55],[56],[57],[58],[59],[60],[61],[62],[63]]},{"type":"LineString","properties":{"kind":"highway","network":"BR","sort_rank":383,"kind_detail":"motorway","official_name":"Rodovia Osvaldo Aranha","source":"openstreetmap.org","min_zoom":8.0,"all_networks":["BR"],"landuse_kind":"urban_area","shield_text":"290","ref":"BR-101;BR-290","id":78459476,"all_shield_texts":["290"]},"arcs":[64]},{"type":"MultiLineString","properties":{"kind":"major_road","network":"BR","sort_rank":380,"kind_detail":"primary","source":"openstreetmap.org","min_zoom":8.0,"shield_text":"101","ref":"RSC-101"},"arcs":[[65],[66],[67],[68],[69],[70],[71]]},{"type":"LineString","properties":{"kind":"highway","network":"BR","sort_rank":383,"kind_detail":"motorway","official_name":"Rodovia Osvaldo Aranha","source":"openstreetmap.org","min_zoom":8.0,"all_networks":["BR","BR"],"landuse_kind":"urban_area","shield_text":"101","ref":"BR-101;BR-290","id":329332047,"all_shield_texts":["101","290"]},"arcs":[72]},{"type":"MultiLineString","properties":{"kind":"highway","network":"BR","sort_rank":383,"kind_detail":"motorway","official_name":"Rodovia Osvaldo Aranha","source":"openstreetmap.org","min_zoom":8.0,"all_networks":["BR"],"shield_text":"290","ref":"BR-290","all_shield_texts":["290"]},"arcs":[[73],[74],[75],[76],[77],[78],[79],[80],[81],[82]]},{"type":"MultiLineString","properties":{"source":"openstreetmap.org","kind":"major_road","landuse_kind":"urban_area","sort_rank":380,"kind_detail":"primary","min_zoom":8.0},"arcs":[[83],[84],[85],[86],[87],[88],[89],[90],[91],[92],[93],[94],[95],[96]]},{"type":"MultiLineString","properties":{"source":"openstreetmap.org","kind":"major_road","kind_detail":"trunk","sort_rank":381,"landuse_kind":"urban_area","min_zoom":8.0},"arcs":[[97],[98]]},{"type":"MultiLineString","properties":{"kind":"major_road","network":"BR:RS","sort_rank":380,"kind_detail":"primary","source":"openstreetmap.org","min_zoom":8.0,"shield_text":"786","ref":"ERS-786"},"arcs":[[99],[100],[101],[102],[103],[104],[105],[106],[107]]},{"type":"MultiLineString","properties":{"kind":"highway","network":"BR","sort_rank":383,"landuse_kind":"urban_area","source":"openstreetmap.org","min_zoom":8.0,"all_networks":["BR"],"kind_detail":"motorway","shield_text":"290","ref":"BR-290","all_shield_texts":["290"]},"arcs":[[108],[109]]},{"type":"LineString","properties":{"kind":"major_road","network":"BR:RS","sort_rank":380,"kind_detail":"primary","official_name":"Rodovia Nestor Herculano de Paula","source":"openstreetmap.org","min_zoom":8.0,"shield_text":"239","ref":"ERS-239","id":164491877},"arcs":[110]},{"type":"MultiLineString","properties":{"kind":"highway","network":"BR","sort_rank":383,"landuse_kind":"urban_area","official_name":"Rodovia Osvaldo Aranha","source":"openstreetmap.org","min_zoom":8.0,"all_networks":["BR"],"kind_detail":"motorway","shield_text":"290","ref":"BR-290","all_shield_texts":["290"]},"arcs":[[111],[112],[113]]},{"type":"LineString","properties":{"kind":"major_road","network":"BR:RS","sort_rank":380,"kind_detail":"primary","source":"openstreetmap.org","min_zoom":8.0,"shield_text":"407","ref":"ERS-407"},"arcs":[114]},{"type":"MultiLineString","properties":{"kind":"major_road","network":"BR:RS","sort_rank":380,"kind_detail":"primary","source":"openstreetmap.org","min_zoom":8.0,"shield_text":"239","ref":"ERS-239"},"arcs":[[115],[116],[117],[118],[119],[120],[121],[122],[123],[124],[125],[126],[127],[128]]},{"type":"MultiLineString","properties":{"kind":"major_road","network":"BR:RS","sort_rank":380,"kind_detail":"primary","source":"openstreetmap.org","min_zoom":8.0,"landuse_kind":"urban_area","shield_text":"784","ref":"ERS-784"},"arcs":[[129],[130],[131]]},{"type":"LineString","properties":{"source":"openstreetmap.org","kind":"major_road","landuse_kind":"urban_area","sort_rank":380,"kind_detail":"primary","ref":"ERS-786","min_zoom":8.0},"arcs":[132]},{"type":"LineString","properties":{"source":"openstreetmap.org","kind":"highway","landuse_kind":"urban_area","sort_rank":383,"kind_detail":"motorway","ref":"BR-101","min_zoom":8.0},"arcs":[133]},{"type":"MultiLineString","properties":{"source":"openstreetmap.org","kind":"major_road","network":"BR:RS","sort_rank":380,"kind_detail":"primary","min_zoom":8.0,"shield_text":"239"},"arcs":[[134],[135]]},{"type":"MultiLineString","properties":{"kind":"major_road","network":"BR:RS","sort_rank":380,"kind_detail":"primary","source":"openstreetmap.org","min_zoom":8.0,"landuse_kind":"urban_area","shield_text":"786","ref":"ERS-786"},"arcs":[[136],[137],[138],[139],[140],[141],[142],[143],[144],[145],[146],[147],[148],[149],[150],[151],[152],[153],[154],[155],[156]]},{"type":"LineString","properties":{"source":"openstreetmap.org","kind":"major_road","network":"BR:RS","sort_rank":380,"kind_detail":"primary","min_zoom":8.0,"shield_text":"474"},"arcs":[157]},{"type":"MultiLineString","properties":{"kind":"highway","network":"BR","sort_rank":383,"kind_detail":"motorway","source":"openstreetmap.org","min_zoom":8.0,"all_networks":["BR"],"shield_text":"101","ref":"BR-101","all_shield_texts":["101"]},"arcs":[[158],[159],[160],[161],[162],[163],[164]]},{"type":"LineString","properties":{"kind":"major_road","network":"BR:RS","sort_rank":380,"kind_detail":"primary","source":"openstreetmap.org","min_zoom":8.0,"landuse_kind":"urban_area","shield_text":"040","id":391066596},"arcs":[165]},{"type":"MultiLineString","properties":{"kind":"major_road","network":"BR:RS","sort_rank":380,"kind_detail":"primary","source":"openstreetmap.org","min_zoom":8.0,"shield_text":"389","ref":"ERS-389"},"arcs":[[166],[167],[168],[169],[170],[171],[172],[173],[174],[175],[176],[177]]},{"type":"LineString","properties":{"kind":"major_road","network":"BR:RS","sort_rank":380,"kind_detail":"primary","source":"openstreetmap.org","min_zoom":8.0,"shield_text":"776","ref":"ERS-776","id":117933822},"arcs":[178]},{"type":"MultiLineString","properties":{"source":"openstreetmap.org","kind":"major_road","sort_rank":380,"kind_detail":"primary","ref":"ERS-389","min_zoom":8.0},"arcs":[[179],[180],[181],[182],[183]]},{"type":"MultiLineString","properties":{"kind":"major_road","network":"BR:RS","sort_rank":381,"kind_detail":"trunk","source":"openstreetmap.org","min_zoom":8.0,"shield_text":"030","ref":"ERS-030"},"arcs":[[184],[185]]},{"type":"MultiLineString","properties":{"kind":"major_road","network":"BR:RS","sort_rank":380,"kind_detail":"primary","source":"openstreetmap.org","min_zoom":8.0,"shield_text":"040","ref":"ERS-040"},"arcs":[[186],[187],[188],[189],[190]]},{"type":"MultiLineString","properties":{"kind":"highway","network":"BR","sort_rank":383,"kind_detail":"motorway","source":"openstreetmap.org","min_zoom":8.0,"all_networks":["BR","BR:RS"],"shield_text":"101","ref":"BR-101","all_shield_texts":["101","417"]},"arcs":[[191],[192]]},{"type":"LineString","properties":{"kind":"major_road","network":"BR:RS","sort_rank":380,"kind_detail":"primary","source":"openstreetmap.org","min_zoom":8.0,"shield_text":"030","ref":"ERS-030"},"arcs":[193]},{"type":"LineString","properties":{"kind":"major_road","network":"BR:RS","sort_rank":380,"kind_detail":"primary","source":"openstreetmap.org","min_zoom":8.0,"landuse_kind":"urban_area","shield_text":"040","ref":"ERS-040"},"arcs":[194]},{"type":"LineString","properties":{"kind":"major_road","network":"BR:RS","sort_rank":380,"kind_detail":"primary","source":"openstreetmap.org","min_zoom":8.0,"landuse_kind":"urban_area","shield_text":"407","ref":"ERS-407","id":94541997},"arcs":[195]}]},"earth":{"type":"GeometryCollection","geometries":[{"type":"Polygon","properties":{"sort_rank":10,"source":"naturalearthdata.com","kind":"earth","min_zoom":0.0,"id":4460},"arcs":[[196]]}]},"landuse":{"type":"GeometryCollection","geometries":[{"type":"MultiPolygon","properties":{"source":"naturalearthdata.com","kind":"urban_area","name":"","area":304174944,"sort_rank":11,"min_zoom":4.0},"arcs":[[[197]],[[198]],[[199]]]},{"type":"Polygon","properties":{"kind":"nature_reserve","protect_class":"24","area":39612058,"sort_rank":23,"operator":"Funda\u00e7\u00e3o Nacional do \u00cdndio","source":"openstreetmap.org","min_zoom":8.0,"tier":2,"osm_relation":true},"arcs":[[200]]},{"type":"Polygon","properties":{"kind":"nature_reserve","protect_class":"1","area":61870200,"sort_rank":23,"operator":"Secretaria Estadual do Meio Ambiente do Rio Grande do Sul","source":"openstreetmap.org","min_zoom":8.0,"tier":2,"id":263987373},"arcs":[[201]]}]}},"type":"Topology","transform":{"translate":[-50.625,-30.7512777763],"scale":[0.0003433228,0.0002968868]},"arcs":[[[1086,0],[229,365],[192,389],[424,1262],[397,967],[248,512],[378,601]],[[1086,0],[229,365],[192,389],[424,1262],[397,967],[248,512],[378,601]],[[0,1912],[30,-9],[32,-25],[16,-29],[31,-82],[12,-18],[110,-64],[17,-56],[9,-89],[-1,-89],[-53,-197],[-39,-63],[-12,-40],[18,-83],[5,-54],[-21,-37],[-103,-81],[-44,39],[-7,8],[0,969]],[[4096,4096],[0,-4096],[-3784,0],[589,976],[187,467],[130,410],[470,1302],[140,168],[186,439],[200,334],[1882,0]],[[2214,4096],[-200,-334],[-186,-439],[-140,-168],[-470,-1302],[-130,-410],[-187,-467],[-589,-976]],[[0,943],[7,-8],[44,-39],[103,81],[21,37],[-5,54],[-18,83],[12,40],[39,63],[53,197],[1,89],[-9,89],[-17,56],[-110,64],[-12,18],[-31,82],[-16,29],[-32,25],[-30,9]],[[122,3672],[-1,0]],[[335,1671],[-17,-10]],[[332,2044],[1,0]],[[334,2045],[0,1]],[[337,1672],[-2,-1]],[[351,1681],[-14,-9]],[[1195,3349],[-7,1]],[[1195,3349],[4,-2]],[[1199,3348],[-4,1]],[[1313,3547],[10,2]],[[1323,3549],[5,2]],[[1328,3551],[24,11]],[[1352,3562],[3,1]],[[1355,3563],[-3,-1]],[[1702,4022],[-56,-52],[-51,-77]],[[1596,3892],[107,128]],[[1558,2956],[1,1]],[[1025,2856],[10,-33],[7,-10]],[[1046,2815],[-18,34]],[[1152,1994],[-50,32],[-59,-33],[-153,-158]],[[1207,3347],[-8,1]],[[1199,3347],[8,0]],[[1310,3270],[-27,-11],[-45,80],[-31,8]],[[1242,3472],[7,56],[33,31],[24,-9]],[[1250,3453],[-8,19]],[[1313,3278],[16,66],[-19,64],[-60,45]],[[1306,3550],[7,-3]],[[1574,4073],[-5,5]],[[1604,4033],[5,-6]],[[1624,4018],[-10,5]],[[1019,2822],[-45,11]],[[1594,3040],[2,-1]],[[1596,3040],[-1,0]],[[1313,3283],[0,-5]],[[0,3454],[107,-20],[60,-163],[84,-34],[-1,-152],[76,-145]],[[1072,2954],[-53,-43]],[[1044,2925],[31,30]],[[1550,4096],[129,-108],[5,-56],[42,-27],[44,18],[171,-102]],[[1941,3821],[1,-1]],[[1943,3821],[-2,0]],[[1045,2827],[30,5]],[[1045,2827],[-9,-2],[-17,-3],[15,3],[11,2]],[[1075,2832],[12,9]],[[1087,2841],[105,60]],[[1561,2960],[1,3]],[[1562,2963],[-1,-1]],[[1562,2963],[9,18]],[[1571,2981],[4,10]],[[1575,2991],[18,44]],[[1593,3035],[4,9]],[[1597,3044],[10,23]],[[1631,3142],[36,63]],[[1653,3296],[1,8]],[[1672,3213],[11,34],[-30,49]],[[1654,3304],[77,82]],[[1667,3205],[5,8]],[[1731,3386],[5,9]],[[1736,3395],[48,97]],[[1010,2905],[-8,-9]],[[324,2024],[98,-358],[-64,-512],[21,-170],[84,-62],[25,-139],[-59,-188],[-77,-108],[-24,-105],[-304,-382]],[[324,2024],[11,23]],[[776,2528],[-97,-113],[-16,-97],[-63,-110],[-265,-161]],[[776,2528],[4,9]],[[891,2777],[-111,-240]],[[882,2878],[9,-101]],[[891,2777],[2,6]],[[1019,2911],[-9,-6]],[[0,2916],[89,-3],[130,9],[111,12],[122,-33],[52,11],[18,6],[26,17]],[[548,2935],[74,49],[3,-1]],[[625,2983],[12,-3]],[[637,2980],[16,-5],[58,-73]],[[711,2902],[3,-5],[169,-22],[90,3]],[[974,2880],[-260,18],[-3,4]],[[711,2902],[-74,78]],[[637,2980],[-6,6],[-6,-3]],[[625,2983],[-77,-48]],[[548,2935],[-28,-17],[-16,-5],[-169,22],[-335,-18]],[[1227,1973],[-19,6]],[[1209,1978],[17,-6]],[[1400,2500],[-12,-32]],[[1389,2467],[23,-8]],[[1402,2501],[25,53],[-26,-52]],[[1413,2459],[-24,9],[12,32]],[[1596,3039],[3,-2]],[[1600,3038],[-4,2]],[[1599,3037],[2,0]],[[1601,3037],[-1,1]],[[1600,3038],[-1,-1]],[[1601,3037],[28,-12]],[[1629,3025],[-28,13]],[[1401,2502],[-1,-1],[1,-1],[1,0],[-1,2]],[[1025,2856],[-19,22],[-14,11]],[[1006,2878],[19,-24]],[[1329,2284],[-79,-255]],[[1335,2510],[2,-3]],[[1337,2507],[1,-1]],[[1367,2530],[-32,-19]],[[1339,2509],[-2,-2]],[[1337,2507]],[[1338,2507],[1,2]],[[1338,2506],[29,23]],[[1338,2506],[24,-19]],[[1002,2896],[-1,-1]],[[1001,2895],[1,1]],[[155,3700],[3,0]],[[973,2878],[28,17]],[[1001,2895],[-27,-15]],[[1002,2896],[18,15]],[[1316,3279],[169,36],[39,-28],[125,13]],[[118,3672],[-118,4]],[[118,3672],[4,0],[11,8],[8,23]],[[140,3703],[-22,-31]],[[141,3703],[7,-2]],[[148,3701],[-7,3]],[[148,3701],[7,-1]],[[158,3700],[36,34],[83,18],[48,-26]],[[329,3726],[-4,0]],[[475,3741],[-56,18],[-90,-33]],[[488,3738],[-13,3]],[[490,3740],[-2,-2]],[[490,3740],[8,-5]],[[499,3736],[-9,4]],[[524,3734],[-25,1]],[[1219,1959],[-67,35]],[[1219,1959],[1,-7]],[[1221,1953],[-2,6]],[[1226,1972],[1,-1]],[[1020,2911],[24,14]],[[140,3703],[1,0],[0,1],[-1,-1]],[[499,3735],[0,1],[-1,-1],[1,0]],[[1199,1861],[-73,-162]],[[1127,1698],[55,116]],[[1199,1861],[25,61]],[[1245,2018],[-25,-66]],[[1221,1952],[24,66]],[[1228,1927],[-4,-5]],[[1245,2018],[5,11]],[[1349,2356],[-20,-72]],[[1381,2444],[-32,-88]],[[1362,2487],[23,-17]],[[1367,2529],[20,13],[3,4],[13,13]],[[1403,2559],[26,25]],[[1431,2586],[-28,-27]],[[1403,2559],[-16,-17],[-20,-12]],[[1388,2466],[-7,-22]],[[1385,2470],[3,-4]],[[1388,2468],[-3,2]],[[1388,2466],[1,1]],[[1432,2587],[-1,-1]],[[1432,2588],[-1,-2]],[[1389,2468],[-1,0],[1,-1],[0,1]],[[252,3082],[-1,7]],[[1738,4093],[-29,-66],[-69,-63],[-116,-196],[-144,-181],[-65,-42],[-107,-140],[-110,-292],[2,-95],[-28,-64]],[[1075,2955],[12,17],[13,46],[1,86],[-3,9],[91,228],[20,64],[106,140],[66,42],[144,181],[116,195],[68,64],[29,64]],[[1744,4096],[-4,-2]],[[1741,4093],[4,3]],[[1777,4096]],[[1777,4096],[30,0]],[[1807,4096],[1,0]],[[1126,1699],[1,-1]],[[1192,2901],[225,60],[136,-7]],[[1553,2954],[8,6]],[[1561,2962],[-8,-8]],[[1607,3067],[1,3]],[[1608,3070],[4,8]],[[1612,3078],[19,64]],[[1784,3492],[51,109]],[[1835,3601],[4,8]],[[1839,3609],[73,131]],[[1916,3748],[40,152],[109,193]],[[2065,4093],[2,3]],[[2066,4096],[-1,-3]],[[408,1711],[-57,-30]],[[898,2786],[-5,-2]],[[893,2783],[5,3]],[[962,2832],[-64,-46]],[[962,2832],[9,1]],[[974,2833],[-3,0]],[[1042,2813],[132,-203],[161,-100]],[[1335,2511],[-52,36],[-110,64],[-127,204]],[[0,2130],[220,-84],[100,-11]],[[330,2034],[-10,1]],[[330,2034],[331,-35],[83,-108],[127,-56]],[[871,1835],[19,-5]],[[890,1830],[202,-98]],[[1740,4094],[-2,-1]],[[1738,4091],[3,2]],[[1335,2510],[0,1]],[[1092,1732],[34,-33]],[[1649,3300],[2,0]],[[2214,4096],[-200,-334],[-186,-439],[-140,-168],[-470,-1302],[-130,-410],[-187,-467],[-589,-976],[-312,0],[0,943],[7,-8],[44,-39],[103,81],[21,37],[-5,54],[-18,83],[12,40],[39,63],[53,197],[1,89],[-9,89],[-17,56],[-110,64],[-12,18],[-31,82],[-16,29],[-32,25],[-30,9],[0,2184],[2214,0]],[[1088,1443],[-24,-61],[-42,100],[18,200],[100,97],[4,42],[-68,70],[53,88],[85,55],[66,-10],[-192,-581]],[[979,2789],[-9,85],[49,64],[86,26],[100,-25],[-26,-73],[-200,-77]],[[1688,3155],[-319,-885],[-68,23],[-31,47],[32,38],[0,74],[65,38],[0,75],[64,37],[0,150],[33,0],[32,150],[65,37],[0,75],[64,75],[33,299],[81,67],[16,45],[132,-37],[-59,-140],[-140,-168]],[[1050,3523],[121,-1],[-24,-107],[-56,70],[-50,0],[18,23],[-24,-23],[-35,62],[-26,1],[4,26],[-50,-46],[13,59],[-57,-18],[-16,14],[22,12],[-33,-4],[-14,54],[80,-4],[27,25],[7,65],[-24,13],[44,69],[5,-165],[21,-32],[73,8],[-59,-48],[33,-53]],[[1120,4028],[50,60],[123,-121],[23,28],[34,-43],[-13,-32],[42,14],[31,-42],[-51,-79],[75,-67],[-85,0],[-6,20],[-23,-17],[-43,46],[-69,4],[79,76],[-54,6],[-89,89],[19,23],[-43,35]]]}